<?xml version="1.0" encoding="UTF-8"?>
<gpx xmlns:xsi="http://www.w3.org/2001/XMLSchema-instance" xmlns="http://www.topografix.com/GPX/1/1" xmlns:gpxdata="http://www.cluetrust.com/XML/GPXDATA/1/0" xsi:schemaLocation="http://www.topografix.com/GPX/1/1 http://www.topografix.com/GPX/1/1/gpx.xsd http://www.cluetrust.com/XML/GPXDATA/1/0 http://www.cluetrust.com/Schemas/gpxdata10.xsd" version="1.1" creator="http://ridewithgps.com/">
  <metadata>
    <name>Gwangju to Jeungdo</name>
    <link href="https://ridewithgps.com/routes/31923721">
      <text>Gwangju to Jeungdo</text>
    </link>
    <time>2020-02-13T02:48:39Z</time>
  </metadata>
  <wpt lon="126.5306788" lat="35.0680334">
    <name>Control</name>
    <cmt>CP1</cmt>
    <desc>CP1</desc>
    <sym>Dot</sym>
    <type>Dot</type>
  </wpt>
  <wpt lon="126.1252138" lat="34.9483389">
    <name>Control</name>
    <cmt>CP2</cmt>
    <desc>CP2</desc>
    <sym>Dot</sym>
    <type>Dot</type>
  </wpt>
  <wpt lon="126.53064021840707" lat="35.06811133551225">
    <name>CP1,3 Hampyeong</name>
    <sym>Dot</sym>
    <type>Dot</type>
  </wpt>
  <wpt lon="126.125060794875" lat="34.9478353187442">
    <name>CP2 Jeungdo</name>
    <sym>Dot</sym>
    <type>Dot</type>
  </wpt>
  <wpt lon="126.861520037055" lat="35.2062799874693">
    <name>Start / Finish</name>
    <sym>Dot</sym>
    <type>Dot</type>
  </wpt>
  <trk>
    <name>Gwangju to Jeungdo</name>
    <trkseg>
      <trkpt lat="35.206308" lon="126.861494">
        <ele>20.7</ele>
      </trkpt>
      <trkpt lat="35.206321" lon="126.856993">
        <ele>22.9</ele>
      </trkpt>
      <trkpt lat="35.2067229" lon="126.851374">
        <ele>24.7</ele>
      </trkpt>
      <trkpt lat="35.206717" lon="126.846631">
        <ele>22.2</ele>
      </trkpt>
      <trkpt lat="35.206604" lon="126.845809">
        <ele>25.3</ele>
      </trkpt>
      <trkpt lat="35.206377" lon="126.845126">
        <ele>29.5</ele>
      </trkpt>
      <trkpt lat="35.206082" lon="126.84459">
        <ele>32.0</ele>
      </trkpt>
      <trkpt lat="35.20561" lon="126.843876">
        <ele>34.9</ele>
      </trkpt>
      <trkpt lat="35.203296" lon="126.840779">
        <ele>38.0</ele>
      </trkpt>
      <trkpt lat="35.2026169" lon="126.83977">
        <ele>36.3</ele>
      </trkpt>
      <trkpt lat="35.205837" lon="126.83561">
        <ele>44.7</ele>
      </trkpt>
      <trkpt lat="35.206698" lon="126.83457">
        <ele>39.3</ele>
      </trkpt>
      <trkpt lat="35.207654" lon="126.833468">
        <ele>37.3</ele>
      </trkpt>
      <trkpt lat="35.208585" lon="126.83249">
        <ele>38.7</ele>
      </trkpt>
      <trkpt lat="35.20949" lon="126.831613">
        <ele>39.9</ele>
      </trkpt>
      <trkpt lat="35.21066" lon="126.830558">
        <ele>43.9</ele>
      </trkpt>
      <trkpt lat="35.21154" lon="126.829867">
        <ele>44.6</ele>
      </trkpt>
      <trkpt lat="35.212534" lon="126.829223">
        <ele>43.7</ele>
      </trkpt>
      <trkpt lat="35.213527" lon="126.828687">
        <ele>39.0</ele>
      </trkpt>
      <trkpt lat="35.214615" lon="126.828175">
        <ele>41.3</ele>
      </trkpt>
      <trkpt lat="35.215634" lon="126.827833">
        <ele>41.6</ele>
      </trkpt>
      <trkpt lat="35.21691" lon="126.8275">
        <ele>45.0</ele>
      </trkpt>
      <trkpt lat="35.218086" lon="126.827267">
        <ele>41.3</ele>
      </trkpt>
      <trkpt lat="35.218596" lon="126.827081">
        <ele>40.8</ele>
      </trkpt>
      <trkpt lat="35.21969" lon="126.826902">
        <ele>39.9</ele>
      </trkpt>
      <trkpt lat="35.219463" lon="126.826134">
        <ele>41.3</ele>
      </trkpt>
      <trkpt lat="35.220293" lon="126.825142">
        <ele>39.4</ele>
      </trkpt>
      <trkpt lat="35.220289" lon="126.825113">
        <ele>39.4</ele>
      </trkpt>
      <trkpt lat="35.219381" lon="126.818469">
        <ele>41.4</ele>
      </trkpt>
      <trkpt lat="35.218698" lon="126.81731">
        <ele>34.4</ele>
      </trkpt>
      <trkpt lat="35.21861" lon="126.81628">
        <ele>30.1</ele>
      </trkpt>
      <trkpt lat="35.21882" lon="126.814091">
        <ele>26.1</ele>
      </trkpt>
      <trkpt lat="35.216909" lon="126.807525">
        <ele>25.8</ele>
      </trkpt>
      <trkpt lat="35.216594" lon="126.802762">
        <ele>32.1</ele>
      </trkpt>
      <trkpt lat="35.217505" lon="126.799436">
        <ele>35.4</ele>
      </trkpt>
      <trkpt lat="35.217365" lon="126.798685">
        <ele>37.9</ele>
      </trkpt>
      <trkpt lat="35.215595" lon="126.797762">
        <ele>38.2</ele>
      </trkpt>
      <trkpt lat="35.214701" lon="126.796882">
        <ele>37.6</ele>
      </trkpt>
      <trkpt lat="35.2138769" lon="126.796753">
        <ele>38.9</ele>
      </trkpt>
      <trkpt lat="35.21333" lon="126.79543">
        <ele>38.5</ele>
      </trkpt>
      <trkpt lat="35.21344" lon="126.79451">
        <ele>37.2</ele>
      </trkpt>
      <trkpt lat="35.21374" lon="126.79168">
        <ele>34.0</ele>
      </trkpt>
      <trkpt lat="35.213799" lon="126.790781">
        <ele>37.0</ele>
      </trkpt>
      <trkpt lat="35.213842" lon="126.790155">
        <ele>42.3</ele>
      </trkpt>
      <trkpt lat="35.213745" lon="126.789823">
        <ele>44.0</ele>
      </trkpt>
      <trkpt lat="35.211168" lon="126.784866">
        <ele>41.1</ele>
      </trkpt>
      <trkpt lat="35.2106" lon="126.78371">
        <ele>44.1</ele>
      </trkpt>
      <trkpt lat="35.20886" lon="126.78083">
        <ele>39.5</ele>
      </trkpt>
      <trkpt lat="35.20824" lon="126.77947">
        <ele>35.6</ele>
      </trkpt>
      <trkpt lat="35.20765" lon="126.77803">
        <ele>42.3</ele>
      </trkpt>
      <trkpt lat="35.20689" lon="126.77611">
        <ele>42.1</ele>
      </trkpt>
      <trkpt lat="35.20651" lon="126.77525">
        <ele>39.1</ele>
      </trkpt>
      <trkpt lat="35.20606" lon="126.77441">
        <ele>37.4</ele>
      </trkpt>
      <trkpt lat="35.2057" lon="126.77371">
        <ele>35.0</ele>
      </trkpt>
      <trkpt lat="35.20516" lon="126.77275">
        <ele>33.0</ele>
      </trkpt>
      <trkpt lat="35.20454" lon="126.77259">
        <ele>35.1</ele>
      </trkpt>
      <trkpt lat="35.20412" lon="126.77193">
        <ele>33.4</ele>
      </trkpt>
      <trkpt lat="35.20422" lon="126.77131">
        <ele>31.1</ele>
      </trkpt>
      <trkpt lat="35.2043" lon="126.76993">
        <ele>29.4</ele>
      </trkpt>
      <trkpt lat="35.20381" lon="126.76893">
        <ele>29.6</ele>
      </trkpt>
      <trkpt lat="35.20344" lon="126.7666">
        <ele>32.9</ele>
      </trkpt>
      <trkpt lat="35.20288" lon="126.76572">
        <ele>34.0</ele>
      </trkpt>
      <trkpt lat="35.20224" lon="126.76492">
        <ele>27.3</ele>
      </trkpt>
      <trkpt lat="35.20219" lon="126.76432">
        <ele>27.0</ele>
      </trkpt>
      <trkpt lat="35.20335" lon="126.76161">
        <ele>27.0</ele>
      </trkpt>
      <trkpt lat="35.20489" lon="126.75823">
        <ele>26.3</ele>
      </trkpt>
      <trkpt lat="35.20579" lon="126.75746">
        <ele>26.8</ele>
      </trkpt>
      <trkpt lat="35.20676" lon="126.75633">
        <ele>23.8</ele>
      </trkpt>
      <trkpt lat="35.20789" lon="126.75488">
        <ele>24.4</ele>
      </trkpt>
      <trkpt lat="35.20888" lon="126.75338">
        <ele>26.9</ele>
      </trkpt>
      <trkpt lat="35.20766" lon="126.75215">
        <ele>34.9</ele>
      </trkpt>
      <trkpt lat="35.20664" lon="126.75287">
        <ele>32.9</ele>
      </trkpt>
      <trkpt lat="35.20602" lon="126.75313">
        <ele>34.4</ele>
      </trkpt>
      <trkpt lat="35.20553" lon="126.75323">
        <ele>34.5</ele>
      </trkpt>
      <trkpt lat="35.2046599" lon="126.75331">
        <ele>33.3</ele>
      </trkpt>
      <trkpt lat="35.20353" lon="126.75364">
        <ele>35.3</ele>
      </trkpt>
      <trkpt lat="35.20304" lon="126.75388">
        <ele>32.7</ele>
      </trkpt>
      <trkpt lat="35.20221" lon="126.75409">
        <ele>29.0</ele>
      </trkpt>
      <trkpt lat="35.20046" lon="126.75413">
        <ele>27.1</ele>
      </trkpt>
      <trkpt lat="35.19985" lon="126.75404">
        <ele>29.6</ele>
      </trkpt>
      <trkpt lat="35.19909" lon="126.75363">
        <ele>35.2</ele>
      </trkpt>
      <trkpt lat="35.1972" lon="126.75223">
        <ele>30.5</ele>
      </trkpt>
      <trkpt lat="35.19648" lon="126.75167">
        <ele>30.3</ele>
      </trkpt>
      <trkpt lat="35.1961" lon="126.75119">
        <ele>29.3</ele>
      </trkpt>
      <trkpt lat="35.19563" lon="126.75064">
        <ele>28.7</ele>
      </trkpt>
      <trkpt lat="35.1952" lon="126.75006">
        <ele>28.4</ele>
      </trkpt>
      <trkpt lat="35.19417" lon="126.74864">
        <ele>29.4</ele>
      </trkpt>
      <trkpt lat="35.19375" lon="126.74793">
        <ele>29.0</ele>
      </trkpt>
      <trkpt lat="35.19339" lon="126.7474">
        <ele>29.1</ele>
      </trkpt>
      <trkpt lat="35.19297" lon="126.74672">
        <ele>29.5</ele>
      </trkpt>
      <trkpt lat="35.1921899" lon="126.74623">
        <ele>29.6</ele>
      </trkpt>
      <trkpt lat="35.19135" lon="126.74454">
        <ele>26.4</ele>
      </trkpt>
      <trkpt lat="35.19075" lon="126.74349">
        <ele>26.6</ele>
      </trkpt>
      <trkpt lat="35.19007" lon="126.74257">
        <ele>28.0</ele>
      </trkpt>
      <trkpt lat="35.18939" lon="126.7415">
        <ele>28.4</ele>
      </trkpt>
      <trkpt lat="35.18898" lon="126.74081">
        <ele>30.4</ele>
      </trkpt>
      <trkpt lat="35.18828" lon="126.73973">
        <ele>31.8</ele>
      </trkpt>
      <trkpt lat="35.1880499" lon="126.73926">
        <ele>32.3</ele>
      </trkpt>
      <trkpt lat="35.18783" lon="126.7386">
        <ele>31.3</ele>
      </trkpt>
      <trkpt lat="35.18754" lon="126.73774">
        <ele>31.4</ele>
      </trkpt>
      <trkpt lat="35.1872" lon="126.73719">
        <ele>31.9</ele>
      </trkpt>
      <trkpt lat="35.18678" lon="126.7367">
        <ele>31.4</ele>
      </trkpt>
      <trkpt lat="35.18468" lon="126.73445">
        <ele>32.1</ele>
      </trkpt>
      <trkpt lat="35.18157" lon="126.73093">
        <ele>27.8</ele>
      </trkpt>
      <trkpt lat="35.18065" lon="126.72989">
        <ele>28.0</ele>
      </trkpt>
      <trkpt lat="35.1802599" lon="126.72833">
        <ele>28.0</ele>
      </trkpt>
      <trkpt lat="35.17978" lon="126.72594">
        <ele>28.2</ele>
      </trkpt>
      <trkpt lat="35.17897" lon="126.72185">
        <ele>33.8</ele>
      </trkpt>
      <trkpt lat="35.17868" lon="126.71982">
        <ele>36.6</ele>
      </trkpt>
      <trkpt lat="35.17842" lon="126.71867">
        <ele>33.3</ele>
      </trkpt>
      <trkpt lat="35.17781" lon="126.71621">
        <ele>35.1</ele>
      </trkpt>
      <trkpt lat="35.17756" lon="126.71397">
        <ele>42.0</ele>
      </trkpt>
      <trkpt lat="35.17734" lon="126.71335">
        <ele>43.8</ele>
      </trkpt>
      <trkpt lat="35.17645" lon="126.71199">
        <ele>34.4</ele>
      </trkpt>
      <trkpt lat="35.17448" lon="126.70931">
        <ele>25.8</ele>
      </trkpt>
      <trkpt lat="35.17118" lon="126.70284">
        <ele>27.5</ele>
      </trkpt>
      <trkpt lat="35.17069" lon="126.70119">
        <ele>25.9</ele>
      </trkpt>
      <trkpt lat="35.17051" lon="126.70064">
        <ele>25.3</ele>
      </trkpt>
      <trkpt lat="35.17015" lon="126.70015">
        <ele>24.9</ele>
      </trkpt>
      <trkpt lat="35.16997" lon="126.69598">
        <ele>26.8</ele>
      </trkpt>
      <trkpt lat="35.16877" lon="126.69361">
        <ele>30.6</ele>
      </trkpt>
      <trkpt lat="35.16768" lon="126.69068">
        <ele>30.8</ele>
      </trkpt>
      <trkpt lat="35.166584" lon="126.690645">
        <ele>26.0</ele>
      </trkpt>
      <trkpt lat="35.165005" lon="126.689723">
        <ele>25.3</ele>
      </trkpt>
      <trkpt lat="35.163338" lon="126.68968">
        <ele>28.0</ele>
      </trkpt>
      <trkpt lat="35.162952" lon="126.688135">
        <ele>33.1</ele>
      </trkpt>
      <trkpt lat="35.16269" lon="126.68733">
        <ele>34.4</ele>
      </trkpt>
      <trkpt lat="35.16226" lon="126.6865">
        <ele>30.4</ele>
      </trkpt>
      <trkpt lat="35.16187" lon="126.68565">
        <ele>28.3</ele>
      </trkpt>
      <trkpt lat="35.16175" lon="126.68507">
        <ele>29.6</ele>
      </trkpt>
      <trkpt lat="35.1621" lon="126.68251">
        <ele>31.4</ele>
      </trkpt>
      <trkpt lat="35.16288" lon="126.67723">
        <ele>32.8</ele>
      </trkpt>
      <trkpt lat="35.16322" lon="126.67547">
        <ele>32.5</ele>
      </trkpt>
      <trkpt lat="35.16367" lon="126.67431">
        <ele>33.7</ele>
      </trkpt>
      <trkpt lat="35.163038" lon="126.67394">
        <ele>34.5</ele>
      </trkpt>
      <trkpt lat="35.162415" lon="126.673447">
        <ele>37.5</ele>
      </trkpt>
      <trkpt lat="35.161837" lon="126.673018">
        <ele>34.1</ele>
      </trkpt>
      <trkpt lat="35.161117" lon="126.672438">
        <ele>35.5</ele>
      </trkpt>
      <trkpt lat="35.160428" lon="126.672043">
        <ele>39.1</ele>
      </trkpt>
      <trkpt lat="35.15997" lon="126.671943">
        <ele>40.0</ele>
      </trkpt>
      <trkpt lat="35.159398" lon="126.671795">
        <ele>41.1</ele>
      </trkpt>
      <trkpt lat="35.158757" lon="126.671832">
        <ele>39.2</ele>
      </trkpt>
      <trkpt lat="35.1581819" lon="126.67191">
        <ele>37.6</ele>
      </trkpt>
      <trkpt lat="35.157083" lon="126.672256">
        <ele>38.7</ele>
      </trkpt>
      <trkpt lat="35.156152" lon="126.672719">
        <ele>42.9</ele>
      </trkpt>
      <trkpt lat="35.154942" lon="126.673468">
        <ele>45.3</ele>
      </trkpt>
      <trkpt lat="35.154197" lon="126.67393">
        <ele>51.7</ele>
      </trkpt>
      <trkpt lat="35.153205" lon="126.674338">
        <ele>65.3</ele>
      </trkpt>
      <trkpt lat="35.152697" lon="126.674555">
        <ele>69.5</ele>
      </trkpt>
      <trkpt lat="35.152012" lon="126.674573">
        <ele>73.2</ele>
      </trkpt>
      <trkpt lat="35.151201" lon="126.67452">
        <ele>72.3</ele>
      </trkpt>
      <trkpt lat="35.150569" lon="126.674268">
        <ele>69.2</ele>
      </trkpt>
      <trkpt lat="35.150688" lon="126.671714">
        <ele>64.2</ele>
      </trkpt>
      <trkpt lat="35.150618" lon="126.671231">
        <ele>63.0</ele>
      </trkpt>
      <trkpt lat="35.15067" lon="126.66915">
        <ele>66.0</ele>
      </trkpt>
      <trkpt lat="35.15055" lon="126.66861">
        <ele>70.3</ele>
      </trkpt>
      <trkpt lat="35.15012" lon="126.66786">
        <ele>62.5</ele>
      </trkpt>
      <trkpt lat="35.14994" lon="126.66707">
        <ele>58.1</ele>
      </trkpt>
      <trkpt lat="35.1499" lon="126.66605">
        <ele>53.2</ele>
      </trkpt>
      <trkpt lat="35.15005" lon="126.66503">
        <ele>47.4</ele>
      </trkpt>
      <trkpt lat="35.15036" lon="126.66406">
        <ele>42.8</ele>
      </trkpt>
      <trkpt lat="35.15039" lon="126.66312">
        <ele>43.4</ele>
      </trkpt>
      <trkpt lat="35.15026" lon="126.66246">
        <ele>43.5</ele>
      </trkpt>
      <trkpt lat="35.15011" lon="126.66158">
        <ele>41.9</ele>
      </trkpt>
      <trkpt lat="35.14999" lon="126.66079">
        <ele>41.7</ele>
      </trkpt>
      <trkpt lat="35.15004" lon="126.65923">
        <ele>36.3</ele>
      </trkpt>
      <trkpt lat="35.1497699" lon="126.65843">
        <ele>37.8</ele>
      </trkpt>
      <trkpt lat="35.149727" lon="126.656785">
        <ele>43.9</ele>
      </trkpt>
      <trkpt lat="35.149212" lon="126.654639">
        <ele>41.5</ele>
      </trkpt>
      <trkpt lat="35.148611" lon="126.65288">
        <ele>40.1</ele>
      </trkpt>
      <trkpt lat="35.148182" lon="126.65185">
        <ele>40.5</ele>
      </trkpt>
      <trkpt lat="35.147409" lon="126.65082">
        <ele>41.0</ele>
      </trkpt>
      <trkpt lat="35.146766" lon="126.649318">
        <ele>36.6</ele>
      </trkpt>
      <trkpt lat="35.146122" lon="126.648331">
        <ele>34.6</ele>
      </trkpt>
      <trkpt lat="35.14595" lon="126.647215">
        <ele>40.3</ele>
      </trkpt>
      <trkpt lat="35.146465" lon="126.645284">
        <ele>36.9</ele>
      </trkpt>
      <trkpt lat="35.146079" lon="126.644254">
        <ele>34.6</ele>
      </trkpt>
      <trkpt lat="35.144835" lon="126.643867">
        <ele>38.8</ele>
      </trkpt>
      <trkpt lat="35.144362" lon="126.643567">
        <ele>39.1</ele>
      </trkpt>
      <trkpt lat="35.143976" lon="126.643138">
        <ele>36.5</ele>
      </trkpt>
      <trkpt lat="35.14286" lon="126.640778">
        <ele>28.8</ele>
      </trkpt>
      <trkpt lat="35.141788" lon="126.637387">
        <ele>31.8</ele>
      </trkpt>
      <trkpt lat="35.140586" lon="126.632624">
        <ele>30.5</ele>
      </trkpt>
      <trkpt lat="35.138526" lon="126.628804">
        <ele>28.1</ele>
      </trkpt>
      <trkpt lat="35.138097" lon="126.628118">
        <ele>32.2</ele>
      </trkpt>
      <trkpt lat="35.137281" lon="126.626959">
        <ele>32.9</ele>
      </trkpt>
      <trkpt lat="35.136337" lon="126.626101">
        <ele>34.6</ele>
      </trkpt>
      <trkpt lat="35.135736" lon="126.625457">
        <ele>31.6</ele>
      </trkpt>
      <trkpt lat="35.13535" lon="126.624341">
        <ele>23.9</ele>
      </trkpt>
      <trkpt lat="35.134749" lon="126.62374">
        <ele>25.5</ele>
      </trkpt>
      <trkpt lat="35.134277" lon="126.623397">
        <ele>26.1</ele>
      </trkpt>
      <trkpt lat="35.132818" lon="126.622968">
        <ele>33.6</ele>
      </trkpt>
      <trkpt lat="35.132046" lon="126.622453">
        <ele>32.3</ele>
      </trkpt>
      <trkpt lat="35.130801" lon="126.622152">
        <ele>34.3</ele>
      </trkpt>
      <trkpt lat="35.128698" lon="126.622238">
        <ele>29.5</ele>
      </trkpt>
      <trkpt lat="35.128098" lon="126.62241">
        <ele>27.0</ele>
      </trkpt>
      <trkpt lat="35.127153" lon="126.622968">
        <ele>25.9</ele>
      </trkpt>
      <trkpt lat="35.125737" lon="126.624084">
        <ele>29.0</ele>
      </trkpt>
      <trkpt lat="35.125265" lon="126.624298">
        <ele>26.8</ele>
      </trkpt>
      <trkpt lat="35.121574" lon="126.62241">
        <ele>19.9</ele>
      </trkpt>
      <trkpt lat="35.1183989" lon="126.621208">
        <ele>26.6</ele>
      </trkpt>
      <trkpt lat="35.117197" lon="126.617947">
        <ele>25.5</ele>
      </trkpt>
      <trkpt lat="35.115995" lon="126.616616">
        <ele>28.7</ele>
      </trkpt>
      <trkpt lat="35.115566" lon="126.615887">
        <ele>23.1</ele>
      </trkpt>
      <trkpt lat="35.113335" lon="126.615286">
        <ele>22.0</ele>
      </trkpt>
      <trkpt lat="35.113335" lon="126.615286">
        <ele>22.0</ele>
      </trkpt>
      <trkpt lat="35.11333" lon="126.61529">
        <ele>22.0</ele>
      </trkpt>
      <trkpt lat="35.11294" lon="126.61521">
        <ele>21.3</ele>
      </trkpt>
      <trkpt lat="35.11289" lon="126.61517">
        <ele>21.1</ele>
      </trkpt>
      <trkpt lat="35.11226" lon="126.61497">
        <ele>20.5</ele>
      </trkpt>
      <trkpt lat="35.11153" lon="126.61457">
        <ele>20.8</ele>
      </trkpt>
      <trkpt lat="35.11079" lon="126.61417">
        <ele>19.1</ele>
      </trkpt>
      <trkpt lat="35.11006" lon="126.61377">
        <ele>19.1</ele>
      </trkpt>
      <trkpt lat="35.10954" lon="126.61348">
        <ele>18.5</ele>
      </trkpt>
      <trkpt lat="35.10902" lon="126.61318">
        <ele>19.0</ele>
      </trkpt>
      <trkpt lat="35.10902" lon="126.61318">
        <ele>19.0</ele>
      </trkpt>
      <trkpt lat="35.10842" lon="126.61284">
        <ele>19.3</ele>
      </trkpt>
      <trkpt lat="35.10786" lon="126.61255">
        <ele>20.3</ele>
      </trkpt>
      <trkpt lat="35.10758" lon="126.61236">
        <ele>20.3</ele>
      </trkpt>
      <trkpt lat="35.10732" lon="126.61213">
        <ele>20.9</ele>
      </trkpt>
      <trkpt lat="35.10698" lon="126.61175">
        <ele>21.5</ele>
      </trkpt>
      <trkpt lat="35.10677" lon="126.61141">
        <ele>21.3</ele>
      </trkpt>
      <trkpt lat="35.1064" lon="126.61045">
        <ele>23.6</ele>
      </trkpt>
      <trkpt lat="35.1060299" lon="126.6095">
        <ele>24.1</ele>
      </trkpt>
      <trkpt lat="35.1057599" lon="126.60869">
        <ele>21.3</ele>
      </trkpt>
      <trkpt lat="35.10554" lon="126.6082">
        <ele>24.9</ele>
      </trkpt>
      <trkpt lat="35.10522" lon="126.60777">
        <ele>30.1</ele>
      </trkpt>
      <trkpt lat="35.1049" lon="126.60754">
        <ele>32.1</ele>
      </trkpt>
      <trkpt lat="35.10429" lon="126.60726">
        <ele>32.6</ele>
      </trkpt>
      <trkpt lat="35.10367" lon="126.60698">
        <ele>32.0</ele>
      </trkpt>
      <trkpt lat="35.10323" lon="126.60685">
        <ele>32.0</ele>
      </trkpt>
      <trkpt lat="35.10279" lon="126.60672">
        <ele>31.2</ele>
      </trkpt>
      <trkpt lat="35.10263" lon="126.60659">
        <ele>31.2</ele>
      </trkpt>
      <trkpt lat="35.10249" lon="126.60641">
        <ele>31.3</ele>
      </trkpt>
      <trkpt lat="35.10204" lon="126.60553">
        <ele>30.8</ele>
      </trkpt>
      <trkpt lat="35.10159" lon="126.60465">
        <ele>27.8</ele>
      </trkpt>
      <trkpt lat="35.10122" lon="126.60392">
        <ele>25.0</ele>
      </trkpt>
      <trkpt lat="35.10085" lon="126.60319">
        <ele>22.9</ele>
      </trkpt>
      <trkpt lat="35.10049" lon="126.60245">
        <ele>21.9</ele>
      </trkpt>
      <trkpt lat="35.1001199" lon="126.60172">
        <ele>20.1</ele>
      </trkpt>
      <trkpt lat="35.09976" lon="126.60103">
        <ele>19.6001997</ele>
      </trkpt>
      <trkpt lat="35.09966" lon="126.60085">
        <ele>19.4673185</ele>
      </trkpt>
      <trkpt lat="35.09957" lon="126.60073">
        <ele>19.3678963</ele>
      </trkpt>
      <trkpt lat="35.0994" lon="126.60055">
        <ele>19.2</ele>
      </trkpt>
      <trkpt lat="35.0991799" lon="126.60037">
        <ele>18.9</ele>
      </trkpt>
      <trkpt lat="35.09846" lon="126.60004">
        <ele>17.3</ele>
      </trkpt>
      <trkpt lat="35.09767" lon="126.59989">
        <ele>19.8</ele>
      </trkpt>
      <trkpt lat="35.09687" lon="126.59974">
        <ele>20.6</ele>
      </trkpt>
      <trkpt lat="35.09625" lon="126.59959">
        <ele>18.5</ele>
      </trkpt>
      <trkpt lat="35.09563" lon="126.59944">
        <ele>16.3</ele>
      </trkpt>
      <trkpt lat="35.09493" lon="126.59929">
        <ele>15.2</ele>
      </trkpt>
      <trkpt lat="35.09423" lon="126.59914">
        <ele>14.9</ele>
      </trkpt>
      <trkpt lat="35.09353" lon="126.59898">
        <ele>12.9</ele>
      </trkpt>
      <trkpt lat="35.09283" lon="126.59883">
        <ele>12.9</ele>
      </trkpt>
      <trkpt lat="35.09223" lon="126.59869">
        <ele>12.8</ele>
      </trkpt>
      <trkpt lat="35.09163" lon="126.59855">
        <ele>12.3</ele>
      </trkpt>
      <trkpt lat="35.09103" lon="126.59841">
        <ele>12.8</ele>
      </trkpt>
      <trkpt lat="35.09045" lon="126.5983">
        <ele>12.5</ele>
      </trkpt>
      <trkpt lat="35.08987" lon="126.59819">
        <ele>11.8</ele>
      </trkpt>
      <trkpt lat="35.08899" lon="126.59799">
        <ele>11.8</ele>
      </trkpt>
      <trkpt lat="35.08812" lon="126.59778">
        <ele>12.7</ele>
      </trkpt>
      <trkpt lat="35.08739" lon="126.59763">
        <ele>13.4</ele>
      </trkpt>
      <trkpt lat="35.08666" lon="126.59748">
        <ele>13.9</ele>
      </trkpt>
      <trkpt lat="35.08639" lon="126.5974">
        <ele>13.664067</ele>
      </trkpt>
      <trkpt lat="35.08632" lon="126.59737">
        <ele>13.6010719</ele>
      </trkpt>
      <trkpt lat="35.08564" lon="126.59713">
        <ele>13.0</ele>
      </trkpt>
      <trkpt lat="35.08496" lon="126.59689">
        <ele>13.0</ele>
      </trkpt>
      <trkpt lat="35.08424" lon="126.59667">
        <ele>13.0</ele>
      </trkpt>
      <trkpt lat="35.08365" lon="126.59646">
        <ele>11.5</ele>
      </trkpt>
      <trkpt lat="35.08305" lon="126.59624">
        <ele>10.2</ele>
      </trkpt>
      <trkpt lat="35.08231" lon="126.59595">
        <ele>10.6</ele>
      </trkpt>
      <trkpt lat="35.08157" lon="126.59565">
        <ele>11.9</ele>
      </trkpt>
      <trkpt lat="35.08113" lon="126.59518">
        <ele>13.2</ele>
      </trkpt>
      <trkpt lat="35.08084" lon="126.59465">
        <ele>15.8</ele>
      </trkpt>
      <trkpt lat="35.08056" lon="126.59412">
        <ele>26.9</ele>
      </trkpt>
      <trkpt lat="35.08028" lon="126.59368">
        <ele>26.2</ele>
      </trkpt>
      <trkpt lat="35.07992" lon="126.59337">
        <ele>21.4</ele>
      </trkpt>
      <trkpt lat="35.0794799" lon="126.5932">
        <ele>23.5</ele>
      </trkpt>
      <trkpt lat="35.07937" lon="126.59318">
        <ele>23.1679707</ele>
      </trkpt>
      <trkpt lat="35.07942" lon="126.593">
        <ele>22.7035376</ele>
      </trkpt>
      <trkpt lat="35.07961" lon="126.5924">
        <ele>21.1316536</ele>
      </trkpt>
      <trkpt lat="35.07981" lon="126.59179">
        <ele>19.5260995</ele>
      </trkpt>
      <trkpt lat="35.0798" lon="126.59179">
        <ele>19.4962437</ele>
      </trkpt>
      <trkpt lat="35.07981" lon="126.59179">
        <ele>19.4663879</ele>
      </trkpt>
      <trkpt lat="35.07991" lon="126.59147">
        <ele>18.6294812</ele>
      </trkpt>
      <trkpt lat="35.08023" lon="126.59056">
        <ele>16.2095489</ele>
      </trkpt>
      <trkpt lat="35.08056" lon="126.58966">
        <ele>13.8</ele>
      </trkpt>
      <trkpt lat="35.08024" lon="126.58937">
        <ele>13.3</ele>
      </trkpt>
      <trkpt lat="35.0796" lon="126.58889">
        <ele>13.0</ele>
      </trkpt>
      <trkpt lat="35.07896" lon="126.58841">
        <ele>13.1</ele>
      </trkpt>
      <trkpt lat="35.07812" lon="126.58819">
        <ele>12.1</ele>
      </trkpt>
      <trkpt lat="35.07727" lon="126.58797">
        <ele>12.3</ele>
      </trkpt>
      <trkpt lat="35.07643" lon="126.58775">
        <ele>12.0</ele>
      </trkpt>
      <trkpt lat="35.07558" lon="126.58753">
        <ele>11.8</ele>
      </trkpt>
      <trkpt lat="35.07473" lon="126.58732">
        <ele>11.4</ele>
      </trkpt>
      <trkpt lat="35.07455" lon="126.58722">
        <ele>12.6</ele>
      </trkpt>
      <trkpt lat="35.07433" lon="126.58694">
        <ele>14.6</ele>
      </trkpt>
      <trkpt lat="35.07414" lon="126.58646">
        <ele>17.1</ele>
      </trkpt>
      <trkpt lat="35.07406" lon="126.5863">
        <ele>17.7</ele>
      </trkpt>
      <trkpt lat="35.07415" lon="126.58602">
        <ele>19.8</ele>
      </trkpt>
      <trkpt lat="35.0742" lon="126.58567">
        <ele>21.0</ele>
      </trkpt>
      <trkpt lat="35.07417" lon="126.58479">
        <ele>17.6</ele>
      </trkpt>
      <trkpt lat="35.07414" lon="126.58392">
        <ele>17.3</ele>
      </trkpt>
      <trkpt lat="35.07425" lon="126.58353">
        <ele>19.7</ele>
      </trkpt>
      <trkpt lat="35.07463" lon="126.58274">
        <ele>21.0</ele>
      </trkpt>
      <trkpt lat="35.07486" lon="126.58197">
        <ele>22.6</ele>
      </trkpt>
      <trkpt lat="35.07509" lon="126.5812">
        <ele>23.2</ele>
      </trkpt>
      <trkpt lat="35.07531" lon="126.58044">
        <ele>25.0</ele>
      </trkpt>
      <trkpt lat="35.07546" lon="126.57978">
        <ele>26.9</ele>
      </trkpt>
      <trkpt lat="35.07546" lon="126.57932">
        <ele>27.8</ele>
      </trkpt>
      <trkpt lat="35.07542" lon="126.5787">
        <ele>27.3</ele>
      </trkpt>
      <trkpt lat="35.07564" lon="126.57777">
        <ele>27.9</ele>
      </trkpt>
      <trkpt lat="35.07586" lon="126.57685">
        <ele>27.6</ele>
      </trkpt>
      <trkpt lat="35.07605" lon="126.5764">
        <ele>27.9</ele>
      </trkpt>
      <trkpt lat="35.0764" lon="126.57599">
        <ele>29.5</ele>
      </trkpt>
      <trkpt lat="35.0770399" lon="126.57542">
        <ele>33.0</ele>
      </trkpt>
      <trkpt lat="35.0777" lon="126.57474">
        <ele>36.3</ele>
      </trkpt>
      <trkpt lat="35.07837" lon="126.57406">
        <ele>38.3</ele>
      </trkpt>
      <trkpt lat="35.07888" lon="126.57357">
        <ele>41.8</ele>
      </trkpt>
      <trkpt lat="35.0793899" lon="126.57309">
        <ele>46.0</ele>
      </trkpt>
      <trkpt lat="35.07961" lon="126.57243">
        <ele>46.7</ele>
      </trkpt>
      <trkpt lat="35.07983" lon="126.57183">
        <ele>50.3</ele>
      </trkpt>
      <trkpt lat="35.0801299" lon="126.57127">
        <ele>51.2</ele>
      </trkpt>
      <trkpt lat="35.08083" lon="126.57065">
        <ele>58.1</ele>
      </trkpt>
      <trkpt lat="35.08153" lon="126.57003">
        <ele>68.2</ele>
      </trkpt>
      <trkpt lat="35.08176" lon="126.56917">
        <ele>73.7</ele>
      </trkpt>
      <trkpt lat="35.08199" lon="126.56814">
        <ele>72.3</ele>
      </trkpt>
      <trkpt lat="35.08223" lon="126.5671">
        <ele>60.5</ele>
      </trkpt>
      <trkpt lat="35.08256" lon="126.5662">
        <ele>53.5</ele>
      </trkpt>
      <trkpt lat="35.08288" lon="126.5653">
        <ele>53.3</ele>
      </trkpt>
      <trkpt lat="35.08291" lon="126.56486">
        <ele>55.0</ele>
      </trkpt>
      <trkpt lat="35.0828599" lon="126.56382">
        <ele>54.0</ele>
      </trkpt>
      <trkpt lat="35.08287" lon="126.56354">
        <ele>51.8</ele>
      </trkpt>
      <trkpt lat="35.08296" lon="126.56319">
        <ele>49.7</ele>
      </trkpt>
      <trkpt lat="35.08341" lon="126.56265">
        <ele>47.0</ele>
      </trkpt>
      <trkpt lat="35.08368" lon="126.56214">
        <ele>46.8</ele>
      </trkpt>
      <trkpt lat="35.08382" lon="126.56149">
        <ele>47.6</ele>
      </trkpt>
      <trkpt lat="35.08373" lon="126.561">
        <ele>46.2</ele>
      </trkpt>
      <trkpt lat="35.0834" lon="126.56">
        <ele>43.4</ele>
      </trkpt>
      <trkpt lat="35.08308" lon="126.559">
        <ele>44.8</ele>
      </trkpt>
      <trkpt lat="35.08275" lon="126.558">
        <ele>42.7</ele>
      </trkpt>
      <trkpt lat="35.08243" lon="126.557">
        <ele>40.5</ele>
      </trkpt>
      <trkpt lat="35.0820999" lon="126.55599">
        <ele>41.3</ele>
      </trkpt>
      <trkpt lat="35.08177" lon="126.55499">
        <ele>38.7</ele>
      </trkpt>
      <trkpt lat="35.08138" lon="126.55429">
        <ele>36.1</ele>
      </trkpt>
      <trkpt lat="35.08099" lon="126.55358">
        <ele>35.2</ele>
      </trkpt>
      <trkpt lat="35.0805999" lon="126.55287">
        <ele>33.8</ele>
      </trkpt>
      <trkpt lat="35.08021" lon="126.55216">
        <ele>33.0783247</ele>
      </trkpt>
      <trkpt lat="35.0800399" lon="126.5518">
        <ele>32.7275459</ele>
      </trkpt>
      <trkpt lat="35.0796" lon="126.55098">
        <ele>31.9</ele>
      </trkpt>
      <trkpt lat="35.07916" lon="126.55015">
        <ele>34.3</ele>
      </trkpt>
      <trkpt lat="35.0787199" lon="126.54933">
        <ele>36.0</ele>
      </trkpt>
      <trkpt lat="35.07828" lon="126.5485">
        <ele>37.2</ele>
      </trkpt>
      <trkpt lat="35.07795" lon="126.54794">
        <ele>38.7</ele>
      </trkpt>
      <trkpt lat="35.07762" lon="126.54739">
        <ele>41.0</ele>
      </trkpt>
      <trkpt lat="35.07724" lon="126.54676">
        <ele>40.6</ele>
      </trkpt>
      <trkpt lat="35.07686" lon="126.54613">
        <ele>40.7</ele>
      </trkpt>
      <trkpt lat="35.0764799" lon="126.54551">
        <ele>42.6</ele>
      </trkpt>
      <trkpt lat="35.07606" lon="126.54483">
        <ele>42.7</ele>
      </trkpt>
      <trkpt lat="35.07564" lon="126.54415">
        <ele>42.1</ele>
      </trkpt>
      <trkpt lat="35.07526" lon="126.54361">
        <ele>41.1</ele>
      </trkpt>
      <trkpt lat="35.07488" lon="126.54307">
        <ele>39.6</ele>
      </trkpt>
      <trkpt lat="35.0743099" lon="126.5425">
        <ele>37.5</ele>
      </trkpt>
      <trkpt lat="35.07373" lon="126.54193">
        <ele>37.9</ele>
      </trkpt>
      <trkpt lat="35.07352" lon="126.54165">
        <ele>36.3</ele>
      </trkpt>
      <trkpt lat="35.07305" lon="126.54096">
        <ele>35.2</ele>
      </trkpt>
      <trkpt lat="35.07258" lon="126.54028">
        <ele>32.4</ele>
      </trkpt>
      <trkpt lat="35.07211" lon="126.5396">
        <ele>32.1</ele>
      </trkpt>
      <trkpt lat="35.07164" lon="126.53891">
        <ele>32.4</ele>
      </trkpt>
      <trkpt lat="35.07139" lon="126.5386">
        <ele>32.4</ele>
      </trkpt>
      <trkpt lat="35.07112" lon="126.5383">
        <ele>31.3</ele>
      </trkpt>
      <trkpt lat="35.07062" lon="126.53784">
        <ele>27.7</ele>
      </trkpt>
      <trkpt lat="35.07012" lon="126.53739">
        <ele>26.3</ele>
      </trkpt>
      <trkpt lat="35.06962" lon="126.53694">
        <ele>25.9267</ele>
      </trkpt>
      <trkpt lat="35.06953" lon="126.53686">
        <ele>25.8597966</ele>
      </trkpt>
      <trkpt lat="35.0689" lon="126.53633">
        <ele>25.4</ele>
      </trkpt>
      <trkpt lat="35.06828" lon="126.5358">
        <ele>23.9</ele>
      </trkpt>
      <trkpt lat="35.06817" lon="126.53568">
        <ele>23.6</ele>
      </trkpt>
      <trkpt lat="35.0681" lon="126.53551">
        <ele>23.5</ele>
      </trkpt>
      <trkpt lat="35.06801" lon="126.5352">
        <ele>23.5</ele>
      </trkpt>
      <trkpt lat="35.068" lon="126.53501">
        <ele>23.6</ele>
      </trkpt>
      <trkpt lat="35.06803" lon="126.53479">
        <ele>23.6</ele>
      </trkpt>
      <trkpt lat="35.06824" lon="126.53414">
        <ele>24.5</ele>
      </trkpt>
      <trkpt lat="35.06845" lon="126.53348">
        <ele>26.5</ele>
      </trkpt>
      <trkpt lat="35.06845" lon="126.5334">
        <ele>26.3</ele>
      </trkpt>
      <trkpt lat="35.06839" lon="126.53286">
        <ele>23.6</ele>
      </trkpt>
      <trkpt lat="35.06833" lon="126.53222">
        <ele>21.0</ele>
      </trkpt>
      <trkpt lat="35.06827" lon="126.53159">
        <ele>18.4</ele>
      </trkpt>
      <trkpt lat="35.06824" lon="126.53149">
        <ele>17.8</ele>
      </trkpt>
      <trkpt lat="35.06805" lon="126.53102">
        <ele>15.1</ele>
      </trkpt>
      <trkpt lat="35.06796" lon="126.530725">
        <ele>13.9</ele>
      </trkpt>
      <trkpt lat="35.068033" lon="126.530679">
        <ele>14.0</ele>
      </trkpt>
      <trkpt lat="35.0681129" lon="126.530629">
        <ele>14.0</ele>
      </trkpt>
      <trkpt lat="35.067911" lon="126.530565">
        <ele>13.5</ele>
      </trkpt>
      <trkpt lat="35.06779" lon="126.53017">
        <ele>12.6</ele>
      </trkpt>
      <trkpt lat="35.06754" lon="126.52932">
        <ele>10.4</ele>
      </trkpt>
      <trkpt lat="35.06729" lon="126.52848">
        <ele>9.7</ele>
      </trkpt>
      <trkpt lat="35.06703" lon="126.52763">
        <ele>10.8</ele>
      </trkpt>
      <trkpt lat="35.06678" lon="126.52678">
        <ele>10.9</ele>
      </trkpt>
      <trkpt lat="35.06661" lon="126.5262">
        <ele>11.0</ele>
      </trkpt>
      <trkpt lat="35.0664299" lon="126.52561">
        <ele>11.5</ele>
      </trkpt>
      <trkpt lat="35.06628" lon="126.52508">
        <ele>11.6</ele>
      </trkpt>
      <trkpt lat="35.06612" lon="126.52456">
        <ele>11.0</ele>
      </trkpt>
      <trkpt lat="35.06598" lon="126.52402">
        <ele>11.0</ele>
      </trkpt>
      <trkpt lat="35.06583" lon="126.52348">
        <ele>11.564021</ele>
      </trkpt>
      <trkpt lat="35.0653999" lon="126.52272">
        <ele>12.4778348</ele>
      </trkpt>
      <trkpt lat="35.0653099" lon="126.52256">
        <ele>12.6698562</ele>
      </trkpt>
      <trkpt lat="35.06519" lon="126.52194">
        <ele>13.3</ele>
      </trkpt>
      <trkpt lat="35.06498" lon="126.52124">
        <ele>15.0</ele>
      </trkpt>
      <trkpt lat="35.06467" lon="126.5207">
        <ele>15.5</ele>
      </trkpt>
      <trkpt lat="35.06445" lon="126.52042">
        <ele>15.0</ele>
      </trkpt>
      <trkpt lat="35.06414" lon="126.52022">
        <ele>14.2</ele>
      </trkpt>
      <trkpt lat="35.06414" lon="126.52022">
        <ele>14.2</ele>
      </trkpt>
      <trkpt lat="35.06407" lon="126.52017">
        <ele>14.2</ele>
      </trkpt>
      <trkpt lat="35.06372" lon="126.52007">
        <ele>14.0</ele>
      </trkpt>
      <trkpt lat="35.06375" lon="126.51942">
        <ele>13.7</ele>
      </trkpt>
      <trkpt lat="35.06379" lon="126.51876">
        <ele>14.7</ele>
      </trkpt>
      <trkpt lat="35.0637789" lon="126.518762">
        <ele>14.7</ele>
      </trkpt>
      <trkpt lat="35.0637789" lon="126.518762">
        <ele>14.7</ele>
      </trkpt>
      <trkpt lat="35.063862" lon="126.517487">
        <ele>17.4</ele>
      </trkpt>
      <trkpt lat="35.06386" lon="126.51749">
        <ele>17.4</ele>
      </trkpt>
      <trkpt lat="35.06388" lon="126.51686">
        <ele>17.8</ele>
      </trkpt>
      <trkpt lat="35.06389" lon="126.51628">
        <ele>19.1</ele>
      </trkpt>
      <trkpt lat="35.06391" lon="126.51589">
        <ele>20.2</ele>
      </trkpt>
      <trkpt lat="35.063899" lon="126.515888">
        <ele>20.2</ele>
      </trkpt>
      <trkpt lat="35.06424" lon="126.515079">
        <ele>24.2</ele>
      </trkpt>
      <trkpt lat="35.065484" lon="126.513705">
        <ele>34.1</ele>
      </trkpt>
      <trkpt lat="35.066171" lon="126.512547">
        <ele>35.3</ele>
      </trkpt>
      <trkpt lat="35.068059" lon="126.51216">
        <ele>50.6</ele>
      </trkpt>
      <trkpt lat="35.068746" lon="126.511559">
        <ele>53.7</ele>
      </trkpt>
      <trkpt lat="35.070162" lon="126.510873">
        <ele>65.0</ele>
      </trkpt>
      <trkpt lat="35.070891" lon="126.510358">
        <ele>67.7</ele>
      </trkpt>
      <trkpt lat="35.071321" lon="126.509628">
        <ele>54.3</ele>
      </trkpt>
      <trkpt lat="35.071235" lon="126.508727">
        <ele>45.0</ele>
      </trkpt>
      <trkpt lat="35.070462" lon="126.50774">
        <ele>45.5</ele>
      </trkpt>
      <trkpt lat="35.070634" lon="126.506538">
        <ele>37.9</ele>
      </trkpt>
      <trkpt lat="35.071149" lon="126.506238">
        <ele>34.7</ele>
      </trkpt>
      <trkpt lat="35.07072" lon="126.502633">
        <ele>34.1</ele>
      </trkpt>
      <trkpt lat="35.068789" lon="126.500788">
        <ele>43.9</ele>
      </trkpt>
      <trkpt lat="35.068102" lon="126.499586">
        <ele>44.7</ele>
      </trkpt>
      <trkpt lat="35.066214" lon="126.496582">
        <ele>39.7</ele>
      </trkpt>
      <trkpt lat="35.065742" lon="126.494436">
        <ele>37.1</ele>
      </trkpt>
      <trkpt lat="35.063896" lon="126.490831">
        <ele>31.8</ele>
      </trkpt>
      <trkpt lat="35.063553" lon="126.486626">
        <ele>42.6</ele>
      </trkpt>
      <trkpt lat="35.062394" lon="126.483407">
        <ele>23.2</ele>
      </trkpt>
      <trkpt lat="35.062523" lon="126.481776">
        <ele>18.4</ele>
      </trkpt>
      <trkpt lat="35.061278" lon="126.478944">
        <ele>19.2</ele>
      </trkpt>
      <trkpt lat="35.060205" lon="126.477098">
        <ele>27.1</ele>
      </trkpt>
      <trkpt lat="35.05969" lon="126.475339">
        <ele>32.5</ele>
      </trkpt>
      <trkpt lat="35.059562" lon="126.472979">
        <ele>34.7</ele>
      </trkpt>
      <trkpt lat="35.0589609" lon="126.470447">
        <ele>36.3</ele>
      </trkpt>
      <trkpt lat="35.058446" lon="126.469631">
        <ele>39.6</ele>
      </trkpt>
      <trkpt lat="35.05806" lon="126.467915">
        <ele>42.1</ele>
      </trkpt>
      <trkpt lat="35.058017" lon="126.467099">
        <ele>40.3</ele>
      </trkpt>
      <trkpt lat="35.057116" lon="126.463151">
        <ele>32.7</ele>
      </trkpt>
      <trkpt lat="35.056601" lon="126.461134">
        <ele>27.6</ele>
      </trkpt>
      <trkpt lat="35.053983" lon="126.456757">
        <ele>36.5</ele>
      </trkpt>
      <trkpt lat="35.053425" lon="126.455598">
        <ele>36.3</ele>
      </trkpt>
      <trkpt lat="35.052352" lon="126.454782">
        <ele>39.0</ele>
      </trkpt>
      <trkpt lat="35.050292" lon="126.452422">
        <ele>21.4</ele>
      </trkpt>
      <trkpt lat="35.049005" lon="126.45062">
        <ele>22.3</ele>
      </trkpt>
      <trkpt lat="35.046558" lon="126.449161">
        <ele>26.9</ele>
      </trkpt>
      <trkpt lat="35.045443" lon="126.448431">
        <ele>21.5</ele>
      </trkpt>
      <trkpt lat="35.04467" lon="126.447401">
        <ele>20.6</ele>
      </trkpt>
      <trkpt lat="35.044327" lon="126.446714">
        <ele>18.0</ele>
      </trkpt>
      <trkpt lat="35.0439409" lon="126.444397">
        <ele>13.0</ele>
      </trkpt>
      <trkpt lat="35.04364" lon="126.443753">
        <ele>11.1</ele>
      </trkpt>
      <trkpt lat="35.0423959" lon="126.442766">
        <ele>11.4</ele>
      </trkpt>
      <trkpt lat="35.040722" lon="126.441865">
        <ele>11.2</ele>
      </trkpt>
      <trkpt lat="35.039949" lon="126.441007">
        <ele>14.2</ele>
      </trkpt>
      <trkpt lat="35.038662" lon="126.440148">
        <ele>18.4</ele>
      </trkpt>
      <trkpt lat="35.038319" lon="126.439719">
        <ele>19.7</ele>
      </trkpt>
      <trkpt lat="35.036345" lon="126.436071">
        <ele>34.7</ele>
      </trkpt>
      <trkpt lat="35.03304" lon="126.433754">
        <ele>22.1</ele>
      </trkpt>
      <trkpt lat="35.029049" lon="126.430364">
        <ele>9.1</ele>
      </trkpt>
      <trkpt lat="35.0275899" lon="126.428819">
        <ele>8.5</ele>
      </trkpt>
      <trkpt lat="35.027032" lon="126.427274">
        <ele>5.6</ele>
      </trkpt>
      <trkpt lat="35.027547" lon="126.424828">
        <ele>4.0</ele>
      </trkpt>
      <trkpt lat="35.027075" lon="126.420708">
        <ele>9.3</ele>
      </trkpt>
      <trkpt lat="35.026431" lon="126.418819">
        <ele>9.7</ele>
      </trkpt>
      <trkpt lat="35.025272" lon="126.416202">
        <ele>7.5</ele>
      </trkpt>
      <trkpt lat="35.023255" lon="126.412554">
        <ele>20.8</ele>
      </trkpt>
      <trkpt lat="35.023084" lon="126.41191">
        <ele>21.8</ele>
      </trkpt>
      <trkpt lat="35.022182" lon="126.410408">
        <ele>20.4</ele>
      </trkpt>
      <trkpt lat="35.021925" lon="126.409507">
        <ele>20.2</ele>
      </trkpt>
      <trkpt lat="35.021796" lon="126.408434">
        <ele>20.4</ele>
      </trkpt>
      <trkpt lat="35.023041" lon="126.400065">
        <ele>20.8</ele>
      </trkpt>
      <trkpt lat="35.0232979" lon="126.39955">
        <ele>20.6</ele>
      </trkpt>
      <trkpt lat="35.023899" lon="126.398821">
        <ele>19.4</ele>
      </trkpt>
      <trkpt lat="35.025444" lon="126.39792">
        <ele>16.7</ele>
      </trkpt>
      <trkpt lat="35.026603" lon="126.397018">
        <ele>14.8</ele>
      </trkpt>
      <trkpt lat="35.02892" lon="126.395903">
        <ele>19.4</ele>
      </trkpt>
      <trkpt lat="35.0319239" lon="126.394916">
        <ele>20.1</ele>
      </trkpt>
      <trkpt lat="35.037546" lon="126.39174">
        <ele>20.8</ele>
      </trkpt>
      <trkpt lat="35.040035" lon="126.390324">
        <ele>17.5</ele>
      </trkpt>
      <trkpt lat="35.041409" lon="126.389165">
        <ele>14.2</ele>
      </trkpt>
      <trkpt lat="35.044584" lon="126.386204">
        <ele>14.8</ele>
      </trkpt>
      <trkpt lat="35.045872" lon="126.38423">
        <ele>13.4</ele>
      </trkpt>
      <trkpt lat="35.046687" lon="126.383328">
        <ele>10.0</ele>
      </trkpt>
      <trkpt lat="35.049047" lon="126.381612">
        <ele>5.4</ele>
      </trkpt>
      <trkpt lat="35.049434" lon="126.381097">
        <ele>5.4</ele>
      </trkpt>
      <trkpt lat="35.050764" lon="126.378264">
        <ele>11.8</ele>
      </trkpt>
      <trkpt lat="35.0508499" lon="126.37702">
        <ele>16.5</ele>
      </trkpt>
      <trkpt lat="35.051107" lon="126.376162">
        <ele>21.6</ele>
      </trkpt>
      <trkpt lat="35.051665" lon="126.375217">
        <ele>26.2</ele>
      </trkpt>
      <trkpt lat="35.0541539" lon="126.373029">
        <ele>24.7</ele>
      </trkpt>
      <trkpt lat="35.055141" lon="126.372042">
        <ele>22.6</ele>
      </trkpt>
      <trkpt lat="35.055656" lon="126.370068">
        <ele>17.8</ele>
      </trkpt>
      <trkpt lat="35.055399" lon="126.366849">
        <ele>7.5</ele>
      </trkpt>
      <trkpt lat="35.055656" lon="126.366076">
        <ele>8.6</ele>
      </trkpt>
      <trkpt lat="35.056214" lon="126.365304">
        <ele>11.1</ele>
      </trkpt>
      <trkpt lat="35.056772" lon="126.364188">
        <ele>13.3</ele>
      </trkpt>
      <trkpt lat="35.057201" lon="126.363459">
        <ele>12.2</ele>
      </trkpt>
      <trkpt lat="35.058403" lon="126.362128">
        <ele>10.6</ele>
      </trkpt>
      <trkpt lat="35.060806" lon="126.360755">
        <ele>20.8</ele>
      </trkpt>
      <trkpt lat="35.063038" lon="126.358781">
        <ele>21.1</ele>
      </trkpt>
      <trkpt lat="35.064926" lon="126.356034">
        <ele>13.8</ele>
      </trkpt>
      <trkpt lat="35.065569" lon="126.353792">
        <ele>11.1</ele>
      </trkpt>
      <trkpt lat="35.064533" lon="126.353019">
        <ele>10.0</ele>
      </trkpt>
      <trkpt lat="35.065499" lon="126.351582">
        <ele>16.7</ele>
      </trkpt>
      <trkpt lat="35.066878" lon="126.350005">
        <ele>14.5</ele>
      </trkpt>
      <trkpt lat="35.07097" lon="126.346121">
        <ele>8.1</ele>
      </trkpt>
      <trkpt lat="35.075483" lon="126.341486">
        <ele>12.4</ele>
      </trkpt>
      <trkpt lat="35.076299" lon="126.340885">
        <ele>13.7</ele>
      </trkpt>
      <trkpt lat="35.0789169" lon="126.339254">
        <ele>12.7</ele>
      </trkpt>
      <trkpt lat="35.081792" lon="126.338224">
        <ele>9.6</ele>
      </trkpt>
      <trkpt lat="35.084581" lon="126.336851">
        <ele>20.0</ele>
      </trkpt>
      <trkpt lat="35.085011" lon="126.336465">
        <ele>24.4</ele>
      </trkpt>
      <trkpt lat="35.087113" lon="126.334233">
        <ele>11.4</ele>
      </trkpt>
      <trkpt lat="35.088186" lon="126.333632">
        <ele>10.6</ele>
      </trkpt>
      <trkpt lat="35.090418" lon="126.330886">
        <ele>11.5</ele>
      </trkpt>
      <trkpt lat="35.091705" lon="126.329727">
        <ele>12.8</ele>
      </trkpt>
      <trkpt lat="35.092435" lon="126.328912">
        <ele>12.1</ele>
      </trkpt>
      <trkpt lat="35.093808" lon="126.327109">
        <ele>11.0</ele>
      </trkpt>
      <trkpt lat="35.0892679" lon="126.317105">
        <ele>9.3</ele>
      </trkpt>
      <trkpt lat="35.0886489" lon="126.31624">
        <ele>7.2</ele>
      </trkpt>
      <trkpt lat="35.088137" lon="126.315808">
        <ele>7.0</ele>
      </trkpt>
      <trkpt lat="35.084283" lon="126.31328">
        <ele>2.6</ele>
      </trkpt>
      <trkpt lat="35.083232" lon="126.312349">
        <ele>1.0</ele>
      </trkpt>
      <trkpt lat="35.082477" lon="126.311517">
        <ele>2.4</ele>
      </trkpt>
      <trkpt lat="35.077815" lon="126.301439">
        <ele>2.7</ele>
      </trkpt>
      <trkpt lat="35.077383" lon="126.300142">
        <ele>4.5</ele>
      </trkpt>
      <trkpt lat="35.076144" lon="126.295086">
        <ele>14.6</ele>
      </trkpt>
      <trkpt lat="35.07574" lon="126.293989">
        <ele>15.5</ele>
      </trkpt>
      <trkpt lat="35.075012" lon="126.292924">
        <ele>20.5</ele>
      </trkpt>
      <trkpt lat="35.074257" lon="126.292259">
        <ele>32.7</ele>
      </trkpt>
      <trkpt lat="35.07167" lon="126.291062">
        <ele>19.5</ele>
      </trkpt>
      <trkpt lat="35.0691909" lon="126.288834">
        <ele>5.2</ele>
      </trkpt>
      <trkpt lat="35.067412" lon="126.287437">
        <ele>4.7</ele>
      </trkpt>
      <trkpt lat="35.065526" lon="126.285075">
        <ele>21.0</ele>
      </trkpt>
      <trkpt lat="35.06248" lon="126.282315">
        <ele>7.5</ele>
      </trkpt>
      <trkpt lat="35.061834" lon="126.281184">
        <ele>8.4</ele>
      </trkpt>
      <trkpt lat="35.061295" lon="126.279986">
        <ele>11.6</ele>
      </trkpt>
      <trkpt lat="35.061025" lon="126.278456">
        <ele>17.2</ele>
      </trkpt>
      <trkpt lat="35.061241" lon="126.275962">
        <ele>33.4</ele>
      </trkpt>
      <trkpt lat="35.061348" lon="126.273733">
        <ele>31.1</ele>
      </trkpt>
      <trkpt lat="35.0610519" lon="126.272536">
        <ele>26.7</ele>
      </trkpt>
      <trkpt lat="35.060648" lon="126.271106">
        <ele>35.2</ele>
      </trkpt>
      <trkpt lat="35.058869" lon="126.268611">
        <ele>26.7</ele>
      </trkpt>
      <trkpt lat="35.058088" lon="126.267347">
        <ele>23.7</ele>
      </trkpt>
      <trkpt lat="35.057764" lon="126.26635">
        <ele>18.1</ele>
      </trkpt>
      <trkpt lat="35.057522" lon="126.265219">
        <ele>15.9</ele>
      </trkpt>
      <trkpt lat="35.057144" lon="126.26023">
        <ele>5.3</ele>
      </trkpt>
      <trkpt lat="35.056848" lon="126.259066">
        <ele>7.3</ele>
      </trkpt>
      <trkpt lat="35.056282" lon="126.257569">
        <ele>13.0</ele>
      </trkpt>
      <trkpt lat="35.056093" lon="126.256604">
        <ele>19.8</ele>
      </trkpt>
      <trkpt lat="35.056147" lon="126.255806">
        <ele>19.8</ele>
      </trkpt>
      <trkpt lat="35.057144" lon="126.251815">
        <ele>46.3</ele>
      </trkpt>
      <trkpt lat="35.057576" lon="126.248888">
        <ele>36.5</ele>
      </trkpt>
      <trkpt lat="35.057899" lon="126.247857">
        <ele>39.1</ele>
      </trkpt>
      <trkpt lat="35.059058" lon="126.245196">
        <ele>25.1</ele>
      </trkpt>
      <trkpt lat="35.0595969" lon="126.242369">
        <ele>4.6</ele>
      </trkpt>
      <trkpt lat="35.059893" lon="126.240739">
        <ele>7.9</ele>
      </trkpt>
      <trkpt lat="35.060217" lon="126.238611">
        <ele>10.8</ele>
      </trkpt>
      <trkpt lat="35.060297" lon="126.237347">
        <ele>6.6</ele>
      </trkpt>
      <trkpt lat="35.059893" lon="126.233721">
        <ele>17.9</ele>
      </trkpt>
      <trkpt lat="35.05992" lon="126.232291">
        <ele>18.5</ele>
      </trkpt>
      <trkpt lat="35.060217" lon="126.228034">
        <ele>14.3</ele>
      </trkpt>
      <trkpt lat="35.060244" lon="126.227036">
        <ele>15.1</ele>
      </trkpt>
      <trkpt lat="35.059893" lon="126.225506">
        <ele>4.4</ele>
      </trkpt>
      <trkpt lat="35.059381" lon="126.221947">
        <ele>6.6</ele>
      </trkpt>
      <trkpt lat="35.05868" lon="126.220584">
        <ele>9.0</ele>
      </trkpt>
      <trkpt lat="35.057953" lon="126.216825">
        <ele>9.7</ele>
      </trkpt>
      <trkpt lat="35.057953" lon="126.215428">
        <ele>8.1</ele>
      </trkpt>
      <trkpt lat="35.058168" lon="126.214597">
        <ele>9.6</ele>
      </trkpt>
      <trkpt lat="35.058573" lon="126.214165">
        <ele>11.7</ele>
      </trkpt>
      <trkpt lat="35.059139" lon="126.2134">
        <ele>7.6</ele>
      </trkpt>
      <trkpt lat="35.059408" lon="126.212568">
        <ele>4.2</ele>
      </trkpt>
      <trkpt lat="35.059354" lon="126.21147">
        <ele>8.3</ele>
      </trkpt>
      <trkpt lat="35.059219" lon="126.210173">
        <ele>11.1</ele>
      </trkpt>
      <trkpt lat="35.058788" lon="126.208477">
        <ele>16.2</ele>
      </trkpt>
      <trkpt lat="35.058653" lon="126.207446">
        <ele>12.5</ele>
      </trkpt>
      <trkpt lat="35.058222" lon="126.206548">
        <ele>8.8</ele>
      </trkpt>
      <trkpt lat="35.058034" lon="126.205883">
        <ele>8.1</ele>
      </trkpt>
      <trkpt lat="35.057502" lon="126.205101">
        <ele>6.5</ele>
      </trkpt>
      <trkpt lat="35.055699" lon="126.202784">
        <ele>6.9</ele>
      </trkpt>
      <trkpt lat="35.054712" lon="126.202354">
        <ele>17.8</ele>
      </trkpt>
      <trkpt lat="35.053039" lon="126.201925">
        <ele>19.3</ele>
      </trkpt>
      <trkpt lat="35.052395" lon="126.201968">
        <ele>16.7</ele>
      </trkpt>
      <trkpt lat="35.05115" lon="126.202569">
        <ele>13.9</ele>
      </trkpt>
      <trkpt lat="35.049133" lon="126.203084">
        <ele>34.0</ele>
      </trkpt>
      <trkpt lat="35.04806" lon="126.203771">
        <ele>34.0</ele>
      </trkpt>
      <trkpt lat="35.04643" lon="126.204758">
        <ele>21.7</ele>
      </trkpt>
      <trkpt lat="35.045614" lon="126.205187">
        <ele>25.0</ele>
      </trkpt>
      <trkpt lat="35.0449709" lon="126.205273">
        <ele>22.8</ele>
      </trkpt>
      <trkpt lat="35.044112" lon="126.205015">
        <ele>24.6</ele>
      </trkpt>
      <trkpt lat="35.043511" lon="126.204543">
        <ele>14.9</ele>
      </trkpt>
      <trkpt lat="35.039048" lon="126.199694">
        <ele>7.8</ele>
      </trkpt>
      <trkpt lat="35.038533" lon="126.199007">
        <ele>9.1</ele>
      </trkpt>
      <trkpt lat="35.037889" lon="126.197634">
        <ele>12.0</ele>
      </trkpt>
      <trkpt lat="35.0375889" lon="126.197033">
        <ele>11.3</ele>
      </trkpt>
      <trkpt lat="35.036902" lon="126.19626">
        <ele>10.0</ele>
      </trkpt>
      <trkpt lat="35.037246" lon="126.19287">
        <ele>5.2</ele>
      </trkpt>
      <trkpt lat="35.035872" lon="126.191669">
        <ele>6.4</ele>
      </trkpt>
      <trkpt lat="35.035229" lon="126.190939">
        <ele>5.5</ele>
      </trkpt>
      <trkpt lat="35.034885" lon="126.190038">
        <ele>5.1</ele>
      </trkpt>
      <trkpt lat="35.035443" lon="126.185961">
        <ele>1.6</ele>
      </trkpt>
      <trkpt lat="35.038619" lon="126.18609">
        <ele>6.4</ele>
      </trkpt>
      <trkpt lat="35.039177" lon="126.186476">
        <ele>7.8</ele>
      </trkpt>
      <trkpt lat="35.041537" lon="126.186047">
        <ele>4.1</ele>
      </trkpt>
      <trkpt lat="35.042224" lon="126.185746">
        <ele>2.0</ele>
      </trkpt>
      <trkpt lat="35.042696" lon="126.185274">
        <ele>4.1</ele>
      </trkpt>
      <trkpt lat="35.042953" lon="126.183171">
        <ele>4.0</ele>
      </trkpt>
      <trkpt lat="35.043855" lon="126.182141">
        <ele>4.2</ele>
      </trkpt>
      <trkpt lat="35.044241" lon="126.18124">
        <ele>5.5</ele>
      </trkpt>
      <trkpt lat="35.045528" lon="126.178622">
        <ele>3.1</ele>
      </trkpt>
      <trkpt lat="35.046387" lon="126.177549">
        <ele>4.7</ele>
      </trkpt>
      <trkpt lat="35.045443" lon="126.175361">
        <ele>6.0</ele>
      </trkpt>
      <trkpt lat="35.044885" lon="126.174202">
        <ele>3.9</ele>
      </trkpt>
      <trkpt lat="35.043898" lon="126.173644">
        <ele>3.0</ele>
      </trkpt>
      <trkpt lat="35.042224" lon="126.172099">
        <ele>5.6</ele>
      </trkpt>
      <trkpt lat="35.040164" lon="126.172142">
        <ele>11.1</ele>
      </trkpt>
      <trkpt lat="35.039949" lon="126.1727">
        <ele>7.5</ele>
      </trkpt>
      <trkpt lat="35.038147" lon="126.173429">
        <ele>8.8</ele>
      </trkpt>
      <trkpt lat="35.036216" lon="126.173644">
        <ele>7.2</ele>
      </trkpt>
      <trkpt lat="35.034585" lon="126.172872">
        <ele>10.9</ele>
      </trkpt>
      <trkpt lat="35.033598" lon="126.17167">
        <ele>8.5</ele>
      </trkpt>
      <trkpt lat="35.032353" lon="126.171327">
        <ele>9.9</ele>
      </trkpt>
      <trkpt lat="35.031881" lon="126.170855">
        <ele>8.7</ele>
      </trkpt>
      <trkpt lat="35.030937" lon="126.170297">
        <ele>7.0</ele>
      </trkpt>
      <trkpt lat="35.029907" lon="126.170082">
        <ele>8.2</ele>
      </trkpt>
      <trkpt lat="35.028362" lon="126.170211">
        <ele>7.2</ele>
      </trkpt>
      <trkpt lat="35.028134" lon="126.170222">
        <ele>7.7</ele>
      </trkpt>
      <trkpt lat="35.028332" lon="126.170506">
        <ele>3.9</ele>
      </trkpt>
      <trkpt lat="35.028586" lon="126.170924">
        <ele>7.0</ele>
      </trkpt>
      <trkpt lat="35.028621" lon="126.171209">
        <ele>7.0</ele>
      </trkpt>
      <trkpt lat="35.028411" lon="126.171412">
        <ele>7.0</ele>
      </trkpt>
      <trkpt lat="35.028103" lon="126.171343">
        <ele>6.9</ele>
      </trkpt>
      <trkpt lat="35.027888" lon="126.171042">
        <ele>7.0</ele>
      </trkpt>
      <trkpt lat="35.027576" lon="126.170205">
        <ele>8.9</ele>
      </trkpt>
      <trkpt lat="35.02729" lon="126.16968">
        <ele>17.8</ele>
      </trkpt>
      <trkpt lat="35.026921" lon="126.169116">
        <ele>26.1</ele>
      </trkpt>
      <trkpt lat="35.0265" lon="126.168693">
        <ele>18.7</ele>
      </trkpt>
      <trkpt lat="35.025774" lon="126.168266">
        <ele>2.6</ele>
      </trkpt>
      <trkpt lat="35.017878" lon="126.16341">
        <ele>8.2</ele>
      </trkpt>
      <trkpt lat="35.0168" lon="126.162379">
        <ele>1.4</ele>
      </trkpt>
      <trkpt lat="35.01238" lon="126.156226">
        <ele>2.1</ele>
      </trkpt>
      <trkpt lat="35.003028" lon="126.142855">
        <ele>5.4</ele>
      </trkpt>
      <trkpt lat="35.002813" lon="126.141325">
        <ele>12.6</ele>
      </trkpt>
      <trkpt lat="35.00257" lon="126.139396">
        <ele>18.2</ele>
      </trkpt>
      <trkpt lat="35.0022469" lon="126.138764">
        <ele>16.3</ele>
      </trkpt>
      <trkpt lat="35.001708" lon="126.138265">
        <ele>9.7</ele>
      </trkpt>
      <trkpt lat="35.001384" lon="126.136037">
        <ele>8.4</ele>
      </trkpt>
      <trkpt lat="35.001789" lon="126.135139">
        <ele>11.2</ele>
      </trkpt>
      <trkpt lat="35.001923" lon="126.134407">
        <ele>14.0</ele>
      </trkpt>
      <trkpt lat="35.001821" lon="126.133572">
        <ele>10.1</ele>
      </trkpt>
      <trkpt lat="35.0015969" lon="126.1334">
        <ele>6.5</ele>
      </trkpt>
      <trkpt lat="35.000199" lon="126.134673">
        <ele>3.2</ele>
      </trkpt>
      <trkpt lat="34.997584" lon="126.136569">
        <ele>5.4</ele>
      </trkpt>
      <trkpt lat="34.996695" lon="126.137367">
        <ele>4.3</ele>
      </trkpt>
      <trkpt lat="34.9951859" lon="126.137999">
        <ele>0.6</ele>
      </trkpt>
      <trkpt lat="34.995375" lon="126.138864">
        <ele>1.5</ele>
      </trkpt>
      <trkpt lat="34.993919" lon="126.141458">
        <ele>2.8</ele>
      </trkpt>
      <trkpt lat="34.993326" lon="126.142057">
        <ele>3.4</ele>
      </trkpt>
      <trkpt lat="34.993003" lon="126.142689">
        <ele>2.3</ele>
      </trkpt>
      <trkpt lat="34.992628" lon="126.14304">
        <ele>0.5</ele>
      </trkpt>
      <trkpt lat="34.992343" lon="126.14326">
        <ele>9.1</ele>
      </trkpt>
      <trkpt lat="34.991582" lon="126.143491">
        <ele>9.9</ele>
      </trkpt>
      <trkpt lat="34.98923" lon="126.14505">
        <ele>2.7</ele>
      </trkpt>
      <trkpt lat="34.988567" lon="126.145384">
        <ele>2.5</ele>
      </trkpt>
      <trkpt lat="34.988119" lon="126.145722">
        <ele>5.9</ele>
      </trkpt>
      <trkpt lat="34.987882" lon="126.145406">
        <ele>7.0</ele>
      </trkpt>
      <trkpt lat="34.987552" lon="126.145223">
        <ele>8.3</ele>
      </trkpt>
      <trkpt lat="34.986902" lon="126.14466">
        <ele>6.5</ele>
      </trkpt>
      <trkpt lat="34.985942" lon="126.144152">
        <ele>3.5</ele>
      </trkpt>
      <trkpt lat="34.984322" lon="126.143716">
        <ele>3.3</ele>
      </trkpt>
      <trkpt lat="34.983869" lon="126.143754">
        <ele>2.8</ele>
      </trkpt>
      <trkpt lat="34.981145" lon="126.144385">
        <ele>3.9</ele>
      </trkpt>
      <trkpt lat="34.979124" lon="126.14515">
        <ele>4.0</ele>
      </trkpt>
      <trkpt lat="34.977965" lon="126.145915">
        <ele>5.2</ele>
      </trkpt>
      <trkpt lat="34.976968" lon="126.145948">
        <ele>4.5</ele>
      </trkpt>
      <trkpt lat="34.976645" lon="126.145349">
        <ele>6.3</ele>
      </trkpt>
      <trkpt lat="34.9758629" lon="126.145283">
        <ele>4.4</ele>
      </trkpt>
      <trkpt lat="34.97368" lon="126.140726">
        <ele>4.4</ele>
      </trkpt>
      <trkpt lat="34.973303" lon="126.140361">
        <ele>5.7</ele>
      </trkpt>
      <trkpt lat="34.970877" lon="126.139429">
        <ele>7.9</ele>
      </trkpt>
      <trkpt lat="34.966188" lon="126.138465">
        <ele>10.2</ele>
      </trkpt>
      <trkpt lat="34.963816" lon="126.137799">
        <ele>12.3</ele>
      </trkpt>
      <trkpt lat="34.962199" lon="126.138764">
        <ele>6.8</ele>
      </trkpt>
      <trkpt lat="34.961741" lon="126.138764">
        <ele>6.5</ele>
      </trkpt>
      <trkpt lat="34.96131" lon="126.138498">
        <ele>6.0</ele>
      </trkpt>
      <trkpt lat="34.961014" lon="126.138099">
        <ele>5.2</ele>
      </trkpt>
      <trkpt lat="34.959558" lon="126.135471">
        <ele>8.0</ele>
      </trkpt>
      <trkpt lat="34.957672" lon="126.134241">
        <ele>8.6</ele>
      </trkpt>
      <trkpt lat="34.955705" lon="126.133442">
        <ele>10.2</ele>
      </trkpt>
      <trkpt lat="34.954438" lon="126.131846">
        <ele>20.2</ele>
      </trkpt>
      <trkpt lat="34.953171" lon="126.130881">
        <ele>15.3</ele>
      </trkpt>
      <trkpt lat="34.9506919" lon="126.129751">
        <ele>9.1</ele>
      </trkpt>
      <trkpt lat="34.949803" lon="126.128121">
        <ele>9.5</ele>
      </trkpt>
      <trkpt lat="34.949021" lon="126.126025">
        <ele>5.9</ele>
      </trkpt>
      <trkpt lat="34.948339" lon="126.125214">
        <ele>6.5</ele>
      </trkpt>
      <trkpt lat="34.9482659" lon="126.125127">
        <ele>6.9</ele>
      </trkpt>
    </trkseg>
  </trk>
</gpx>
