<?xml version="1.0" encoding="UTF-8"?>
<gpx xmlns:xsi="http://www.w3.org/2001/XMLSchema-instance" xmlns="http://www.topografix.com/GPX/1/1" xmlns:gpxdata="http://www.cluetrust.com/XML/GPXDATA/1/0" xsi:schemaLocation="http://www.topografix.com/GPX/1/1 http://www.topografix.com/GPX/1/1/gpx.xsd http://www.cluetrust.com/XML/GPXDATA/1/0 http://www.cluetrust.com/Schemas/gpxdata10.xsd" version="1.1" creator="http://ridewithgps.com/">
  <metadata>
    <name>Jeungdo to Gwangju</name>
    <link href="https://ridewithgps.com/routes/31923744">
      <text>Jeungdo to Gwangju</text>
    </link>
    <time>2020-02-13T02:59:09Z</time>
  </metadata>
  <wpt lon="126.530592" lat="35.0681226">
    <name>Left</name>
    <cmt>CP3</cmt>
    <desc>CP3</desc>
    <sym>Dot</sym>
    <type>Dot</type>
  </wpt>
  <wpt lon="126.8613691" lat="35.2061194">
    <name>Left</name>
    <cmt>Finish</cmt>
    <desc>Finish</desc>
    <sym>Dot</sym>
    <type>Dot</type>
  </wpt>
  <wpt lon="126.53059730306283" lat="35.06817280407346">
    <name>CP1,3 Hampyeong</name>
    <sym>Dot</sym>
    <type>Dot</type>
  </wpt>
  <wpt lon="126.125060794875" lat="34.9478353187442">
    <name>CP2 Jeungdo</name>
    <sym>Dot</sym>
    <type>Dot</type>
  </wpt>
  <wpt lon="126.861520037055" lat="35.2062799874693">
    <name>Start / Finish</name>
    <sym>Dot</sym>
    <type>Dot</type>
  </wpt>
  <trk>
    <name>Jeungdo to Gwangju</name>
    <trkseg>
      <trkpt lat="34.947835" lon="126.125061">
        <ele>6.4</ele>
      </trkpt>
      <trkpt lat="34.949021" lon="126.126025">
        <ele>5.9</ele>
      </trkpt>
      <trkpt lat="34.949803" lon="126.128121">
        <ele>9.5</ele>
      </trkpt>
      <trkpt lat="34.9506919" lon="126.129751">
        <ele>9.1</ele>
      </trkpt>
      <trkpt lat="34.953171" lon="126.130881">
        <ele>15.3</ele>
      </trkpt>
      <trkpt lat="34.954438" lon="126.131846">
        <ele>20.2</ele>
      </trkpt>
      <trkpt lat="34.955705" lon="126.133442">
        <ele>10.2</ele>
      </trkpt>
      <trkpt lat="34.957672" lon="126.134241">
        <ele>8.6</ele>
      </trkpt>
      <trkpt lat="34.959558" lon="126.135471">
        <ele>8.0</ele>
      </trkpt>
      <trkpt lat="34.961014" lon="126.138099">
        <ele>5.2</ele>
      </trkpt>
      <trkpt lat="34.96131" lon="126.138498">
        <ele>6.0</ele>
      </trkpt>
      <trkpt lat="34.961741" lon="126.138764">
        <ele>6.5</ele>
      </trkpt>
      <trkpt lat="34.962199" lon="126.138764">
        <ele>6.8</ele>
      </trkpt>
      <trkpt lat="34.963816" lon="126.137799">
        <ele>12.3</ele>
      </trkpt>
      <trkpt lat="34.966188" lon="126.138465">
        <ele>10.2</ele>
      </trkpt>
      <trkpt lat="34.970877" lon="126.139429">
        <ele>7.9</ele>
      </trkpt>
      <trkpt lat="34.973303" lon="126.140361">
        <ele>5.7</ele>
      </trkpt>
      <trkpt lat="34.97368" lon="126.140726">
        <ele>4.4</ele>
      </trkpt>
      <trkpt lat="34.9758629" lon="126.145283">
        <ele>4.4</ele>
      </trkpt>
      <trkpt lat="34.976645" lon="126.145349">
        <ele>6.3</ele>
      </trkpt>
      <trkpt lat="34.976968" lon="126.145948">
        <ele>4.5</ele>
      </trkpt>
      <trkpt lat="34.977965" lon="126.145915">
        <ele>5.2</ele>
      </trkpt>
      <trkpt lat="34.979124" lon="126.14515">
        <ele>4.0</ele>
      </trkpt>
      <trkpt lat="34.981145" lon="126.144385">
        <ele>3.9</ele>
      </trkpt>
      <trkpt lat="34.984298" lon="126.143753">
        <ele>3.4</ele>
      </trkpt>
      <trkpt lat="34.985942" lon="126.144152">
        <ele>3.5</ele>
      </trkpt>
      <trkpt lat="34.987344" lon="126.144917">
        <ele>6.6</ele>
      </trkpt>
      <trkpt lat="34.9881249" lon="126.145616">
        <ele>5.4</ele>
      </trkpt>
      <trkpt lat="34.98923" lon="126.14505">
        <ele>2.7</ele>
      </trkpt>
      <trkpt lat="34.991525" lon="126.143517">
        <ele>9.8</ele>
      </trkpt>
      <trkpt lat="34.992167" lon="126.143314">
        <ele>9.7</ele>
      </trkpt>
      <trkpt lat="34.992593" lon="126.143083">
        <ele>0.4</ele>
      </trkpt>
      <trkpt lat="34.993003" lon="126.142689">
        <ele>2.3</ele>
      </trkpt>
      <trkpt lat="34.993326" lon="126.142057">
        <ele>3.4</ele>
      </trkpt>
      <trkpt lat="34.993919" lon="126.141458">
        <ele>2.8</ele>
      </trkpt>
      <trkpt lat="34.995375" lon="126.138864">
        <ele>1.5</ele>
      </trkpt>
      <trkpt lat="34.9951859" lon="126.137999">
        <ele>0.6</ele>
      </trkpt>
      <trkpt lat="34.996695" lon="126.137367">
        <ele>4.3</ele>
      </trkpt>
      <trkpt lat="34.997584" lon="126.136569">
        <ele>5.4</ele>
      </trkpt>
      <trkpt lat="35.000199" lon="126.134673">
        <ele>3.2</ele>
      </trkpt>
      <trkpt lat="35.001602" lon="126.133422">
        <ele>6.6</ele>
      </trkpt>
      <trkpt lat="35.001835" lon="126.133566">
        <ele>10.3</ele>
      </trkpt>
      <trkpt lat="35.001835" lon="126.134414">
        <ele>12.0</ele>
      </trkpt>
      <trkpt lat="35.001755" lon="126.135117">
        <ele>10.7</ele>
      </trkpt>
      <trkpt lat="35.001384" lon="126.136037">
        <ele>8.4</ele>
      </trkpt>
      <trkpt lat="35.001708" lon="126.138265">
        <ele>9.7</ele>
      </trkpt>
      <trkpt lat="35.0022469" lon="126.138764">
        <ele>16.3</ele>
      </trkpt>
      <trkpt lat="35.00257" lon="126.139396">
        <ele>18.2</ele>
      </trkpt>
      <trkpt lat="35.002813" lon="126.141325">
        <ele>12.6</ele>
      </trkpt>
      <trkpt lat="35.003028" lon="126.142855">
        <ele>5.4</ele>
      </trkpt>
      <trkpt lat="35.01238" lon="126.156226">
        <ele>2.1</ele>
      </trkpt>
      <trkpt lat="35.0168" lon="126.162379">
        <ele>1.4</ele>
      </trkpt>
      <trkpt lat="35.017878" lon="126.16341">
        <ele>8.2</ele>
      </trkpt>
      <trkpt lat="35.025774" lon="126.168266">
        <ele>2.6</ele>
      </trkpt>
      <trkpt lat="35.026491" lon="126.168677">
        <ele>18.4</ele>
      </trkpt>
      <trkpt lat="35.026943" lon="126.169138">
        <ele>26.3</ele>
      </trkpt>
      <trkpt lat="35.027225" lon="126.169567">
        <ele>19.8</ele>
      </trkpt>
      <trkpt lat="35.027547" lon="126.170211">
        <ele>8.9</ele>
      </trkpt>
      <trkpt lat="35.027901" lon="126.171391">
        <ele>6.5</ele>
      </trkpt>
      <trkpt lat="35.027875" lon="126.171649">
        <ele>6.1</ele>
      </trkpt>
      <trkpt lat="35.0277249" lon="126.171799">
        <ele>6.7</ele>
      </trkpt>
      <trkpt lat="35.0274969" lon="126.171777">
        <ele>7.0</ele>
      </trkpt>
      <trkpt lat="35.027343" lon="126.17145">
        <ele>0.1</ele>
      </trkpt>
      <trkpt lat="35.027361" lon="126.170205">
        <ele>9.0</ele>
      </trkpt>
      <trkpt lat="35.029907" lon="126.170082">
        <ele>8.2</ele>
      </trkpt>
      <trkpt lat="35.030937" lon="126.170297">
        <ele>7.0</ele>
      </trkpt>
      <trkpt lat="35.031881" lon="126.170855">
        <ele>8.7</ele>
      </trkpt>
      <trkpt lat="35.032353" lon="126.171327">
        <ele>9.9</ele>
      </trkpt>
      <trkpt lat="35.033598" lon="126.17167">
        <ele>8.5</ele>
      </trkpt>
      <trkpt lat="35.034585" lon="126.172872">
        <ele>10.9</ele>
      </trkpt>
      <trkpt lat="35.036216" lon="126.173644">
        <ele>7.2</ele>
      </trkpt>
      <trkpt lat="35.038147" lon="126.173429">
        <ele>8.8</ele>
      </trkpt>
      <trkpt lat="35.039649" lon="126.172957">
        <ele>7.7</ele>
      </trkpt>
      <trkpt lat="35.039993" lon="126.172619">
        <ele>7.5</ele>
      </trkpt>
      <trkpt lat="35.040209" lon="126.172357">
        <ele>8.3</ele>
      </trkpt>
      <trkpt lat="35.042224" lon="126.172099">
        <ele>5.6</ele>
      </trkpt>
      <trkpt lat="35.043898" lon="126.173644">
        <ele>3.0</ele>
      </trkpt>
      <trkpt lat="35.044885" lon="126.174202">
        <ele>3.9</ele>
      </trkpt>
      <trkpt lat="35.045443" lon="126.175361">
        <ele>6.0</ele>
      </trkpt>
      <trkpt lat="35.046387" lon="126.177549">
        <ele>4.7</ele>
      </trkpt>
      <trkpt lat="35.045528" lon="126.178622">
        <ele>3.1</ele>
      </trkpt>
      <trkpt lat="35.044241" lon="126.18124">
        <ele>5.5</ele>
      </trkpt>
      <trkpt lat="35.043855" lon="126.182141">
        <ele>4.2</ele>
      </trkpt>
      <trkpt lat="35.042953" lon="126.183171">
        <ele>4.0</ele>
      </trkpt>
      <trkpt lat="35.0429109" lon="126.184931">
        <ele>3.7</ele>
      </trkpt>
      <trkpt lat="35.042224" lon="126.185746">
        <ele>2.0</ele>
      </trkpt>
      <trkpt lat="35.041537" lon="126.186047">
        <ele>4.1</ele>
      </trkpt>
      <trkpt lat="35.039477" lon="126.186604">
        <ele>6.2</ele>
      </trkpt>
      <trkpt lat="35.038619" lon="126.18609">
        <ele>6.4</ele>
      </trkpt>
      <trkpt lat="35.035443" lon="126.185961">
        <ele>1.6</ele>
      </trkpt>
      <trkpt lat="35.034885" lon="126.190038">
        <ele>5.1</ele>
      </trkpt>
      <trkpt lat="35.0350139" lon="126.190639">
        <ele>5.3</ele>
      </trkpt>
      <trkpt lat="35.035872" lon="126.191669">
        <ele>6.4</ele>
      </trkpt>
      <trkpt lat="35.037246" lon="126.19287">
        <ele>5.2</ele>
      </trkpt>
      <trkpt lat="35.036817" lon="126.196003">
        <ele>7.5</ele>
      </trkpt>
      <trkpt lat="35.0375889" lon="126.197033">
        <ele>11.3</ele>
      </trkpt>
      <trkpt lat="35.037889" lon="126.197634">
        <ele>12.0</ele>
      </trkpt>
      <trkpt lat="35.038533" lon="126.199007">
        <ele>9.1</ele>
      </trkpt>
      <trkpt lat="35.039048" lon="126.199694">
        <ele>7.8</ele>
      </trkpt>
      <trkpt lat="35.043511" lon="126.204543">
        <ele>14.9</ele>
      </trkpt>
      <trkpt lat="35.044112" lon="126.205015">
        <ele>24.6</ele>
      </trkpt>
      <trkpt lat="35.0449709" lon="126.205273">
        <ele>22.8</ele>
      </trkpt>
      <trkpt lat="35.045614" lon="126.205187">
        <ele>25.0</ele>
      </trkpt>
      <trkpt lat="35.04643" lon="126.204758">
        <ele>21.7</ele>
      </trkpt>
      <trkpt lat="35.04806" lon="126.203771">
        <ele>34.0</ele>
      </trkpt>
      <trkpt lat="35.048747" lon="126.203299">
        <ele>34.3</ele>
      </trkpt>
      <trkpt lat="35.05115" lon="126.202569">
        <ele>13.9</ele>
      </trkpt>
      <trkpt lat="35.052395" lon="126.201968">
        <ele>16.7</ele>
      </trkpt>
      <trkpt lat="35.053039" lon="126.201925">
        <ele>19.3</ele>
      </trkpt>
      <trkpt lat="35.054712" lon="126.202354">
        <ele>17.8</ele>
      </trkpt>
      <trkpt lat="35.055699" lon="126.202784">
        <ele>6.9</ele>
      </trkpt>
      <trkpt lat="35.057502" lon="126.205101">
        <ele>6.5</ele>
      </trkpt>
      <trkpt lat="35.058034" lon="126.205483">
        <ele>7.2</ele>
      </trkpt>
      <trkpt lat="35.058222" lon="126.206548">
        <ele>8.8</ele>
      </trkpt>
      <trkpt lat="35.058653" lon="126.207446">
        <ele>12.5</ele>
      </trkpt>
      <trkpt lat="35.058788" lon="126.208477">
        <ele>16.1</ele>
      </trkpt>
      <trkpt lat="35.059219" lon="126.210173">
        <ele>11.1</ele>
      </trkpt>
      <trkpt lat="35.059354" lon="126.21147">
        <ele>8.3</ele>
      </trkpt>
      <trkpt lat="35.059408" lon="126.212568">
        <ele>4.2</ele>
      </trkpt>
      <trkpt lat="35.059139" lon="126.2134">
        <ele>7.6</ele>
      </trkpt>
      <trkpt lat="35.058573" lon="126.214165">
        <ele>11.7</ele>
      </trkpt>
      <trkpt lat="35.058168" lon="126.214597">
        <ele>9.6</ele>
      </trkpt>
      <trkpt lat="35.057953" lon="126.215428">
        <ele>8.1</ele>
      </trkpt>
      <trkpt lat="35.057953" lon="126.216825">
        <ele>9.7</ele>
      </trkpt>
      <trkpt lat="35.05868" lon="126.220584">
        <ele>9.0</ele>
      </trkpt>
      <trkpt lat="35.059381" lon="126.221947">
        <ele>6.6</ele>
      </trkpt>
      <trkpt lat="35.059893" lon="126.225506">
        <ele>4.4</ele>
      </trkpt>
      <trkpt lat="35.060244" lon="126.227036">
        <ele>15.1</ele>
      </trkpt>
      <trkpt lat="35.060217" lon="126.228034">
        <ele>14.3</ele>
      </trkpt>
      <trkpt lat="35.05992" lon="126.232291">
        <ele>18.5</ele>
      </trkpt>
      <trkpt lat="35.059893" lon="126.233721">
        <ele>17.9</ele>
      </trkpt>
      <trkpt lat="35.060297" lon="126.237347">
        <ele>6.6</ele>
      </trkpt>
      <trkpt lat="35.060217" lon="126.238611">
        <ele>10.8</ele>
      </trkpt>
      <trkpt lat="35.059893" lon="126.240739">
        <ele>7.9</ele>
      </trkpt>
      <trkpt lat="35.0595969" lon="126.242369">
        <ele>4.6</ele>
      </trkpt>
      <trkpt lat="35.059058" lon="126.245196">
        <ele>25.1</ele>
      </trkpt>
      <trkpt lat="35.057899" lon="126.247857">
        <ele>39.1</ele>
      </trkpt>
      <trkpt lat="35.057576" lon="126.248888">
        <ele>36.5</ele>
      </trkpt>
      <trkpt lat="35.057144" lon="126.251815">
        <ele>46.3</ele>
      </trkpt>
      <trkpt lat="35.056147" lon="126.255806">
        <ele>19.8</ele>
      </trkpt>
      <trkpt lat="35.056093" lon="126.256604">
        <ele>19.8</ele>
      </trkpt>
      <trkpt lat="35.056282" lon="126.257569">
        <ele>13.0</ele>
      </trkpt>
      <trkpt lat="35.056848" lon="126.259066">
        <ele>7.3</ele>
      </trkpt>
      <trkpt lat="35.057144" lon="126.26023">
        <ele>5.3</ele>
      </trkpt>
      <trkpt lat="35.057522" lon="126.265219">
        <ele>15.9</ele>
      </trkpt>
      <trkpt lat="35.057764" lon="126.26635">
        <ele>18.1</ele>
      </trkpt>
      <trkpt lat="35.058088" lon="126.267347">
        <ele>23.7</ele>
      </trkpt>
      <trkpt lat="35.058869" lon="126.268611">
        <ele>26.7</ele>
      </trkpt>
      <trkpt lat="35.060648" lon="126.271106">
        <ele>35.2</ele>
      </trkpt>
      <trkpt lat="35.0610519" lon="126.272536">
        <ele>26.7</ele>
      </trkpt>
      <trkpt lat="35.061348" lon="126.273733">
        <ele>31.1</ele>
      </trkpt>
      <trkpt lat="35.061241" lon="126.275962">
        <ele>33.4</ele>
      </trkpt>
      <trkpt lat="35.061025" lon="126.278456">
        <ele>17.2</ele>
      </trkpt>
      <trkpt lat="35.061295" lon="126.279986">
        <ele>11.6</ele>
      </trkpt>
      <trkpt lat="35.061834" lon="126.281184">
        <ele>8.4</ele>
      </trkpt>
      <trkpt lat="35.06248" lon="126.282315">
        <ele>7.5</ele>
      </trkpt>
      <trkpt lat="35.065526" lon="126.285075">
        <ele>21.0</ele>
      </trkpt>
      <trkpt lat="35.067412" lon="126.287437">
        <ele>4.7</ele>
      </trkpt>
      <trkpt lat="35.0691909" lon="126.288834">
        <ele>5.2</ele>
      </trkpt>
      <trkpt lat="35.07167" lon="126.291062">
        <ele>19.5</ele>
      </trkpt>
      <trkpt lat="35.074257" lon="126.292259">
        <ele>32.7</ele>
      </trkpt>
      <trkpt lat="35.075012" lon="126.292924">
        <ele>20.5</ele>
      </trkpt>
      <trkpt lat="35.07574" lon="126.293989">
        <ele>15.5</ele>
      </trkpt>
      <trkpt lat="35.076144" lon="126.295086">
        <ele>14.6</ele>
      </trkpt>
      <trkpt lat="35.077383" lon="126.300142">
        <ele>4.5</ele>
      </trkpt>
      <trkpt lat="35.077815" lon="126.301439">
        <ele>2.7</ele>
      </trkpt>
      <trkpt lat="35.082477" lon="126.311517">
        <ele>2.4</ele>
      </trkpt>
      <trkpt lat="35.083232" lon="126.312349">
        <ele>1.0</ele>
      </trkpt>
      <trkpt lat="35.084283" lon="126.31328">
        <ele>2.6</ele>
      </trkpt>
      <trkpt lat="35.088137" lon="126.315808">
        <ele>7.0</ele>
      </trkpt>
      <trkpt lat="35.0886489" lon="126.31624">
        <ele>7.2</ele>
      </trkpt>
      <trkpt lat="35.0892679" lon="126.317105">
        <ele>9.3</ele>
      </trkpt>
      <trkpt lat="35.093823" lon="126.326617">
        <ele>11.7</ele>
      </trkpt>
      <trkpt lat="35.092435" lon="126.328912">
        <ele>12.1</ele>
      </trkpt>
      <trkpt lat="35.091705" lon="126.329727">
        <ele>12.8</ele>
      </trkpt>
      <trkpt lat="35.090418" lon="126.330886">
        <ele>11.5</ele>
      </trkpt>
      <trkpt lat="35.088186" lon="126.333632">
        <ele>10.6</ele>
      </trkpt>
      <trkpt lat="35.087113" lon="126.334233">
        <ele>11.4</ele>
      </trkpt>
      <trkpt lat="35.085011" lon="126.336465">
        <ele>24.4</ele>
      </trkpt>
      <trkpt lat="35.084581" lon="126.336851">
        <ele>20.0</ele>
      </trkpt>
      <trkpt lat="35.081792" lon="126.338224">
        <ele>9.6</ele>
      </trkpt>
      <trkpt lat="35.0789169" lon="126.339254">
        <ele>12.7</ele>
      </trkpt>
      <trkpt lat="35.076299" lon="126.340885">
        <ele>13.7</ele>
      </trkpt>
      <trkpt lat="35.075483" lon="126.341486">
        <ele>12.4</ele>
      </trkpt>
      <trkpt lat="35.070848" lon="126.346035">
        <ele>8.8</ele>
      </trkpt>
      <trkpt lat="35.068423" lon="126.348492">
        <ele>10.5</ele>
      </trkpt>
      <trkpt lat="35.0667199" lon="126.35008">
        <ele>14.8</ele>
      </trkpt>
      <trkpt lat="35.064454" lon="126.353052">
        <ele>9.7</ele>
      </trkpt>
      <trkpt lat="35.065578" lon="126.353792">
        <ele>11.1</ele>
      </trkpt>
      <trkpt lat="35.065098" lon="126.355734">
        <ele>12.8</ele>
      </trkpt>
      <trkpt lat="35.063038" lon="126.358781">
        <ele>21.1</ele>
      </trkpt>
      <trkpt lat="35.060806" lon="126.360755">
        <ele>20.8</ele>
      </trkpt>
      <trkpt lat="35.058403" lon="126.362128">
        <ele>10.6</ele>
      </trkpt>
      <trkpt lat="35.057201" lon="126.363459">
        <ele>12.2</ele>
      </trkpt>
      <trkpt lat="35.056772" lon="126.364188">
        <ele>13.3</ele>
      </trkpt>
      <trkpt lat="35.056214" lon="126.365304">
        <ele>11.1</ele>
      </trkpt>
      <trkpt lat="35.055656" lon="126.366076">
        <ele>8.6</ele>
      </trkpt>
      <trkpt lat="35.055399" lon="126.366849">
        <ele>7.5</ele>
      </trkpt>
      <trkpt lat="35.055656" lon="126.370068">
        <ele>17.8</ele>
      </trkpt>
      <trkpt lat="35.055399" lon="126.371613">
        <ele>22.1</ele>
      </trkpt>
      <trkpt lat="35.0541539" lon="126.373029">
        <ele>24.7</ele>
      </trkpt>
      <trkpt lat="35.051665" lon="126.375217">
        <ele>26.2</ele>
      </trkpt>
      <trkpt lat="35.051107" lon="126.376162">
        <ele>21.6</ele>
      </trkpt>
      <trkpt lat="35.0508499" lon="126.37702">
        <ele>16.5</ele>
      </trkpt>
      <trkpt lat="35.050764" lon="126.378264">
        <ele>11.8</ele>
      </trkpt>
      <trkpt lat="35.049434" lon="126.381097">
        <ele>5.3</ele>
      </trkpt>
      <trkpt lat="35.049047" lon="126.381612">
        <ele>5.4</ele>
      </trkpt>
      <trkpt lat="35.046687" lon="126.383328">
        <ele>10.0</ele>
      </trkpt>
      <trkpt lat="35.045872" lon="126.38423">
        <ele>13.4</ele>
      </trkpt>
      <trkpt lat="35.044584" lon="126.386204">
        <ele>14.8</ele>
      </trkpt>
      <trkpt lat="35.041409" lon="126.389165">
        <ele>14.2</ele>
      </trkpt>
      <trkpt lat="35.040035" lon="126.390324">
        <ele>17.5</ele>
      </trkpt>
      <trkpt lat="35.037546" lon="126.39174">
        <ele>20.8</ele>
      </trkpt>
      <trkpt lat="35.0319239" lon="126.394916">
        <ele>20.1</ele>
      </trkpt>
      <trkpt lat="35.02892" lon="126.395903">
        <ele>19.4</ele>
      </trkpt>
      <trkpt lat="35.026603" lon="126.397018">
        <ele>14.8</ele>
      </trkpt>
      <trkpt lat="35.025444" lon="126.39792">
        <ele>16.7</ele>
      </trkpt>
      <trkpt lat="35.023899" lon="126.398821">
        <ele>19.4</ele>
      </trkpt>
      <trkpt lat="35.0232979" lon="126.39955">
        <ele>20.6</ele>
      </trkpt>
      <trkpt lat="35.023041" lon="126.400065">
        <ele>20.8</ele>
      </trkpt>
      <trkpt lat="35.021796" lon="126.408434">
        <ele>20.4</ele>
      </trkpt>
      <trkpt lat="35.021539" lon="126.409292">
        <ele>21.3</ele>
      </trkpt>
      <trkpt lat="35.022182" lon="126.410408">
        <ele>20.4</ele>
      </trkpt>
      <trkpt lat="35.023084" lon="126.41191">
        <ele>21.8</ele>
      </trkpt>
      <trkpt lat="35.023255" lon="126.412554">
        <ele>20.8</ele>
      </trkpt>
      <trkpt lat="35.025272" lon="126.416202">
        <ele>7.5</ele>
      </trkpt>
      <trkpt lat="35.026431" lon="126.418819">
        <ele>9.7</ele>
      </trkpt>
      <trkpt lat="35.027075" lon="126.420708">
        <ele>9.3</ele>
      </trkpt>
      <trkpt lat="35.027547" lon="126.424828">
        <ele>4.0</ele>
      </trkpt>
      <trkpt lat="35.027032" lon="126.427274">
        <ele>5.6</ele>
      </trkpt>
      <trkpt lat="35.0275899" lon="126.428819">
        <ele>8.5</ele>
      </trkpt>
      <trkpt lat="35.029049" lon="126.430364">
        <ele>9.1</ele>
      </trkpt>
      <trkpt lat="35.03304" lon="126.433754">
        <ele>22.1</ele>
      </trkpt>
      <trkpt lat="35.036173" lon="126.4359">
        <ele>35.2</ele>
      </trkpt>
      <trkpt lat="35.038319" lon="126.439719">
        <ele>19.7</ele>
      </trkpt>
      <trkpt lat="35.038662" lon="126.440148">
        <ele>18.4</ele>
      </trkpt>
      <trkpt lat="35.039949" lon="126.441007">
        <ele>14.2</ele>
      </trkpt>
      <trkpt lat="35.040722" lon="126.441865">
        <ele>11.2</ele>
      </trkpt>
      <trkpt lat="35.0423959" lon="126.442766">
        <ele>11.4</ele>
      </trkpt>
      <trkpt lat="35.04364" lon="126.443753">
        <ele>11.1</ele>
      </trkpt>
      <trkpt lat="35.0439409" lon="126.444397">
        <ele>13.0</ele>
      </trkpt>
      <trkpt lat="35.044327" lon="126.446714">
        <ele>18.0</ele>
      </trkpt>
      <trkpt lat="35.04467" lon="126.447401">
        <ele>20.6</ele>
      </trkpt>
      <trkpt lat="35.045443" lon="126.448431">
        <ele>21.5</ele>
      </trkpt>
      <trkpt lat="35.046558" lon="126.449161">
        <ele>26.9</ele>
      </trkpt>
      <trkpt lat="35.049005" lon="126.45062">
        <ele>22.3</ele>
      </trkpt>
      <trkpt lat="35.050292" lon="126.452422">
        <ele>21.4</ele>
      </trkpt>
      <trkpt lat="35.052352" lon="126.454782">
        <ele>39.0</ele>
      </trkpt>
      <trkpt lat="35.053425" lon="126.455598">
        <ele>36.3</ele>
      </trkpt>
      <trkpt lat="35.053983" lon="126.456757">
        <ele>36.5</ele>
      </trkpt>
      <trkpt lat="35.056601" lon="126.461134">
        <ele>27.6</ele>
      </trkpt>
      <trkpt lat="35.057116" lon="126.463151">
        <ele>32.7</ele>
      </trkpt>
      <trkpt lat="35.058017" lon="126.467099">
        <ele>40.3</ele>
      </trkpt>
      <trkpt lat="35.05806" lon="126.467915">
        <ele>42.1</ele>
      </trkpt>
      <trkpt lat="35.058446" lon="126.469631">
        <ele>39.6</ele>
      </trkpt>
      <trkpt lat="35.0589609" lon="126.470447">
        <ele>36.3</ele>
      </trkpt>
      <trkpt lat="35.059562" lon="126.472979">
        <ele>34.7</ele>
      </trkpt>
      <trkpt lat="35.05969" lon="126.475339">
        <ele>32.5</ele>
      </trkpt>
      <trkpt lat="35.060205" lon="126.477098">
        <ele>27.1</ele>
      </trkpt>
      <trkpt lat="35.061278" lon="126.478944">
        <ele>19.2</ele>
      </trkpt>
      <trkpt lat="35.062523" lon="126.481776">
        <ele>18.4</ele>
      </trkpt>
      <trkpt lat="35.062394" lon="126.483407">
        <ele>23.2</ele>
      </trkpt>
      <trkpt lat="35.063467" lon="126.486154">
        <ele>39.5</ele>
      </trkpt>
      <trkpt lat="35.063896" lon="126.490831">
        <ele>31.8</ele>
      </trkpt>
      <trkpt lat="35.065742" lon="126.494436">
        <ele>37.1</ele>
      </trkpt>
      <trkpt lat="35.066214" lon="126.496582">
        <ele>39.7</ele>
      </trkpt>
      <trkpt lat="35.068102" lon="126.499586">
        <ele>44.7</ele>
      </trkpt>
      <trkpt lat="35.068789" lon="126.500788">
        <ele>43.9</ele>
      </trkpt>
      <trkpt lat="35.07072" lon="126.502633">
        <ele>34.1</ele>
      </trkpt>
      <trkpt lat="35.071149" lon="126.506238">
        <ele>34.7</ele>
      </trkpt>
      <trkpt lat="35.070689" lon="126.506361">
        <ele>37.4</ele>
      </trkpt>
      <trkpt lat="35.070408" lon="126.506839">
        <ele>41.7</ele>
      </trkpt>
      <trkpt lat="35.0702799" lon="126.507306">
        <ele>45.3</ele>
      </trkpt>
      <trkpt lat="35.070456" lon="126.507998">
        <ele>48.6</ele>
      </trkpt>
      <trkpt lat="35.070825" lon="126.50847">
        <ele>50.2</ele>
      </trkpt>
      <trkpt lat="35.071084" lon="126.508883">
        <ele>50.7</ele>
      </trkpt>
      <trkpt lat="35.071198" lon="126.509317">
        <ele>53.3</ele>
      </trkpt>
      <trkpt lat="35.071132" lon="126.509854">
        <ele>59.5</ele>
      </trkpt>
      <trkpt lat="35.070891" lon="126.510358">
        <ele>67.7</ele>
      </trkpt>
      <trkpt lat="35.070162" lon="126.510873">
        <ele>65.0</ele>
      </trkpt>
      <trkpt lat="35.068746" lon="126.511559">
        <ele>53.7</ele>
      </trkpt>
      <trkpt lat="35.068059" lon="126.51216">
        <ele>50.6</ele>
      </trkpt>
      <trkpt lat="35.066171" lon="126.512547">
        <ele>35.3</ele>
      </trkpt>
      <trkpt lat="35.065484" lon="126.513705">
        <ele>34.1</ele>
      </trkpt>
      <trkpt lat="35.06424" lon="126.515079">
        <ele>24.2</ele>
      </trkpt>
      <trkpt lat="35.063896" lon="126.515894">
        <ele>20.2</ele>
      </trkpt>
      <trkpt lat="35.063725" lon="126.5201">
        <ele>14.0</ele>
      </trkpt>
      <trkpt lat="35.064368" lon="126.5204">
        <ele>14.8</ele>
      </trkpt>
      <trkpt lat="35.064926" lon="126.52113">
        <ele>15.2</ele>
      </trkpt>
      <trkpt lat="35.0653549" lon="126.522675">
        <ele>12.1</ele>
      </trkpt>
      <trkpt lat="35.065784" lon="126.52349">
        <ele>11.0</ele>
      </trkpt>
      <trkpt lat="35.067085" lon="126.527773">
        <ele>10.5</ele>
      </trkpt>
      <trkpt lat="35.067085" lon="126.527773">
        <ele>10.5</ele>
      </trkpt>
      <trkpt lat="35.067482" lon="126.529218">
        <ele>10.1</ele>
      </trkpt>
      <trkpt lat="35.067878" lon="126.530663">
        <ele>13.6</ele>
      </trkpt>
      <trkpt lat="35.067966" lon="126.530672">
        <ele>13.8</ele>
      </trkpt>
      <trkpt lat="35.068123" lon="126.530592">
        <ele>14.0</ele>
      </trkpt>
      <trkpt lat="35.0681749" lon="126.530565">
        <ele>14.0</ele>
      </trkpt>
      <trkpt lat="35.0681129" lon="126.530496">
        <ele>13.8</ele>
      </trkpt>
      <trkpt lat="35.067882" lon="126.530622">
        <ele>13.5</ele>
      </trkpt>
      <trkpt lat="35.067882" lon="126.530622">
        <ele>13.5</ele>
      </trkpt>
      <trkpt lat="35.068275" lon="126.531693">
        <ele>18.9</ele>
      </trkpt>
      <trkpt lat="35.0684449" lon="126.533403">
        <ele>26.2</ele>
      </trkpt>
      <trkpt lat="35.0679299" lon="126.535034">
        <ele>23.5</ele>
      </trkpt>
      <trkpt lat="35.068188" lon="126.535721">
        <ele>23.7</ele>
      </trkpt>
      <trkpt lat="35.070806" lon="126.537952">
        <ele>28.4</ele>
      </trkpt>
      <trkpt lat="35.071363" lon="126.538553">
        <ele>32.4</ele>
      </trkpt>
      <trkpt lat="35.073681" lon="126.541858">
        <ele>37.6</ele>
      </trkpt>
      <trkpt lat="35.074716" lon="126.542893">
        <ele>39.0</ele>
      </trkpt>
      <trkpt lat="35.07471" lon="126.5429">
        <ele>39.0</ele>
      </trkpt>
      <trkpt lat="35.07488" lon="126.54307">
        <ele>39.6</ele>
      </trkpt>
      <trkpt lat="35.07526" lon="126.54361">
        <ele>41.1</ele>
      </trkpt>
      <trkpt lat="35.07564" lon="126.54415">
        <ele>42.1</ele>
      </trkpt>
      <trkpt lat="35.07606" lon="126.54483">
        <ele>42.7</ele>
      </trkpt>
      <trkpt lat="35.0764799" lon="126.54551">
        <ele>42.6</ele>
      </trkpt>
      <trkpt lat="35.07686" lon="126.54613">
        <ele>40.7</ele>
      </trkpt>
      <trkpt lat="35.07724" lon="126.54676">
        <ele>40.6</ele>
      </trkpt>
      <trkpt lat="35.07762" lon="126.54739">
        <ele>41.0</ele>
      </trkpt>
      <trkpt lat="35.07808" lon="126.54816">
        <ele>37.9</ele>
      </trkpt>
      <trkpt lat="35.07828" lon="126.5485">
        <ele>37.2</ele>
      </trkpt>
      <trkpt lat="35.0787199" lon="126.54933">
        <ele>36.0</ele>
      </trkpt>
      <trkpt lat="35.07916" lon="126.55015">
        <ele>34.3</ele>
      </trkpt>
      <trkpt lat="35.0796" lon="126.55098">
        <ele>31.9</ele>
      </trkpt>
      <trkpt lat="35.0800399" lon="126.5518">
        <ele>32.7275459</ele>
      </trkpt>
      <trkpt lat="35.08021" lon="126.55216">
        <ele>33.0783247</ele>
      </trkpt>
      <trkpt lat="35.0805999" lon="126.55287">
        <ele>33.8</ele>
      </trkpt>
      <trkpt lat="35.08099" lon="126.55358">
        <ele>35.2</ele>
      </trkpt>
      <trkpt lat="35.08138" lon="126.55429">
        <ele>36.1</ele>
      </trkpt>
      <trkpt lat="35.08177" lon="126.55499">
        <ele>38.7</ele>
      </trkpt>
      <trkpt lat="35.0820999" lon="126.55599">
        <ele>41.3</ele>
      </trkpt>
      <trkpt lat="35.08243" lon="126.557">
        <ele>40.5</ele>
      </trkpt>
      <trkpt lat="35.08275" lon="126.558">
        <ele>42.7</ele>
      </trkpt>
      <trkpt lat="35.08308" lon="126.559">
        <ele>44.8</ele>
      </trkpt>
      <trkpt lat="35.0834" lon="126.56">
        <ele>43.4</ele>
      </trkpt>
      <trkpt lat="35.08373" lon="126.561">
        <ele>46.2</ele>
      </trkpt>
      <trkpt lat="35.08382" lon="126.56149">
        <ele>47.6</ele>
      </trkpt>
      <trkpt lat="35.08368" lon="126.56214">
        <ele>46.8</ele>
      </trkpt>
      <trkpt lat="35.08341" lon="126.56265">
        <ele>47.0</ele>
      </trkpt>
      <trkpt lat="35.08296" lon="126.56319">
        <ele>49.7</ele>
      </trkpt>
      <trkpt lat="35.08287" lon="126.56354">
        <ele>51.8</ele>
      </trkpt>
      <trkpt lat="35.0828599" lon="126.56382">
        <ele>54.0</ele>
      </trkpt>
      <trkpt lat="35.08291" lon="126.56486">
        <ele>55.0</ele>
      </trkpt>
      <trkpt lat="35.08288" lon="126.5653">
        <ele>53.3</ele>
      </trkpt>
      <trkpt lat="35.08256" lon="126.5662">
        <ele>53.5</ele>
      </trkpt>
      <trkpt lat="35.08223" lon="126.5671">
        <ele>60.5</ele>
      </trkpt>
      <trkpt lat="35.08199" lon="126.56814">
        <ele>72.3</ele>
      </trkpt>
      <trkpt lat="35.08176" lon="126.56917">
        <ele>73.7</ele>
      </trkpt>
      <trkpt lat="35.08153" lon="126.57003">
        <ele>68.2</ele>
      </trkpt>
      <trkpt lat="35.08083" lon="126.57065">
        <ele>58.1</ele>
      </trkpt>
      <trkpt lat="35.0801299" lon="126.57127">
        <ele>51.2</ele>
      </trkpt>
      <trkpt lat="35.07983" lon="126.57183">
        <ele>50.3</ele>
      </trkpt>
      <trkpt lat="35.07961" lon="126.57243">
        <ele>46.7</ele>
      </trkpt>
      <trkpt lat="35.0793899" lon="126.57309">
        <ele>46.0</ele>
      </trkpt>
      <trkpt lat="35.07888" lon="126.57357">
        <ele>41.8</ele>
      </trkpt>
      <trkpt lat="35.07837" lon="126.57406">
        <ele>38.3</ele>
      </trkpt>
      <trkpt lat="35.0777" lon="126.57474">
        <ele>36.3</ele>
      </trkpt>
      <trkpt lat="35.0770399" lon="126.57542">
        <ele>33.0</ele>
      </trkpt>
      <trkpt lat="35.0764" lon="126.57599">
        <ele>29.5</ele>
      </trkpt>
      <trkpt lat="35.07605" lon="126.5764">
        <ele>27.9</ele>
      </trkpt>
      <trkpt lat="35.07586" lon="126.57685">
        <ele>27.6</ele>
      </trkpt>
      <trkpt lat="35.07564" lon="126.57777">
        <ele>27.9</ele>
      </trkpt>
      <trkpt lat="35.07542" lon="126.5787">
        <ele>27.3</ele>
      </trkpt>
      <trkpt lat="35.07546" lon="126.57932">
        <ele>27.8</ele>
      </trkpt>
      <trkpt lat="35.07546" lon="126.57978">
        <ele>26.9</ele>
      </trkpt>
      <trkpt lat="35.07531" lon="126.58044">
        <ele>25.0</ele>
      </trkpt>
      <trkpt lat="35.07509" lon="126.5812">
        <ele>23.2</ele>
      </trkpt>
      <trkpt lat="35.07486" lon="126.58197">
        <ele>22.6</ele>
      </trkpt>
      <trkpt lat="35.07463" lon="126.58274">
        <ele>21.0</ele>
      </trkpt>
      <trkpt lat="35.07425" lon="126.58353">
        <ele>19.7</ele>
      </trkpt>
      <trkpt lat="35.07414" lon="126.58392">
        <ele>17.3</ele>
      </trkpt>
      <trkpt lat="35.07417" lon="126.58479">
        <ele>17.6</ele>
      </trkpt>
      <trkpt lat="35.0742" lon="126.58567">
        <ele>21.0</ele>
      </trkpt>
      <trkpt lat="35.07415" lon="126.58602">
        <ele>19.8</ele>
      </trkpt>
      <trkpt lat="35.07406" lon="126.5863">
        <ele>17.7</ele>
      </trkpt>
      <trkpt lat="35.07414" lon="126.58646">
        <ele>17.1</ele>
      </trkpt>
      <trkpt lat="35.07433" lon="126.58694">
        <ele>14.6</ele>
      </trkpt>
      <trkpt lat="35.07455" lon="126.58722">
        <ele>12.6</ele>
      </trkpt>
      <trkpt lat="35.07473" lon="126.58732">
        <ele>11.4</ele>
      </trkpt>
      <trkpt lat="35.07558" lon="126.58753">
        <ele>11.8</ele>
      </trkpt>
      <trkpt lat="35.07643" lon="126.58775">
        <ele>12.0</ele>
      </trkpt>
      <trkpt lat="35.07727" lon="126.58797">
        <ele>12.3</ele>
      </trkpt>
      <trkpt lat="35.07812" lon="126.58819">
        <ele>12.1</ele>
      </trkpt>
      <trkpt lat="35.07896" lon="126.58841">
        <ele>13.1</ele>
      </trkpt>
      <trkpt lat="35.0796" lon="126.58889">
        <ele>13.0</ele>
      </trkpt>
      <trkpt lat="35.08024" lon="126.58937">
        <ele>13.3</ele>
      </trkpt>
      <trkpt lat="35.08056" lon="126.58966">
        <ele>13.8</ele>
      </trkpt>
      <trkpt lat="35.08023" lon="126.59056">
        <ele>12.4</ele>
      </trkpt>
      <trkpt lat="35.07991" lon="126.59147">
        <ele>16.1148297</ele>
      </trkpt>
      <trkpt lat="35.0796599" lon="126.59223">
        <ele>19.1869758</ele>
      </trkpt>
      <trkpt lat="35.07942" lon="126.593">
        <ele>22.2773536</ele>
      </trkpt>
      <trkpt lat="35.07937" lon="126.59318">
        <ele>22.990303</ele>
      </trkpt>
      <trkpt lat="35.0794799" lon="126.5932">
        <ele>23.5</ele>
      </trkpt>
      <trkpt lat="35.07992" lon="126.59337">
        <ele>21.4</ele>
      </trkpt>
      <trkpt lat="35.08028" lon="126.59368">
        <ele>26.2</ele>
      </trkpt>
      <trkpt lat="35.08056" lon="126.59412">
        <ele>26.9</ele>
      </trkpt>
      <trkpt lat="35.08084" lon="126.59465">
        <ele>15.8</ele>
      </trkpt>
      <trkpt lat="35.08113" lon="126.59518">
        <ele>13.2</ele>
      </trkpt>
      <trkpt lat="35.08157" lon="126.59565">
        <ele>11.9</ele>
      </trkpt>
      <trkpt lat="35.08231" lon="126.59595">
        <ele>10.6</ele>
      </trkpt>
      <trkpt lat="35.08305" lon="126.59624">
        <ele>10.2</ele>
      </trkpt>
      <trkpt lat="35.08365" lon="126.59646">
        <ele>11.5</ele>
      </trkpt>
      <trkpt lat="35.08424" lon="126.59667">
        <ele>13.0</ele>
      </trkpt>
      <trkpt lat="35.0851" lon="126.59694">
        <ele>13.0</ele>
      </trkpt>
      <trkpt lat="35.08571" lon="126.59715">
        <ele>13.0</ele>
      </trkpt>
      <trkpt lat="35.08632" lon="126.59737">
        <ele>13.579354</ele>
      </trkpt>
      <trkpt lat="35.08639" lon="126.5974">
        <ele>13.6469258</ele>
      </trkpt>
      <trkpt lat="35.08666" lon="126.59748">
        <ele>13.9</ele>
      </trkpt>
      <trkpt lat="35.08739" lon="126.59763">
        <ele>13.4</ele>
      </trkpt>
      <trkpt lat="35.08812" lon="126.59778">
        <ele>12.7</ele>
      </trkpt>
      <trkpt lat="35.08899" lon="126.59799">
        <ele>11.8</ele>
      </trkpt>
      <trkpt lat="35.08987" lon="126.59819">
        <ele>11.8</ele>
      </trkpt>
      <trkpt lat="35.09045" lon="126.5983">
        <ele>12.5</ele>
      </trkpt>
      <trkpt lat="35.09103" lon="126.59841">
        <ele>12.8</ele>
      </trkpt>
      <trkpt lat="35.09163" lon="126.59855">
        <ele>12.3</ele>
      </trkpt>
      <trkpt lat="35.09223" lon="126.59869">
        <ele>12.8</ele>
      </trkpt>
      <trkpt lat="35.09283" lon="126.59883">
        <ele>12.9</ele>
      </trkpt>
      <trkpt lat="35.09353" lon="126.59898">
        <ele>12.9</ele>
      </trkpt>
      <trkpt lat="35.09423" lon="126.59914">
        <ele>14.9</ele>
      </trkpt>
      <trkpt lat="35.09493" lon="126.59929">
        <ele>15.2</ele>
      </trkpt>
      <trkpt lat="35.09563" lon="126.59944">
        <ele>16.3</ele>
      </trkpt>
      <trkpt lat="35.09625" lon="126.59959">
        <ele>18.5</ele>
      </trkpt>
      <trkpt lat="35.09687" lon="126.59974">
        <ele>20.6</ele>
      </trkpt>
      <trkpt lat="35.09767" lon="126.59989">
        <ele>19.8</ele>
      </trkpt>
      <trkpt lat="35.09846" lon="126.60004">
        <ele>17.3</ele>
      </trkpt>
      <trkpt lat="35.0991799" lon="126.60037">
        <ele>18.9</ele>
      </trkpt>
      <trkpt lat="35.0994" lon="126.60055">
        <ele>19.2</ele>
      </trkpt>
      <trkpt lat="35.09957" lon="126.60073">
        <ele>19.3678963</ele>
      </trkpt>
      <trkpt lat="35.09966" lon="126.60085">
        <ele>19.4673185</ele>
      </trkpt>
      <trkpt lat="35.09976" lon="126.60103">
        <ele>19.6001997</ele>
      </trkpt>
      <trkpt lat="35.1001199" lon="126.60172">
        <ele>20.1</ele>
      </trkpt>
      <trkpt lat="35.10049" lon="126.60245">
        <ele>21.9</ele>
      </trkpt>
      <trkpt lat="35.10085" lon="126.60319">
        <ele>22.9</ele>
      </trkpt>
      <trkpt lat="35.10122" lon="126.60392">
        <ele>25.0</ele>
      </trkpt>
      <trkpt lat="35.10159" lon="126.60465">
        <ele>27.8</ele>
      </trkpt>
      <trkpt lat="35.10204" lon="126.60553">
        <ele>30.8</ele>
      </trkpt>
      <trkpt lat="35.10249" lon="126.60641">
        <ele>31.3</ele>
      </trkpt>
      <trkpt lat="35.10263" lon="126.60659">
        <ele>31.2</ele>
      </trkpt>
      <trkpt lat="35.10279" lon="126.60672">
        <ele>31.2</ele>
      </trkpt>
      <trkpt lat="35.10323" lon="126.60685">
        <ele>32.0</ele>
      </trkpt>
      <trkpt lat="35.10367" lon="126.60698">
        <ele>32.0</ele>
      </trkpt>
      <trkpt lat="35.10429" lon="126.60726">
        <ele>32.6</ele>
      </trkpt>
      <trkpt lat="35.1049" lon="126.60754">
        <ele>32.1</ele>
      </trkpt>
      <trkpt lat="35.10522" lon="126.60777">
        <ele>30.1</ele>
      </trkpt>
      <trkpt lat="35.10554" lon="126.6082">
        <ele>24.9</ele>
      </trkpt>
      <trkpt lat="35.1057599" lon="126.60869">
        <ele>21.3</ele>
      </trkpt>
      <trkpt lat="35.1060299" lon="126.6095">
        <ele>24.1</ele>
      </trkpt>
      <trkpt lat="35.1064" lon="126.61045">
        <ele>23.6</ele>
      </trkpt>
      <trkpt lat="35.10677" lon="126.61141">
        <ele>21.3</ele>
      </trkpt>
      <trkpt lat="35.10698" lon="126.61175">
        <ele>21.5</ele>
      </trkpt>
      <trkpt lat="35.10732" lon="126.61213">
        <ele>20.9</ele>
      </trkpt>
      <trkpt lat="35.10758" lon="126.61236">
        <ele>20.3</ele>
      </trkpt>
      <trkpt lat="35.10786" lon="126.61255">
        <ele>20.3</ele>
      </trkpt>
      <trkpt lat="35.10848" lon="126.61287">
        <ele>19.3</ele>
      </trkpt>
      <trkpt lat="35.10848" lon="126.61287">
        <ele>19.3</ele>
      </trkpt>
      <trkpt lat="35.10927" lon="126.61332">
        <ele>18.7</ele>
      </trkpt>
      <trkpt lat="35.11006" lon="126.61377">
        <ele>19.1</ele>
      </trkpt>
      <trkpt lat="35.11079" lon="126.61417">
        <ele>19.1</ele>
      </trkpt>
      <trkpt lat="35.11153" lon="126.61457">
        <ele>20.8</ele>
      </trkpt>
      <trkpt lat="35.11226" lon="126.61497">
        <ele>20.5</ele>
      </trkpt>
      <trkpt lat="35.11289" lon="126.61517">
        <ele>21.1</ele>
      </trkpt>
      <trkpt lat="35.11294" lon="126.61521">
        <ele>21.3</ele>
      </trkpt>
      <trkpt lat="35.1132599" lon="126.61528">
        <ele>21.9</ele>
      </trkpt>
      <trkpt lat="35.113265" lon="126.615257">
        <ele>21.8</ele>
      </trkpt>
      <trkpt lat="35.113335" lon="126.615286">
        <ele>22.0</ele>
      </trkpt>
      <trkpt lat="35.115352" lon="126.615758">
        <ele>23.4</ele>
      </trkpt>
      <trkpt lat="35.115995" lon="126.616616">
        <ele>28.7</ele>
      </trkpt>
      <trkpt lat="35.116982" lon="126.617603">
        <ele>23.8</ele>
      </trkpt>
      <trkpt lat="35.1183989" lon="126.621208">
        <ele>26.6</ele>
      </trkpt>
      <trkpt lat="35.121574" lon="126.62241">
        <ele>19.9</ele>
      </trkpt>
      <trkpt lat="35.124836" lon="126.624212">
        <ele>22.3</ele>
      </trkpt>
      <trkpt lat="35.12548" lon="126.624255">
        <ele>28.7</ele>
      </trkpt>
      <trkpt lat="35.127153" lon="126.622968">
        <ele>25.9</ele>
      </trkpt>
      <trkpt lat="35.128098" lon="126.62241">
        <ele>27.0</ele>
      </trkpt>
      <trkpt lat="35.128698" lon="126.622238">
        <ele>29.5</ele>
      </trkpt>
      <trkpt lat="35.130801" lon="126.622152">
        <ele>34.3</ele>
      </trkpt>
      <trkpt lat="35.132046" lon="126.622453">
        <ele>32.3</ele>
      </trkpt>
      <trkpt lat="35.132818" lon="126.622968">
        <ele>33.6</ele>
      </trkpt>
      <trkpt lat="35.134277" lon="126.623397">
        <ele>26.1</ele>
      </trkpt>
      <trkpt lat="35.134749" lon="126.62374">
        <ele>25.5</ele>
      </trkpt>
      <trkpt lat="35.13535" lon="126.624341">
        <ele>23.9</ele>
      </trkpt>
      <trkpt lat="35.135736" lon="126.625457">
        <ele>31.6</ele>
      </trkpt>
      <trkpt lat="35.136337" lon="126.626101">
        <ele>34.6</ele>
      </trkpt>
      <trkpt lat="35.137281" lon="126.626959">
        <ele>32.9</ele>
      </trkpt>
      <trkpt lat="35.138097" lon="126.628118">
        <ele>32.2</ele>
      </trkpt>
      <trkpt lat="35.138526" lon="126.628804">
        <ele>28.1</ele>
      </trkpt>
      <trkpt lat="35.140586" lon="126.632624">
        <ele>30.5</ele>
      </trkpt>
      <trkpt lat="35.141788" lon="126.637387">
        <ele>31.8</ele>
      </trkpt>
      <trkpt lat="35.14286" lon="126.640778">
        <ele>28.8</ele>
      </trkpt>
      <trkpt lat="35.143976" lon="126.643138">
        <ele>36.5</ele>
      </trkpt>
      <trkpt lat="35.144362" lon="126.643567">
        <ele>39.1</ele>
      </trkpt>
      <trkpt lat="35.144835" lon="126.643867">
        <ele>38.8</ele>
      </trkpt>
      <trkpt lat="35.145864" lon="126.644082">
        <ele>33.7</ele>
      </trkpt>
      <trkpt lat="35.146379" lon="126.644812">
        <ele>37.2</ele>
      </trkpt>
      <trkpt lat="35.14595" lon="126.647215">
        <ele>40.3</ele>
      </trkpt>
      <trkpt lat="35.146122" lon="126.648331">
        <ele>34.6</ele>
      </trkpt>
      <trkpt lat="35.146766" lon="126.649318">
        <ele>36.6</ele>
      </trkpt>
      <trkpt lat="35.147409" lon="126.65082">
        <ele>41.0</ele>
      </trkpt>
      <trkpt lat="35.148182" lon="126.65185">
        <ele>40.5</ele>
      </trkpt>
      <trkpt lat="35.148611" lon="126.65288">
        <ele>40.1</ele>
      </trkpt>
      <trkpt lat="35.149212" lon="126.654639">
        <ele>41.5</ele>
      </trkpt>
      <trkpt lat="35.149727" lon="126.656785">
        <ele>43.9</ele>
      </trkpt>
      <trkpt lat="35.14964" lon="126.65799">
        <ele>42.5</ele>
      </trkpt>
      <trkpt lat="35.15004" lon="126.65923">
        <ele>36.3</ele>
      </trkpt>
      <trkpt lat="35.15002" lon="126.66029">
        <ele>39.6</ele>
      </trkpt>
      <trkpt lat="35.15001" lon="126.66113">
        <ele>41.7</ele>
      </trkpt>
      <trkpt lat="35.15026" lon="126.66246">
        <ele>43.5</ele>
      </trkpt>
      <trkpt lat="35.15039" lon="126.66312">
        <ele>43.4</ele>
      </trkpt>
      <trkpt lat="35.15045" lon="126.66372">
        <ele>43.1</ele>
      </trkpt>
      <trkpt lat="35.15005" lon="126.66503">
        <ele>47.4</ele>
      </trkpt>
      <trkpt lat="35.1499" lon="126.66605">
        <ele>53.2</ele>
      </trkpt>
      <trkpt lat="35.14994" lon="126.66707">
        <ele>58.1</ele>
      </trkpt>
      <trkpt lat="35.15012" lon="126.66786">
        <ele>62.5</ele>
      </trkpt>
      <trkpt lat="35.15055" lon="126.66861">
        <ele>70.3</ele>
      </trkpt>
      <trkpt lat="35.15067" lon="126.66915">
        <ele>66.0</ele>
      </trkpt>
      <trkpt lat="35.1505889" lon="126.671113">
        <ele>62.6</ele>
      </trkpt>
      <trkpt lat="35.150604" lon="126.67183">
        <ele>63.8</ele>
      </trkpt>
      <trkpt lat="35.150539" lon="126.674455">
        <ele>70.3</ele>
      </trkpt>
      <trkpt lat="35.151227" lon="126.674686">
        <ele>73.8</ele>
      </trkpt>
      <trkpt lat="35.152069" lon="126.674772">
        <ele>74.0</ele>
      </trkpt>
      <trkpt lat="35.152868" lon="126.67467">
        <ele>67.6</ele>
      </trkpt>
      <trkpt lat="35.153618" lon="126.674466">
        <ele>59.6</ele>
      </trkpt>
      <trkpt lat="35.154183" lon="126.674166">
        <ele>51.8</ele>
      </trkpt>
      <trkpt lat="35.15492" lon="126.673688">
        <ele>45.3</ele>
      </trkpt>
      <trkpt lat="35.156219" lon="126.67275">
        <ele>42.2</ele>
      </trkpt>
      <trkpt lat="35.157179" lon="126.672283">
        <ele>38.0</ele>
      </trkpt>
      <trkpt lat="35.1581819" lon="126.67191">
        <ele>37.6</ele>
      </trkpt>
      <trkpt lat="35.158757" lon="126.671832">
        <ele>39.2</ele>
      </trkpt>
      <trkpt lat="35.159381" lon="126.671929">
        <ele>40.1</ele>
      </trkpt>
      <trkpt lat="35.159942" lon="126.671977">
        <ele>39.8</ele>
      </trkpt>
      <trkpt lat="35.160372" lon="126.672133">
        <ele>38.4</ele>
      </trkpt>
      <trkpt lat="35.161126" lon="126.672546">
        <ele>34.8</ele>
      </trkpt>
      <trkpt lat="35.161788" lon="126.673066">
        <ele>33.5</ele>
      </trkpt>
      <trkpt lat="35.162367" lon="126.673597">
        <ele>36.2</ele>
      </trkpt>
      <trkpt lat="35.163015" lon="126.673994">
        <ele>34.1</ele>
      </trkpt>
      <trkpt lat="35.1638189" lon="126.67445">
        <ele>34.0</ele>
      </trkpt>
      <trkpt lat="35.163214" lon="126.675759">
        <ele>32.2</ele>
      </trkpt>
      <trkpt lat="35.16288" lon="126.67723">
        <ele>32.8</ele>
      </trkpt>
      <trkpt lat="35.1621" lon="126.68251">
        <ele>31.4</ele>
      </trkpt>
      <trkpt lat="35.16175" lon="126.68507">
        <ele>29.6</ele>
      </trkpt>
      <trkpt lat="35.16187" lon="126.68565">
        <ele>28.3</ele>
      </trkpt>
      <trkpt lat="35.16226" lon="126.6865">
        <ele>30.4</ele>
      </trkpt>
      <trkpt lat="35.16269" lon="126.68733">
        <ele>34.4</ele>
      </trkpt>
      <trkpt lat="35.162952" lon="126.688135">
        <ele>33.1</ele>
      </trkpt>
      <trkpt lat="35.163338" lon="126.68968">
        <ele>28.0</ele>
      </trkpt>
      <trkpt lat="35.165005" lon="126.689723">
        <ele>25.3</ele>
      </trkpt>
      <trkpt lat="35.166584" lon="126.690645">
        <ele>26.0</ele>
      </trkpt>
      <trkpt lat="35.16768" lon="126.69068">
        <ele>30.8</ele>
      </trkpt>
      <trkpt lat="35.16877" lon="126.69361">
        <ele>30.6</ele>
      </trkpt>
      <trkpt lat="35.1698" lon="126.6955">
        <ele>27.6</ele>
      </trkpt>
      <trkpt lat="35.17015" lon="126.70015">
        <ele>24.9</ele>
      </trkpt>
      <trkpt lat="35.17051" lon="126.70064">
        <ele>25.3</ele>
      </trkpt>
      <trkpt lat="35.17069" lon="126.70119">
        <ele>25.9</ele>
      </trkpt>
      <trkpt lat="35.17118" lon="126.70284">
        <ele>27.5</ele>
      </trkpt>
      <trkpt lat="35.17427" lon="126.70899">
        <ele>25.5</ele>
      </trkpt>
      <trkpt lat="35.17645" lon="126.71199">
        <ele>34.4</ele>
      </trkpt>
      <trkpt lat="35.17734" lon="126.71335">
        <ele>43.8</ele>
      </trkpt>
      <trkpt lat="35.17756" lon="126.71397">
        <ele>42.0</ele>
      </trkpt>
      <trkpt lat="35.17781" lon="126.71621">
        <ele>35.1</ele>
      </trkpt>
      <trkpt lat="35.17842" lon="126.71867">
        <ele>33.3</ele>
      </trkpt>
      <trkpt lat="35.17868" lon="126.71982">
        <ele>36.6</ele>
      </trkpt>
      <trkpt lat="35.17897" lon="126.72185">
        <ele>33.8</ele>
      </trkpt>
      <trkpt lat="35.17978" lon="126.72594">
        <ele>28.2</ele>
      </trkpt>
      <trkpt lat="35.1802599" lon="126.72833">
        <ele>28.0</ele>
      </trkpt>
      <trkpt lat="35.18052" lon="126.72954">
        <ele>28.2</ele>
      </trkpt>
      <trkpt lat="35.18157" lon="126.73093">
        <ele>27.8</ele>
      </trkpt>
      <trkpt lat="35.18468" lon="126.73445">
        <ele>32.1</ele>
      </trkpt>
      <trkpt lat="35.18678" lon="126.7367">
        <ele>31.4</ele>
      </trkpt>
      <trkpt lat="35.1872" lon="126.73719">
        <ele>31.9</ele>
      </trkpt>
      <trkpt lat="35.18754" lon="126.73774">
        <ele>31.4</ele>
      </trkpt>
      <trkpt lat="35.18783" lon="126.7386">
        <ele>31.3</ele>
      </trkpt>
      <trkpt lat="35.1880499" lon="126.73926">
        <ele>32.3</ele>
      </trkpt>
      <trkpt lat="35.18828" lon="126.73973">
        <ele>31.8</ele>
      </trkpt>
      <trkpt lat="35.18898" lon="126.74081">
        <ele>30.4</ele>
      </trkpt>
      <trkpt lat="35.18939" lon="126.7415">
        <ele>28.4</ele>
      </trkpt>
      <trkpt lat="35.19007" lon="126.74257">
        <ele>28.0</ele>
      </trkpt>
      <trkpt lat="35.19054" lon="126.74317">
        <ele>27.3</ele>
      </trkpt>
      <trkpt lat="35.19135" lon="126.74454">
        <ele>26.4</ele>
      </trkpt>
      <trkpt lat="35.1921899" lon="126.74623">
        <ele>29.6</ele>
      </trkpt>
      <trkpt lat="35.19297" lon="126.74672">
        <ele>29.5</ele>
      </trkpt>
      <trkpt lat="35.19339" lon="126.7474">
        <ele>29.1</ele>
      </trkpt>
      <trkpt lat="35.19375" lon="126.74793">
        <ele>29.0</ele>
      </trkpt>
      <trkpt lat="35.19417" lon="126.74864">
        <ele>29.4</ele>
      </trkpt>
      <trkpt lat="35.1952" lon="126.75006">
        <ele>28.4</ele>
      </trkpt>
      <trkpt lat="35.19563" lon="126.75064">
        <ele>28.7</ele>
      </trkpt>
      <trkpt lat="35.1961" lon="126.75119">
        <ele>29.3</ele>
      </trkpt>
      <trkpt lat="35.19648" lon="126.75167">
        <ele>30.3</ele>
      </trkpt>
      <trkpt lat="35.1972" lon="126.75223">
        <ele>30.5</ele>
      </trkpt>
      <trkpt lat="35.19882" lon="126.75344">
        <ele>35.1</ele>
      </trkpt>
      <trkpt lat="35.19985" lon="126.75404">
        <ele>29.6</ele>
      </trkpt>
      <trkpt lat="35.20046" lon="126.75413">
        <ele>27.1</ele>
      </trkpt>
      <trkpt lat="35.20221" lon="126.75409">
        <ele>29.0</ele>
      </trkpt>
      <trkpt lat="35.20304" lon="126.75388">
        <ele>32.7</ele>
      </trkpt>
      <trkpt lat="35.20353" lon="126.75364">
        <ele>35.3</ele>
      </trkpt>
      <trkpt lat="35.2046599" lon="126.75331">
        <ele>33.3</ele>
      </trkpt>
      <trkpt lat="35.20553" lon="126.75323">
        <ele>34.5</ele>
      </trkpt>
      <trkpt lat="35.20602" lon="126.75313">
        <ele>34.4</ele>
      </trkpt>
      <trkpt lat="35.20664" lon="126.75287">
        <ele>32.9</ele>
      </trkpt>
      <trkpt lat="35.20746" lon="126.75214">
        <ele>37.9</ele>
      </trkpt>
      <trkpt lat="35.20888" lon="126.75338">
        <ele>26.9</ele>
      </trkpt>
      <trkpt lat="35.20789" lon="126.75488">
        <ele>24.4</ele>
      </trkpt>
      <trkpt lat="35.20676" lon="126.75633">
        <ele>23.8</ele>
      </trkpt>
      <trkpt lat="35.20579" lon="126.75746">
        <ele>26.8</ele>
      </trkpt>
      <trkpt lat="35.20489" lon="126.75823">
        <ele>26.3</ele>
      </trkpt>
      <trkpt lat="35.20335" lon="126.76161">
        <ele>27.0</ele>
      </trkpt>
      <trkpt lat="35.20219" lon="126.76432">
        <ele>27.0</ele>
      </trkpt>
      <trkpt lat="35.20224" lon="126.76492">
        <ele>27.3</ele>
      </trkpt>
      <trkpt lat="35.20288" lon="126.76572">
        <ele>34.0</ele>
      </trkpt>
      <trkpt lat="35.20344" lon="126.7666">
        <ele>32.9</ele>
      </trkpt>
      <trkpt lat="35.2037199" lon="126.76863">
        <ele>29.4</ele>
      </trkpt>
      <trkpt lat="35.2043" lon="126.76993">
        <ele>29.4</ele>
      </trkpt>
      <trkpt lat="35.20422" lon="126.77131">
        <ele>31.1</ele>
      </trkpt>
      <trkpt lat="35.20412" lon="126.77193">
        <ele>33.4</ele>
      </trkpt>
      <trkpt lat="35.20454" lon="126.77259">
        <ele>35.1</ele>
      </trkpt>
      <trkpt lat="35.20516" lon="126.77275">
        <ele>33.0</ele>
      </trkpt>
      <trkpt lat="35.2057" lon="126.77371">
        <ele>35.0</ele>
      </trkpt>
      <trkpt lat="35.20606" lon="126.77441">
        <ele>37.4</ele>
      </trkpt>
      <trkpt lat="35.20651" lon="126.77525">
        <ele>39.1</ele>
      </trkpt>
      <trkpt lat="35.20689" lon="126.77611">
        <ele>42.1</ele>
      </trkpt>
      <trkpt lat="35.20765" lon="126.77803">
        <ele>42.3</ele>
      </trkpt>
      <trkpt lat="35.20824" lon="126.77947">
        <ele>35.6</ele>
      </trkpt>
      <trkpt lat="35.20886" lon="126.78083">
        <ele>39.5</ele>
      </trkpt>
      <trkpt lat="35.2106" lon="126.78371">
        <ele>44.1</ele>
      </trkpt>
      <trkpt lat="35.21083" lon="126.78438">
        <ele>41.5</ele>
      </trkpt>
      <trkpt lat="35.213736" lon="126.79008">
        <ele>42.8</ele>
      </trkpt>
      <trkpt lat="35.213798" lon="126.79037">
        <ele>40.5</ele>
      </trkpt>
      <trkpt lat="35.213799" lon="126.790781">
        <ele>37.0</ele>
      </trkpt>
      <trkpt lat="35.21374" lon="126.79168">
        <ele>34.0</ele>
      </trkpt>
      <trkpt lat="35.21344" lon="126.79451">
        <ele>37.2</ele>
      </trkpt>
      <trkpt lat="35.21333" lon="126.79543">
        <ele>38.5</ele>
      </trkpt>
      <trkpt lat="35.2138769" lon="126.796753">
        <ele>38.9</ele>
      </trkpt>
      <trkpt lat="35.214701" lon="126.796882">
        <ele>37.6</ele>
      </trkpt>
      <trkpt lat="35.215595" lon="126.797762">
        <ele>38.2</ele>
      </trkpt>
      <trkpt lat="35.217365" lon="126.798685">
        <ele>37.9</ele>
      </trkpt>
      <trkpt lat="35.217505" lon="126.799436">
        <ele>35.4</ele>
      </trkpt>
      <trkpt lat="35.216594" lon="126.802762">
        <ele>32.1</ele>
      </trkpt>
      <trkpt lat="35.216909" lon="126.807525">
        <ele>25.8</ele>
      </trkpt>
      <trkpt lat="35.21882" lon="126.814091">
        <ele>26.1</ele>
      </trkpt>
      <trkpt lat="35.21861" lon="126.81628">
        <ele>30.1</ele>
      </trkpt>
      <trkpt lat="35.218698" lon="126.81731">
        <ele>34.4</ele>
      </trkpt>
      <trkpt lat="35.219381" lon="126.818469">
        <ele>41.4</ele>
      </trkpt>
      <trkpt lat="35.220486" lon="126.824863">
        <ele>39.7</ele>
      </trkpt>
      <trkpt lat="35.21945" lon="126.826135">
        <ele>41.4</ele>
      </trkpt>
      <trkpt lat="35.219745" lon="126.826779">
        <ele>39.8</ele>
      </trkpt>
      <trkpt lat="35.218374" lon="126.826989">
        <ele>40.1</ele>
      </trkpt>
      <trkpt lat="35.216928" lon="126.827291">
        <ele>45.0</ele>
      </trkpt>
      <trkpt lat="35.2155569" lon="126.827672">
        <ele>41.8</ele>
      </trkpt>
      <trkpt lat="35.214733" lon="126.827974">
        <ele>41.6</ele>
      </trkpt>
      <trkpt lat="35.213583" lon="126.828479">
        <ele>38.9</ele>
      </trkpt>
      <trkpt lat="35.2126329" lon="126.828983">
        <ele>42.6</ele>
      </trkpt>
      <trkpt lat="35.211419" lon="126.829786">
        <ele>44.9</ele>
      </trkpt>
      <trkpt lat="35.210045" lon="126.830872">
        <ele>43.9</ele>
      </trkpt>
      <trkpt lat="35.209066" lon="126.831781">
        <ele>38.8</ele>
      </trkpt>
      <trkpt lat="35.208024" lon="126.832823">
        <ele>38.3</ele>
      </trkpt>
      <trkpt lat="35.206972" lon="126.833943">
        <ele>37.8</ele>
      </trkpt>
      <trkpt lat="35.202283" lon="126.839675">
        <ele>36.1</ele>
      </trkpt>
      <trkpt lat="35.203756" lon="126.841582">
        <ele>41.0</ele>
      </trkpt>
      <trkpt lat="35.205481" lon="126.843921">
        <ele>37.0</ele>
      </trkpt>
      <trkpt lat="35.2061009" lon="126.844886">
        <ele>32.0</ele>
      </trkpt>
      <trkpt lat="35.206398" lon="126.845562">
        <ele>27.3</ele>
      </trkpt>
      <trkpt lat="35.206568" lon="126.846238">
        <ele>23.8</ele>
      </trkpt>
      <trkpt lat="35.206622" lon="126.84697">
        <ele>22.1</ele>
      </trkpt>
      <trkpt lat="35.206604" lon="126.848788">
        <ele>24.1</ele>
      </trkpt>
      <trkpt lat="35.206559" lon="126.851349">
        <ele>24.1</ele>
      </trkpt>
      <trkpt lat="35.206137" lon="126.857414">
        <ele>24.1</ele>
      </trkpt>
      <trkpt lat="35.206119" lon="126.861369">
        <ele>20.4</ele>
      </trkpt>
      <trkpt lat="35.206119" lon="126.861471">
        <ele>20.6</ele>
      </trkpt>
    </trkseg>
  </trk>
</gpx>
