<?xml version="1.0" encoding="UTF-8"?>
<gpx xmlns:xsi="http://www.w3.org/2001/XMLSchema-instance" xmlns="http://www.topografix.com/GPX/1/1" xmlns:gpxdata="http://www.cluetrust.com/XML/GPXDATA/1/0" xsi:schemaLocation="http://www.topografix.com/GPX/1/1 http://www.topografix.com/GPX/1/1/gpx.xsd http://www.cluetrust.com/XML/GPXDATA/1/0 http://www.cluetrust.com/Schemas/gpxdata10.xsd" version="1.1" creator="http://ridewithgps.com/">
  <metadata>
    <name>G-100K brevet populaire</name>
    <link href="https://ridewithgps.com/routes/42168553">
      <text>G-100K brevet populaire</text>
    </link>
    <time>2023-03-07T03:01:59Z</time>
  </metadata>
  <wpt lon="126.8229606" lat="35.1101472">
    <name>Control</name>
    <cmt>CP1</cmt>
    <desc>CP1</desc>
    <sym>Dot</sym>
    <type>Dot</type>
  </wpt>
  <wpt lon="126.9093512" lat="35.0177873">
    <name>Control</name>
    <cmt>CP2</cmt>
    <desc>CP2</desc>
    <sym>Dot</sym>
    <type>Dot</type>
  </wpt>
  <wpt lon="126.8591113" lat="34.9146161">
    <name>Control</name>
    <cmt>CP3</cmt>
    <desc>CP3</desc>
    <sym>Dot</sym>
    <type>Dot</type>
  </wpt>
  <wpt lon="126.84205" lat="35.0384175">
    <name>Control</name>
    <cmt>Cp4</cmt>
    <desc>Cp4</desc>
    <sym>Dot</sym>
    <type>Dot</type>
  </wpt>
  <wpt lon="126.7632135" lat="35.0562607">
    <name>Control</name>
    <cmt>CP5</cmt>
    <desc>CP5</desc>
    <sym>Dot</sym>
    <type>Dot</type>
  </wpt>
  <wpt lon="126.823076605797" lat="35.1101187451953">
    <name>CP01.SEOCHANG</name>
    <sym>Dot</sym>
    <type>Dot</type>
  </wpt>
  <wpt lon="126.90945982933" lat="35.0177948383208">
    <name>CP02.DOGOK</name>
    <sym>Dot</sym>
    <type>Dot</type>
  </wpt>
  <wpt lon="126.859093308449" lat="34.91461648113">
    <name>CP03.DADO</name>
    <sym>Dot</sym>
    <type>Dot</type>
  </wpt>
  <wpt lon="126.842131018639" lat="35.0384078848825">
    <name>CP04.NAMPYEONG</name>
    <sym>Dot</sym>
    <type>Dot</type>
  </wpt>
  <wpt lon="126.76311314106" lat="35.0561987919215">
    <name>CP05.NAJU</name>
    <sym>Dot</sym>
    <type>Dot</type>
  </wpt>
  <trk>
    <name>G-100K brevet populaire</name>
    <trkseg>
      <trkpt lat="35.2061629" lon="126.861438">
        <ele>12.0</ele>
      </trkpt>
      <trkpt lat="35.206128" lon="126.864291">
        <ele>16.0</ele>
      </trkpt>
      <trkpt lat="35.205011" lon="126.864351">
        <ele>19.75</ele>
      </trkpt>
      <trkpt lat="35.204105" lon="126.864324">
        <ele>20.0</ele>
      </trkpt>
      <trkpt lat="35.195993" lon="126.862722">
        <ele>20.0</ele>
      </trkpt>
      <trkpt lat="35.195169" lon="126.862291">
        <ele>18.75</ele>
      </trkpt>
      <trkpt lat="35.194505" lon="126.861666">
        <ele>18.5</ele>
      </trkpt>
      <trkpt lat="35.193987" lon="126.861938">
        <ele>18.25</ele>
      </trkpt>
      <trkpt lat="35.193768" lon="126.862034">
        <ele>18.25</ele>
      </trkpt>
      <trkpt lat="35.1929609" lon="126.862146">
        <ele>19.75</ele>
      </trkpt>
      <trkpt lat="35.192514" lon="126.862169">
        <ele>20.75</ele>
      </trkpt>
      <trkpt lat="35.192407" lon="126.861867">
        <ele>19.5</ele>
      </trkpt>
      <trkpt lat="35.191558" lon="126.862052">
        <ele>19.75</ele>
      </trkpt>
      <trkpt lat="35.189424" lon="126.86206">
        <ele>22.75</ele>
      </trkpt>
      <trkpt lat="35.188421" lon="126.860964">
        <ele>19.25</ele>
      </trkpt>
      <trkpt lat="35.188029" lon="126.860903">
        <ele>19.0</ele>
      </trkpt>
      <trkpt lat="35.187075" lon="126.861087">
        <ele>21.0</ele>
      </trkpt>
      <trkpt lat="35.186751" lon="126.861025">
        <ele>22.0</ele>
      </trkpt>
      <trkpt lat="35.185485" lon="126.860216">
        <ele>19.0</ele>
      </trkpt>
      <trkpt lat="35.184026" lon="126.859528">
        <ele>22.25</ele>
      </trkpt>
      <trkpt lat="35.182797" lon="126.85851">
        <ele>20.25</ele>
      </trkpt>
      <trkpt lat="35.182543" lon="126.858129">
        <ele>19.75</ele>
      </trkpt>
      <trkpt lat="35.181591" lon="126.857518">
        <ele>20.25</ele>
      </trkpt>
      <trkpt lat="35.181068" lon="126.856783">
        <ele>19.25</ele>
      </trkpt>
      <trkpt lat="35.180898" lon="126.85636">
        <ele>19.0</ele>
      </trkpt>
      <trkpt lat="35.180463" lon="126.856626">
        <ele>19.75</ele>
      </trkpt>
      <trkpt lat="35.178454" lon="126.849851">
        <ele>16.5</ele>
      </trkpt>
      <trkpt lat="35.178172" lon="126.847309">
        <ele>17.5</ele>
      </trkpt>
      <trkpt lat="35.178205" lon="126.845">
        <ele>16.75</ele>
      </trkpt>
      <trkpt lat="35.178142" lon="126.84471">
        <ele>16.75</ele>
      </trkpt>
      <trkpt lat="35.1780169" lon="126.844396">
        <ele>16.75</ele>
      </trkpt>
      <trkpt lat="35.177545" lon="126.843634">
        <ele>17.75</ele>
      </trkpt>
      <trkpt lat="35.177526" lon="126.842653">
        <ele>18.75</ele>
      </trkpt>
      <trkpt lat="35.177425" lon="126.842607">
        <ele>19.0</ele>
      </trkpt>
      <trkpt lat="35.177359" lon="126.84265">
        <ele>19.0</ele>
      </trkpt>
      <trkpt lat="35.1772319" lon="126.843254">
        <ele>18.25</ele>
      </trkpt>
      <trkpt lat="35.177142" lon="126.843324">
        <ele>18.25</ele>
      </trkpt>
      <trkpt lat="35.177058" lon="126.843314">
        <ele>18.5</ele>
      </trkpt>
      <trkpt lat="35.17681" lon="126.843135">
        <ele>19.25</ele>
      </trkpt>
      <trkpt lat="35.176422" lon="126.842343">
        <ele>20.25</ele>
      </trkpt>
      <trkpt lat="35.176196" lon="126.842163">
        <ele>19.5</ele>
      </trkpt>
      <trkpt lat="35.176077" lon="126.842059">
        <ele>19.0</ele>
      </trkpt>
      <trkpt lat="35.175622" lon="126.841938">
        <ele>18.25</ele>
      </trkpt>
      <trkpt lat="35.175118" lon="126.842102">
        <ele>18.0</ele>
      </trkpt>
      <trkpt lat="35.174545" lon="126.841723">
        <ele>17.75</ele>
      </trkpt>
      <trkpt lat="35.172865" lon="126.840516">
        <ele>18.0</ele>
      </trkpt>
      <trkpt lat="35.172081" lon="126.839881">
        <ele>17.75</ele>
      </trkpt>
      <trkpt lat="35.169625" lon="126.837366">
        <ele>18.25</ele>
      </trkpt>
      <trkpt lat="35.169448" lon="126.837169">
        <ele>18.75</ele>
      </trkpt>
      <trkpt lat="35.169221" lon="126.836918">
        <ele>19.5</ele>
      </trkpt>
      <trkpt lat="35.168839" lon="126.836519">
        <ele>21.5</ele>
      </trkpt>
      <trkpt lat="35.168693" lon="126.835321">
        <ele>21.0</ele>
      </trkpt>
      <trkpt lat="35.168715" lon="126.835234">
        <ele>20.5</ele>
      </trkpt>
      <trkpt lat="35.168897" lon="126.834904">
        <ele>19.5</ele>
      </trkpt>
      <trkpt lat="35.169552" lon="126.834169">
        <ele>25.0</ele>
      </trkpt>
      <trkpt lat="35.169553" lon="126.834036">
        <ele>24.0</ele>
      </trkpt>
      <trkpt lat="35.169377" lon="126.833378">
        <ele>21.75</ele>
      </trkpt>
      <trkpt lat="35.169292" lon="126.833097">
        <ele>21.25</ele>
      </trkpt>
      <trkpt lat="35.1685159" lon="126.83159">
        <ele>15.5</ele>
      </trkpt>
      <trkpt lat="35.168103" lon="126.830921">
        <ele>15.0</ele>
      </trkpt>
      <trkpt lat="35.16769" lon="126.8303">
        <ele>13.75</ele>
      </trkpt>
      <trkpt lat="35.166691" lon="126.829216">
        <ele>16.75</ele>
      </trkpt>
      <trkpt lat="35.165967" lon="126.828601">
        <ele>16.5</ele>
      </trkpt>
      <trkpt lat="35.165371" lon="126.828135">
        <ele>16.5</ele>
      </trkpt>
      <trkpt lat="35.164464" lon="126.827575">
        <ele>17.0</ele>
      </trkpt>
      <trkpt lat="35.16222" lon="126.82656">
        <ele>14.75</ele>
      </trkpt>
      <trkpt lat="35.161079" lon="126.826257">
        <ele>14.5</ele>
      </trkpt>
      <trkpt lat="35.15864" lon="126.8263">
        <ele>14.5</ele>
      </trkpt>
      <trkpt lat="35.155496" lon="126.827201">
        <ele>15.25</ele>
      </trkpt>
      <trkpt lat="35.151128" lon="126.828997">
        <ele>14.75</ele>
      </trkpt>
      <trkpt lat="35.15062" lon="126.829902">
        <ele>16.25</ele>
      </trkpt>
      <trkpt lat="35.15063" lon="126.830823">
        <ele>15.75</ele>
      </trkpt>
      <trkpt lat="35.151055" lon="126.831585">
        <ele>14.5</ele>
      </trkpt>
      <trkpt lat="35.151767" lon="126.832254">
        <ele>15.5</ele>
      </trkpt>
      <trkpt lat="35.152396" lon="126.832831">
        <ele>16.75</ele>
      </trkpt>
      <trkpt lat="35.1516639" lon="126.834056">
        <ele>17.5</ele>
      </trkpt>
      <trkpt lat="35.149839" lon="126.832354">
        <ele>19.0</ele>
      </trkpt>
      <trkpt lat="35.149486" lon="126.831697">
        <ele>11.0</ele>
      </trkpt>
      <trkpt lat="35.148214" lon="126.830764">
        <ele>16.0</ele>
      </trkpt>
      <trkpt lat="35.147521" lon="126.830603">
        <ele>13.0</ele>
      </trkpt>
      <trkpt lat="35.144371" lon="126.830775">
        <ele>13.0</ele>
      </trkpt>
      <trkpt lat="35.143652" lon="126.831053">
        <ele>15.0</ele>
      </trkpt>
      <trkpt lat="35.142301" lon="126.830657">
        <ele>14.0</ele>
      </trkpt>
      <trkpt lat="35.141713" lon="126.830442">
        <ele>21.0</ele>
      </trkpt>
      <trkpt lat="35.141081" lon="126.82997">
        <ele>16.0</ele>
      </trkpt>
      <trkpt lat="35.140309" lon="126.829391">
        <ele>11.0</ele>
      </trkpt>
      <trkpt lat="35.13914" lon="126.828929">
        <ele>13.0</ele>
      </trkpt>
      <trkpt lat="35.1390529" lon="126.829077">
        <ele>12.0</ele>
      </trkpt>
      <trkpt lat="35.138629" lon="126.829036">
        <ele>15.0</ele>
      </trkpt>
      <trkpt lat="35.13789" lon="126.82848">
        <ele>15.25</ele>
      </trkpt>
      <trkpt lat="35.136653" lon="126.827249">
        <ele>14.75</ele>
      </trkpt>
      <trkpt lat="35.1361909" lon="126.826788">
        <ele>14.75</ele>
      </trkpt>
      <trkpt lat="35.13351" lon="126.82364">
        <ele>13.0</ele>
      </trkpt>
      <trkpt lat="35.132321" lon="126.822774">
        <ele>13.25</ele>
      </trkpt>
      <trkpt lat="35.13211" lon="126.82262">
        <ele>13.5</ele>
      </trkpt>
      <trkpt lat="35.131138" lon="126.822346">
        <ele>14.5</ele>
      </trkpt>
      <trkpt lat="35.130728" lon="126.822295">
        <ele>14.25</ele>
      </trkpt>
      <trkpt lat="35.130294" lon="126.822295">
        <ele>13.25</ele>
      </trkpt>
      <trkpt lat="35.12894" lon="126.822645">
        <ele>13.5</ele>
      </trkpt>
      <trkpt lat="35.12015" lon="126.826498">
        <ele>13.75</ele>
      </trkpt>
      <trkpt lat="35.118864" lon="126.826727">
        <ele>14.0</ele>
      </trkpt>
      <trkpt lat="35.11844" lon="126.82674">
        <ele>14.0</ele>
      </trkpt>
      <trkpt lat="35.11765" lon="126.826673">
        <ele>14.0</ele>
      </trkpt>
      <trkpt lat="35.11703" lon="126.826568">
        <ele>14.0</ele>
      </trkpt>
      <trkpt lat="35.115992" lon="126.826258">
        <ele>13.75</ele>
      </trkpt>
      <trkpt lat="35.114999" lon="126.825758">
        <ele>14.75</ele>
      </trkpt>
      <trkpt lat="35.114082" lon="126.82516">
        <ele>15.5</ele>
      </trkpt>
      <trkpt lat="35.1123" lon="126.82391">
        <ele>15.25</ele>
      </trkpt>
      <trkpt lat="35.1111099" lon="126.82281">
        <ele>15.0</ele>
      </trkpt>
      <trkpt lat="35.110537" lon="126.822109">
        <ele>14.5</ele>
      </trkpt>
      <trkpt lat="35.110143" lon="126.821813">
        <ele>14.0</ele>
      </trkpt>
      <trkpt lat="35.109725" lon="126.821797">
        <ele>18.0</ele>
      </trkpt>
      <trkpt lat="35.10955" lon="126.821788">
        <ele>19.75</ele>
      </trkpt>
      <trkpt lat="35.110147" lon="126.822961">
        <ele>21.4</ele>
      </trkpt>
      <trkpt lat="35.11059" lon="126.82383">
        <ele>23.5</ele>
      </trkpt>
      <trkpt lat="35.11136" lon="126.826654">
        <ele>27.5</ele>
      </trkpt>
      <trkpt lat="35.1112899" lon="126.82722">
        <ele>29.25</ele>
      </trkpt>
      <trkpt lat="35.110731" lon="126.82854">
        <ele>30.0</ele>
      </trkpt>
      <trkpt lat="35.11066" lon="126.829346">
        <ele>25.25</ele>
      </trkpt>
      <trkpt lat="35.111348" lon="126.831344">
        <ele>32.0</ele>
      </trkpt>
      <trkpt lat="35.111525" lon="126.832504">
        <ele>34.75</ele>
      </trkpt>
      <trkpt lat="35.111092" lon="126.834171">
        <ele>34.75</ele>
      </trkpt>
      <trkpt lat="35.111002" lon="126.834343">
        <ele>34.5</ele>
      </trkpt>
      <trkpt lat="35.1107749" lon="126.834765">
        <ele>33.5</ele>
      </trkpt>
      <trkpt lat="35.110585" lon="126.835566">
        <ele>33.25</ele>
      </trkpt>
      <trkpt lat="35.11056" lon="126.835837">
        <ele>33.5</ele>
      </trkpt>
      <trkpt lat="35.1106399" lon="126.836373">
        <ele>34.0</ele>
      </trkpt>
      <trkpt lat="35.110858" lon="126.837378">
        <ele>34.5</ele>
      </trkpt>
      <trkpt lat="35.111203" lon="126.838113">
        <ele>40.5</ele>
      </trkpt>
      <trkpt lat="35.111242" lon="126.838558">
        <ele>40.0</ele>
      </trkpt>
      <trkpt lat="35.111286" lon="126.839175">
        <ele>38.5</ele>
      </trkpt>
      <trkpt lat="35.111457" lon="126.839722">
        <ele>39.5</ele>
      </trkpt>
      <trkpt lat="35.111569" lon="126.84018">
        <ele>39.25</ele>
      </trkpt>
      <trkpt lat="35.113235" lon="126.843183">
        <ele>39.75</ele>
      </trkpt>
      <trkpt lat="35.113303" lon="126.843398">
        <ele>39.0</ele>
      </trkpt>
      <trkpt lat="35.113354" lon="126.843608">
        <ele>40.0</ele>
      </trkpt>
      <trkpt lat="35.11337" lon="126.843915">
        <ele>41.25</ele>
      </trkpt>
      <trkpt lat="35.113364" lon="126.844008">
        <ele>41.5</ele>
      </trkpt>
      <trkpt lat="35.112881" lon="126.844347">
        <ele>43.5</ele>
      </trkpt>
      <trkpt lat="35.112282" lon="126.844776">
        <ele>48.25</ele>
      </trkpt>
      <trkpt lat="35.112443" lon="126.845372">
        <ele>45.5</ele>
      </trkpt>
      <trkpt lat="35.112451" lon="126.845692">
        <ele>44.0</ele>
      </trkpt>
      <trkpt lat="35.112567" lon="126.847256">
        <ele>38.25</ele>
      </trkpt>
      <trkpt lat="35.1120019" lon="126.847605">
        <ele>38.25</ele>
      </trkpt>
      <trkpt lat="35.111708" lon="126.847674">
        <ele>38.25</ele>
      </trkpt>
      <trkpt lat="35.111322" lon="126.847723">
        <ele>37.25</ele>
      </trkpt>
      <trkpt lat="35.105319" lon="126.847755">
        <ele>70.0</ele>
      </trkpt>
      <trkpt lat="35.102216" lon="126.848372">
        <ele>42.75</ele>
      </trkpt>
      <trkpt lat="35.09985" lon="126.848051">
        <ele>41.5</ele>
      </trkpt>
      <trkpt lat="35.099693" lon="126.848053">
        <ele>41.25</ele>
      </trkpt>
      <trkpt lat="35.099328" lon="126.848086">
        <ele>41.0</ele>
      </trkpt>
      <trkpt lat="35.0986" lon="126.848467">
        <ele>40.0</ele>
      </trkpt>
      <trkpt lat="35.097555" lon="126.849353">
        <ele>38.5</ele>
      </trkpt>
      <trkpt lat="35.096884" lon="126.849846">
        <ele>36.0</ele>
      </trkpt>
      <trkpt lat="35.095244" lon="126.850673">
        <ele>31.25</ele>
      </trkpt>
      <trkpt lat="35.092479" lon="126.852699">
        <ele>27.75</ele>
      </trkpt>
      <trkpt lat="35.091854" lon="126.852964">
        <ele>30.75</ele>
      </trkpt>
      <trkpt lat="35.090991" lon="126.852908">
        <ele>31.25</ele>
      </trkpt>
      <trkpt lat="35.090804" lon="126.852998">
        <ele>31.75</ele>
      </trkpt>
      <trkpt lat="35.090531" lon="126.853712">
        <ele>35.75</ele>
      </trkpt>
      <trkpt lat="35.087724" lon="126.859147">
        <ele>33.75</ele>
      </trkpt>
      <trkpt lat="35.086668" lon="126.862552">
        <ele>37.25</ele>
      </trkpt>
      <trkpt lat="35.085031" lon="126.865908">
        <ele>38.0</ele>
      </trkpt>
      <trkpt lat="35.08493" lon="126.86648">
        <ele>30.0</ele>
      </trkpt>
      <trkpt lat="35.085176" lon="126.867478">
        <ele>29.0</ele>
      </trkpt>
      <trkpt lat="35.085106" lon="126.867822">
        <ele>39.0</ele>
      </trkpt>
      <trkpt lat="35.084939" lon="126.868316">
        <ele>39.0</ele>
      </trkpt>
      <trkpt lat="35.084815" lon="126.868463">
        <ele>39.25</ele>
      </trkpt>
      <trkpt lat="35.084318" lon="126.86917">
        <ele>41.25</ele>
      </trkpt>
      <trkpt lat="35.085859" lon="126.872666">
        <ele>48.75</ele>
      </trkpt>
      <trkpt lat="35.086052" lon="126.873331">
        <ele>51.25</ele>
      </trkpt>
      <trkpt lat="35.085973" lon="126.873409">
        <ele>52.25</ele>
      </trkpt>
      <trkpt lat="35.085814" lon="126.873423">
        <ele>53.25</ele>
      </trkpt>
      <trkpt lat="35.085501" lon="126.873289">
        <ele>51.75</ele>
      </trkpt>
      <trkpt lat="35.085411" lon="126.873427">
        <ele>52.5</ele>
      </trkpt>
      <trkpt lat="35.085271" lon="126.873477">
        <ele>52.5</ele>
      </trkpt>
      <trkpt lat="35.080582" lon="126.872584">
        <ele>62.25</ele>
      </trkpt>
      <trkpt lat="35.079484" lon="126.872572">
        <ele>66.25</ele>
      </trkpt>
      <trkpt lat="35.077351" lon="126.872665">
        <ele>73.5</ele>
      </trkpt>
      <trkpt lat="35.076274" lon="126.872527">
        <ele>77.25</ele>
      </trkpt>
      <trkpt lat="35.076051" lon="126.872441">
        <ele>77.75</ele>
      </trkpt>
      <trkpt lat="35.075861" lon="126.872466">
        <ele>80.0</ele>
      </trkpt>
      <trkpt lat="35.075232" lon="126.873055">
        <ele>93.0</ele>
      </trkpt>
      <trkpt lat="35.075076" lon="126.873043">
        <ele>93.0</ele>
      </trkpt>
      <trkpt lat="35.0748729" lon="126.872933">
        <ele>92.25</ele>
      </trkpt>
      <trkpt lat="35.073984" lon="126.873003">
        <ele>90.25</ele>
      </trkpt>
      <trkpt lat="35.073881" lon="126.872921">
        <ele>89.75</ele>
      </trkpt>
      <trkpt lat="35.073725" lon="126.87275">
        <ele>87.75</ele>
      </trkpt>
      <trkpt lat="35.073442" lon="126.872555">
        <ele>83.75</ele>
      </trkpt>
      <trkpt lat="35.072045" lon="126.871604">
        <ele>73.75</ele>
      </trkpt>
      <trkpt lat="35.070664" lon="126.871669">
        <ele>66.25</ele>
      </trkpt>
      <trkpt lat="35.070384" lon="126.87158">
        <ele>66.25</ele>
      </trkpt>
      <trkpt lat="35.069835" lon="126.871267">
        <ele>65.5</ele>
      </trkpt>
      <trkpt lat="35.069087" lon="126.871177">
        <ele>60.0</ele>
      </trkpt>
      <trkpt lat="35.068232" lon="126.870388">
        <ele>57.5</ele>
      </trkpt>
      <trkpt lat="35.068108" lon="126.870429">
        <ele>57.75</ele>
      </trkpt>
      <trkpt lat="35.0676289" lon="126.870706">
        <ele>60.25</ele>
      </trkpt>
      <trkpt lat="35.067506" lon="126.870738">
        <ele>61.0</ele>
      </trkpt>
      <trkpt lat="35.067353" lon="126.870734">
        <ele>62.75</ele>
      </trkpt>
      <trkpt lat="35.067014" lon="126.870482">
        <ele>63.0</ele>
      </trkpt>
      <trkpt lat="35.066541" lon="126.870067">
        <ele>57.5</ele>
      </trkpt>
      <trkpt lat="35.066312" lon="126.869994">
        <ele>56.75</ele>
      </trkpt>
      <trkpt lat="35.066032" lon="126.87001">
        <ele>57.75</ele>
      </trkpt>
      <trkpt lat="35.064714" lon="126.870039">
        <ele>56.75</ele>
      </trkpt>
      <trkpt lat="35.0632499" lon="126.870445">
        <ele>53.5</ele>
      </trkpt>
      <trkpt lat="35.06191" lon="126.870056">
        <ele>47.25</ele>
      </trkpt>
      <trkpt lat="35.0607929" lon="126.870024">
        <ele>41.0</ele>
      </trkpt>
      <trkpt lat="35.060377" lon="126.87006">
        <ele>40.5</ele>
      </trkpt>
      <trkpt lat="35.059952" lon="126.870132">
        <ele>40.0</ele>
      </trkpt>
      <trkpt lat="35.060043" lon="126.86946">
        <ele>38.75</ele>
      </trkpt>
      <trkpt lat="35.0600219" lon="126.869334">
        <ele>38.25</ele>
      </trkpt>
      <trkpt lat="35.059658" lon="126.86876">
        <ele>40.75</ele>
      </trkpt>
      <trkpt lat="35.059447" lon="126.868459">
        <ele>46.0</ele>
      </trkpt>
      <trkpt lat="35.05824" lon="126.869227">
        <ele>38.5</ele>
      </trkpt>
      <trkpt lat="35.057403" lon="126.869119">
        <ele>39.0</ele>
      </trkpt>
      <trkpt lat="35.0567769" lon="126.869439">
        <ele>40.0</ele>
      </trkpt>
      <trkpt lat="35.054806" lon="126.869339">
        <ele>35.0</ele>
      </trkpt>
      <trkpt lat="35.056387" lon="126.87196">
        <ele>37.25</ele>
      </trkpt>
      <trkpt lat="35.0565349" lon="126.872402">
        <ele>39.0</ele>
      </trkpt>
      <trkpt lat="35.0569909" lon="126.87764">
        <ele>46.25</ele>
      </trkpt>
      <trkpt lat="35.056976" lon="126.87828">
        <ele>47.25</ele>
      </trkpt>
      <trkpt lat="35.056928" lon="126.878747">
        <ele>47.25</ele>
      </trkpt>
      <trkpt lat="35.056829" lon="126.879211">
        <ele>46.25</ele>
      </trkpt>
      <trkpt lat="35.056569" lon="126.880256">
        <ele>47.0</ele>
      </trkpt>
      <trkpt lat="35.0565799" lon="126.880655">
        <ele>48.25</ele>
      </trkpt>
      <trkpt lat="35.056663" lon="126.880999">
        <ele>47.5</ele>
      </trkpt>
      <trkpt lat="35.056952" lon="126.883196">
        <ele>56.5</ele>
      </trkpt>
      <trkpt lat="35.05782" lon="126.886366">
        <ele>56.75</ele>
      </trkpt>
      <trkpt lat="35.057926" lon="126.887016">
        <ele>59.25</ele>
      </trkpt>
      <trkpt lat="35.058014" lon="126.887502">
        <ele>62.75</ele>
      </trkpt>
      <trkpt lat="35.058025" lon="126.887881">
        <ele>65.75</ele>
      </trkpt>
      <trkpt lat="35.057997" lon="126.888471">
        <ele>69.25</ele>
      </trkpt>
      <trkpt lat="35.057544" lon="126.891366">
        <ele>71.75</ele>
      </trkpt>
      <trkpt lat="35.057491" lon="126.891648">
        <ele>71.75</ele>
      </trkpt>
      <trkpt lat="35.056897" lon="126.892867">
        <ele>77.5</ele>
      </trkpt>
      <trkpt lat="35.05677" lon="126.893293">
        <ele>79.5</ele>
      </trkpt>
      <trkpt lat="35.056723" lon="126.893776">
        <ele>80.75</ele>
      </trkpt>
      <trkpt lat="35.056972" lon="126.89678">
        <ele>98.5</ele>
      </trkpt>
      <trkpt lat="35.05733" lon="126.898512">
        <ele>103.75</ele>
      </trkpt>
      <trkpt lat="35.057085" lon="126.899116">
        <ele>98.5</ele>
      </trkpt>
      <trkpt lat="35.055239" lon="126.901207">
        <ele>87.0</ele>
      </trkpt>
      <trkpt lat="35.04894" lon="126.90555">
        <ele>61.5</ele>
      </trkpt>
      <trkpt lat="35.04834" lon="126.905628">
        <ele>60.25</ele>
      </trkpt>
      <trkpt lat="35.04698" lon="126.90519">
        <ele>62.25</ele>
      </trkpt>
      <trkpt lat="35.045574" lon="126.904969">
        <ele>61.75</ele>
      </trkpt>
      <trkpt lat="35.045487" lon="126.905097">
        <ele>63.75</ele>
      </trkpt>
      <trkpt lat="35.043686" lon="126.903885">
        <ele>57.0</ele>
      </trkpt>
      <trkpt lat="35.043492" lon="126.903797">
        <ele>57.0</ele>
      </trkpt>
      <trkpt lat="35.043247" lon="126.903723">
        <ele>56.5</ele>
      </trkpt>
      <trkpt lat="35.0424689" lon="126.903637">
        <ele>54.25</ele>
      </trkpt>
      <trkpt lat="35.041806" lon="126.903818">
        <ele>53.25</ele>
      </trkpt>
      <trkpt lat="35.0384" lon="126.905539">
        <ele>54.5</ele>
      </trkpt>
      <trkpt lat="35.032716" lon="126.907411">
        <ele>47.5</ele>
      </trkpt>
      <trkpt lat="35.031649" lon="126.908109">
        <ele>49.25</ele>
      </trkpt>
      <trkpt lat="35.030239" lon="126.908546">
        <ele>48.25</ele>
      </trkpt>
      <trkpt lat="35.02916" lon="126.90869">
        <ele>49.25</ele>
      </trkpt>
      <trkpt lat="35.02901" lon="126.908656">
        <ele>49.25</ele>
      </trkpt>
      <trkpt lat="35.02719" lon="126.90802">
        <ele>58.5</ele>
      </trkpt>
      <trkpt lat="35.02631" lon="126.90747">
        <ele>56.25</ele>
      </trkpt>
      <trkpt lat="35.02603" lon="126.90721">
        <ele>55.75</ele>
      </trkpt>
      <trkpt lat="35.02551" lon="126.90669">
        <ele>52.0</ele>
      </trkpt>
      <trkpt lat="35.02441" lon="126.90502">
        <ele>41.25</ele>
      </trkpt>
      <trkpt lat="35.023912" lon="126.904753">
        <ele>41.75</ele>
      </trkpt>
      <trkpt lat="35.02282" lon="126.90531">
        <ele>39.75</ele>
      </trkpt>
      <trkpt lat="35.01922" lon="126.908">
        <ele>46.75</ele>
      </trkpt>
      <trkpt lat="35.01804" lon="126.90925">
        <ele>36.75</ele>
      </trkpt>
      <trkpt lat="35.017787" lon="126.909351">
        <ele>35.8</ele>
      </trkpt>
      <trkpt lat="35.016437" lon="126.909892">
        <ele>33.75</ele>
      </trkpt>
      <trkpt lat="35.015544" lon="126.910022">
        <ele>33.5</ele>
      </trkpt>
      <trkpt lat="35.012296" lon="126.909616">
        <ele>29.25</ele>
      </trkpt>
      <trkpt lat="35.010958" lon="126.909722">
        <ele>28.0</ele>
      </trkpt>
      <trkpt lat="35.007809" lon="126.909506">
        <ele>26.5</ele>
      </trkpt>
      <trkpt lat="35.00812" lon="126.90834">
        <ele>26.75</ele>
      </trkpt>
      <trkpt lat="35.007942" lon="126.907313">
        <ele>26.5</ele>
      </trkpt>
      <trkpt lat="35.005795" lon="126.903579">
        <ele>26.0</ele>
      </trkpt>
      <trkpt lat="35.004979" lon="126.900835">
        <ele>27.75</ele>
      </trkpt>
      <trkpt lat="35.004327" lon="126.901428">
        <ele>27.25</ele>
      </trkpt>
      <trkpt lat="34.999741" lon="126.901767">
        <ele>28.25</ele>
      </trkpt>
      <trkpt lat="34.99438" lon="126.90181">
        <ele>34.0</ele>
      </trkpt>
      <trkpt lat="34.993879" lon="126.901388">
        <ele>35.25</ele>
      </trkpt>
      <trkpt lat="34.992761" lon="126.897757">
        <ele>38.0</ele>
      </trkpt>
      <trkpt lat="34.99139" lon="126.8959">
        <ele>35.5</ele>
      </trkpt>
      <trkpt lat="34.98944" lon="126.89489">
        <ele>34.0</ele>
      </trkpt>
      <trkpt lat="34.987164" lon="126.894147">
        <ele>35.75</ele>
      </trkpt>
      <trkpt lat="34.98643" lon="126.893677">
        <ele>34.0</ele>
      </trkpt>
      <trkpt lat="34.9851699" lon="126.89351">
        <ele>34.75</ele>
      </trkpt>
      <trkpt lat="34.984808" lon="126.893334">
        <ele>34.0</ele>
      </trkpt>
      <trkpt lat="34.983812" lon="126.892702">
        <ele>33.5</ele>
      </trkpt>
      <trkpt lat="34.98331" lon="126.892342">
        <ele>33.75</ele>
      </trkpt>
      <trkpt lat="34.982363" lon="126.891665">
        <ele>37.25</ele>
      </trkpt>
      <trkpt lat="34.98201" lon="126.89109">
        <ele>38.25</ele>
      </trkpt>
      <trkpt lat="34.98121" lon="126.88877">
        <ele>38.0</ele>
      </trkpt>
      <trkpt lat="34.981084" lon="126.888268">
        <ele>39.0</ele>
      </trkpt>
      <trkpt lat="34.981051" lon="126.888083">
        <ele>38.5</ele>
      </trkpt>
      <trkpt lat="34.98087" lon="126.88741">
        <ele>37.25</ele>
      </trkpt>
      <trkpt lat="34.97925" lon="126.88528">
        <ele>40.25</ele>
      </trkpt>
      <trkpt lat="34.97899" lon="126.88509">
        <ele>40.75</ele>
      </trkpt>
      <trkpt lat="34.97854" lon="126.88485">
        <ele>42.5</ele>
      </trkpt>
      <trkpt lat="34.97781" lon="126.88456">
        <ele>46.25</ele>
      </trkpt>
      <trkpt lat="34.9776" lon="126.88453">
        <ele>47.25</ele>
      </trkpt>
      <trkpt lat="34.975475" lon="126.884411">
        <ele>46.75</ele>
      </trkpt>
      <trkpt lat="34.975021" lon="126.884671">
        <ele>42.75</ele>
      </trkpt>
      <trkpt lat="34.9745769" lon="126.885203">
        <ele>43.0</ele>
      </trkpt>
      <trkpt lat="34.974419" lon="126.88537">
        <ele>43.75</ele>
      </trkpt>
      <trkpt lat="34.974255" lon="126.885494">
        <ele>43.75</ele>
      </trkpt>
      <trkpt lat="34.97407" lon="126.88558">
        <ele>43.5</ele>
      </trkpt>
      <trkpt lat="34.971347" lon="126.886217">
        <ele>44.25</ele>
      </trkpt>
      <trkpt lat="34.966992" lon="126.886139">
        <ele>44.25</ele>
      </trkpt>
      <trkpt lat="34.966638" lon="126.886308">
        <ele>43.5</ele>
      </trkpt>
      <trkpt lat="34.965994" lon="126.887484">
        <ele>47.0</ele>
      </trkpt>
      <trkpt lat="34.965443" lon="126.888014">
        <ele>45.5</ele>
      </trkpt>
      <trkpt lat="34.96484" lon="126.88822">
        <ele>42.0</ele>
      </trkpt>
      <trkpt lat="34.96392" lon="126.888295">
        <ele>45.75</ele>
      </trkpt>
      <trkpt lat="34.96157" lon="126.88923">
        <ele>54.0</ele>
      </trkpt>
      <trkpt lat="34.95956" lon="126.88933">
        <ele>45.0</ele>
      </trkpt>
      <trkpt lat="34.95871" lon="126.88969">
        <ele>45.25</ele>
      </trkpt>
      <trkpt lat="34.95835" lon="126.88978">
        <ele>45.75</ele>
      </trkpt>
      <trkpt lat="34.95687" lon="126.88935">
        <ele>49.5</ele>
      </trkpt>
      <trkpt lat="34.95629" lon="126.8893">
        <ele>50.5</ele>
      </trkpt>
      <trkpt lat="34.95532" lon="126.88971">
        <ele>51.75</ele>
      </trkpt>
      <trkpt lat="34.954471" lon="126.89022">
        <ele>51.25</ele>
      </trkpt>
      <trkpt lat="34.954123" lon="126.890409">
        <ele>51.5</ele>
      </trkpt>
      <trkpt lat="34.953685" lon="126.890578">
        <ele>51.25</ele>
      </trkpt>
      <trkpt lat="34.953386" lon="126.890679">
        <ele>50.75</ele>
      </trkpt>
      <trkpt lat="34.952132" lon="126.890936">
        <ele>53.25</ele>
      </trkpt>
      <trkpt lat="34.950589" lon="126.891811">
        <ele>54.75</ele>
      </trkpt>
      <trkpt lat="34.94825" lon="126.891892">
        <ele>57.75</ele>
      </trkpt>
      <trkpt lat="34.9457499" lon="126.89253">
        <ele>59.25</ele>
      </trkpt>
      <trkpt lat="34.943615" lon="126.893996">
        <ele>64.75</ele>
      </trkpt>
      <trkpt lat="34.94264" lon="126.894546">
        <ele>63.5</ele>
      </trkpt>
      <trkpt lat="34.942434" lon="126.894646">
        <ele>63.0</ele>
      </trkpt>
      <trkpt lat="34.941693" lon="126.894927">
        <ele>64.0</ele>
      </trkpt>
      <trkpt lat="34.941288" lon="126.895223">
        <ele>65.0</ele>
      </trkpt>
      <trkpt lat="34.94121" lon="126.89528">
        <ele>65.25</ele>
      </trkpt>
      <trkpt lat="34.940604" lon="126.89589">
        <ele>68.25</ele>
      </trkpt>
      <trkpt lat="34.939937" lon="126.896976">
        <ele>68.5</ele>
      </trkpt>
      <trkpt lat="34.93927" lon="126.89746">
        <ele>67.5</ele>
      </trkpt>
      <trkpt lat="34.939037" lon="126.897532">
        <ele>68.0</ele>
      </trkpt>
      <trkpt lat="34.9382329" lon="126.897694">
        <ele>68.5</ele>
      </trkpt>
      <trkpt lat="34.937486" lon="126.897743">
        <ele>68.0</ele>
      </trkpt>
      <trkpt lat="34.937161" lon="126.897724">
        <ele>67.25</ele>
      </trkpt>
      <trkpt lat="34.9360209" lon="126.898274">
        <ele>65.5</ele>
      </trkpt>
      <trkpt lat="34.935769" lon="126.898371">
        <ele>66.5</ele>
      </trkpt>
      <trkpt lat="34.935397" lon="126.898437">
        <ele>69.0</ele>
      </trkpt>
      <trkpt lat="34.933545" lon="126.898164">
        <ele>75.25</ele>
      </trkpt>
      <trkpt lat="34.933511" lon="126.898162">
        <ele>75.25</ele>
      </trkpt>
      <trkpt lat="34.932275" lon="126.898323">
        <ele>74.75</ele>
      </trkpt>
      <trkpt lat="34.93188" lon="126.898253">
        <ele>74.75</ele>
      </trkpt>
      <trkpt lat="34.93063" lon="126.89782">
        <ele>77.5</ele>
      </trkpt>
      <trkpt lat="34.928638" lon="126.896598">
        <ele>80.0</ele>
      </trkpt>
      <trkpt lat="34.927497" lon="126.896395">
        <ele>77.25</ele>
      </trkpt>
      <trkpt lat="34.926988" lon="126.896136">
        <ele>78.75</ele>
      </trkpt>
      <trkpt lat="34.926685" lon="126.895724">
        <ele>80.25</ele>
      </trkpt>
      <trkpt lat="34.92559" lon="126.89351">
        <ele>97.5</ele>
      </trkpt>
      <trkpt lat="34.92413" lon="126.89177">
        <ele>117.5</ele>
      </trkpt>
      <trkpt lat="34.92353" lon="126.88979">
        <ele>142.75</ele>
      </trkpt>
      <trkpt lat="34.92236" lon="126.88814">
        <ele>137.25</ele>
      </trkpt>
      <trkpt lat="34.92184" lon="126.88696">
        <ele>125.25</ele>
      </trkpt>
      <trkpt lat="34.9211" lon="126.88344">
        <ele>105.75</ele>
      </trkpt>
      <trkpt lat="34.9193799" lon="126.88075">
        <ele>97.5</ele>
      </trkpt>
      <trkpt lat="34.91875" lon="126.87994">
        <ele>87.0</ele>
      </trkpt>
      <trkpt lat="34.915771" lon="126.876783">
        <ele>77.75</ele>
      </trkpt>
      <trkpt lat="34.915517" lon="126.87666">
        <ele>76.5</ele>
      </trkpt>
      <trkpt lat="34.914946" lon="126.876438">
        <ele>74.75</ele>
      </trkpt>
      <trkpt lat="34.910748" lon="126.875522">
        <ele>74.25</ele>
      </trkpt>
      <trkpt lat="34.910446" lon="126.875395">
        <ele>74.25</ele>
      </trkpt>
      <trkpt lat="34.910271" lon="126.875191">
        <ele>73.75</ele>
      </trkpt>
      <trkpt lat="34.910071" lon="126.874464">
        <ele>73.0</ele>
      </trkpt>
      <trkpt lat="34.910218" lon="126.87354">
        <ele>73.25</ele>
      </trkpt>
      <trkpt lat="34.910337" lon="126.873137">
        <ele>73.25</ele>
      </trkpt>
      <trkpt lat="34.91054" lon="126.872639">
        <ele>73.0</ele>
      </trkpt>
      <trkpt lat="34.911488" lon="126.870855">
        <ele>73.0</ele>
      </trkpt>
      <trkpt lat="34.911768" lon="126.868675">
        <ele>74.5</ele>
      </trkpt>
      <trkpt lat="34.912068" lon="126.868095">
        <ele>74.75</ele>
      </trkpt>
      <trkpt lat="34.913118" lon="126.866765">
        <ele>73.0</ele>
      </trkpt>
      <trkpt lat="34.913268" lon="126.866485">
        <ele>74.25</ele>
      </trkpt>
      <trkpt lat="34.913388" lon="126.866115">
        <ele>76.75</ele>
      </trkpt>
      <trkpt lat="34.913378" lon="126.865325">
        <ele>80.5</ele>
      </trkpt>
      <trkpt lat="34.912978" lon="126.864225">
        <ele>82.75</ele>
      </trkpt>
      <trkpt lat="34.9128479" lon="126.863485">
        <ele>82.0</ele>
      </trkpt>
      <trkpt lat="34.912978" lon="126.861925">
        <ele>81.5</ele>
      </trkpt>
      <trkpt lat="34.913278" lon="126.860945">
        <ele>76.5</ele>
      </trkpt>
      <trkpt lat="34.913497" lon="126.860571">
        <ele>75.75</ele>
      </trkpt>
      <trkpt lat="34.914616" lon="126.859111">
        <ele>73.8</ele>
      </trkpt>
      <trkpt lat="34.915968" lon="126.857348">
        <ele>75.25</ele>
      </trkpt>
      <trkpt lat="34.916155" lon="126.856895">
        <ele>76.25</ele>
      </trkpt>
      <trkpt lat="34.916194" lon="126.856226">
        <ele>76.5</ele>
      </trkpt>
      <trkpt lat="34.916029" lon="126.855706">
        <ele>77.25</ele>
      </trkpt>
      <trkpt lat="34.915419" lon="126.854791">
        <ele>80.0</ele>
      </trkpt>
      <trkpt lat="34.914344" lon="126.853441">
        <ele>79.0</ele>
      </trkpt>
      <trkpt lat="34.912824" lon="126.851807">
        <ele>78.0</ele>
      </trkpt>
      <trkpt lat="34.912405" lon="126.85081">
        <ele>74.75</ele>
      </trkpt>
      <trkpt lat="34.912112" lon="126.849611">
        <ele>73.75</ele>
      </trkpt>
      <trkpt lat="34.911133" lon="126.843484">
        <ele>84.25</ele>
      </trkpt>
      <trkpt lat="34.911094" lon="126.841103">
        <ele>92.75</ele>
      </trkpt>
      <trkpt lat="34.911185" lon="126.840073">
        <ele>92.25</ele>
      </trkpt>
      <trkpt lat="34.91243" lon="126.837247">
        <ele>97.5</ele>
      </trkpt>
      <trkpt lat="34.912607" lon="126.835397">
        <ele>101.75</ele>
      </trkpt>
      <trkpt lat="34.912888" lon="126.834345">
        <ele>102.25</ele>
      </trkpt>
      <trkpt lat="34.912958" lon="126.834185">
        <ele>102.25</ele>
      </trkpt>
      <trkpt lat="34.913291" lon="126.83337">
        <ele>117.0</ele>
      </trkpt>
      <trkpt lat="34.914105" lon="126.831891">
        <ele>129.75</ele>
      </trkpt>
      <trkpt lat="34.914316" lon="126.830187">
        <ele>151.25</ele>
      </trkpt>
      <trkpt lat="34.914516" lon="126.829723">
        <ele>154.5</ele>
      </trkpt>
      <trkpt lat="34.915528" lon="126.829175">
        <ele>157.75</ele>
      </trkpt>
      <trkpt lat="34.915628" lon="126.829145">
        <ele>158.5</ele>
      </trkpt>
      <trkpt lat="34.915788" lon="126.829165">
        <ele>158.0</ele>
      </trkpt>
      <trkpt lat="34.916058" lon="126.829265">
        <ele>161.0</ele>
      </trkpt>
      <trkpt lat="34.916198" lon="126.829365">
        <ele>162.75</ele>
      </trkpt>
      <trkpt lat="34.916428" lon="126.829625">
        <ele>165.75</ele>
      </trkpt>
      <trkpt lat="34.916778" lon="126.830635">
        <ele>165.0</ele>
      </trkpt>
      <trkpt lat="34.917148" lon="126.830825">
        <ele>169.0</ele>
      </trkpt>
      <trkpt lat="34.918028" lon="126.830515">
        <ele>168.0</ele>
      </trkpt>
      <trkpt lat="34.918718" lon="126.830425">
        <ele>160.5</ele>
      </trkpt>
      <trkpt lat="34.920388" lon="126.830765">
        <ele>147.25</ele>
      </trkpt>
      <trkpt lat="34.9214879" lon="126.831435">
        <ele>146.0</ele>
      </trkpt>
      <trkpt lat="34.922268" lon="126.831695">
        <ele>153.5</ele>
      </trkpt>
      <trkpt lat="34.922578" lon="126.831735">
        <ele>156.75</ele>
      </trkpt>
      <trkpt lat="34.922918" lon="126.831735">
        <ele>154.25</ele>
      </trkpt>
      <trkpt lat="34.92467" lon="126.83157">
        <ele>135.5</ele>
      </trkpt>
      <trkpt lat="34.926933" lon="126.831932">
        <ele>122.75</ele>
      </trkpt>
      <trkpt lat="34.927239" lon="126.831961">
        <ele>122.75</ele>
      </trkpt>
      <trkpt lat="34.927568" lon="126.831919">
        <ele>122.0</ele>
      </trkpt>
      <trkpt lat="34.929595" lon="126.831057">
        <ele>113.75</ele>
      </trkpt>
      <trkpt lat="34.930265" lon="126.830535">
        <ele>111.5</ele>
      </trkpt>
      <trkpt lat="34.930784" lon="126.830051">
        <ele>107.5</ele>
      </trkpt>
      <trkpt lat="34.9310339" lon="126.829799">
        <ele>106.0</ele>
      </trkpt>
      <trkpt lat="34.932228" lon="126.827927">
        <ele>97.75</ele>
      </trkpt>
      <trkpt lat="34.9341859" lon="126.825965">
        <ele>93.5</ele>
      </trkpt>
      <trkpt lat="34.934714" lon="126.825575">
        <ele>91.25</ele>
      </trkpt>
      <trkpt lat="34.935423" lon="126.825491">
        <ele>94.75</ele>
      </trkpt>
      <trkpt lat="34.93737" lon="126.82637">
        <ele>95.25</ele>
      </trkpt>
      <trkpt lat="34.93788" lon="126.82647">
        <ele>90.0</ele>
      </trkpt>
      <trkpt lat="34.93855" lon="126.82663">
        <ele>84.25</ele>
      </trkpt>
      <trkpt lat="34.939276" lon="126.826731">
        <ele>85.0</ele>
      </trkpt>
      <trkpt lat="34.9398399" lon="126.82666">
        <ele>83.0</ele>
      </trkpt>
      <trkpt lat="34.94218" lon="126.82537">
        <ele>83.75</ele>
      </trkpt>
      <trkpt lat="34.94238" lon="126.82541">
        <ele>85.0</ele>
      </trkpt>
      <trkpt lat="34.94444" lon="126.82684">
        <ele>78.25</ele>
      </trkpt>
      <trkpt lat="34.94846" lon="126.82732">
        <ele>77.0</ele>
      </trkpt>
      <trkpt lat="34.94862" lon="126.82728">
        <ele>76.25</ele>
      </trkpt>
      <trkpt lat="34.94882" lon="126.8272">
        <ele>76.0</ele>
      </trkpt>
      <trkpt lat="34.9512799" lon="126.82511">
        <ele>84.75</ele>
      </trkpt>
      <trkpt lat="34.952632" lon="126.824795">
        <ele>76.0</ele>
      </trkpt>
      <trkpt lat="34.953396" lon="126.825037">
        <ele>77.25</ele>
      </trkpt>
      <trkpt lat="34.95492" lon="126.82513">
        <ele>75.0</ele>
      </trkpt>
      <trkpt lat="34.95563" lon="126.82554">
        <ele>77.0</ele>
      </trkpt>
      <trkpt lat="34.957875" lon="126.827185">
        <ele>76.75</ele>
      </trkpt>
      <trkpt lat="34.95879" lon="126.82956">
        <ele>77.25</ele>
      </trkpt>
      <trkpt lat="34.95924" lon="126.83011">
        <ele>73.25</ele>
      </trkpt>
      <trkpt lat="34.9619799" lon="126.83117">
        <ele>74.75</ele>
      </trkpt>
      <trkpt lat="34.96214" lon="126.83118">
        <ele>74.5</ele>
      </trkpt>
      <trkpt lat="34.96237" lon="126.83118">
        <ele>74.25</ele>
      </trkpt>
      <trkpt lat="34.9626" lon="126.83103">
        <ele>75.5</ele>
      </trkpt>
      <trkpt lat="34.96403" lon="126.82962">
        <ele>84.0</ele>
      </trkpt>
      <trkpt lat="34.96427" lon="126.8295">
        <ele>84.5</ele>
      </trkpt>
      <trkpt lat="34.96505" lon="126.82915">
        <ele>87.75</ele>
      </trkpt>
      <trkpt lat="34.96557" lon="126.82901">
        <ele>95.0</ele>
      </trkpt>
      <trkpt lat="34.96573" lon="126.82898">
        <ele>97.0</ele>
      </trkpt>
      <trkpt lat="34.96616" lon="126.82907">
        <ele>101.5</ele>
      </trkpt>
      <trkpt lat="34.96649" lon="126.82922">
        <ele>105.75</ele>
      </trkpt>
      <trkpt lat="34.96766" lon="126.83042">
        <ele>114.25</ele>
      </trkpt>
      <trkpt lat="34.96803" lon="126.8306">
        <ele>111.25</ele>
      </trkpt>
      <trkpt lat="34.96919" lon="126.83081">
        <ele>91.0</ele>
      </trkpt>
      <trkpt lat="34.97002" lon="126.83092">
        <ele>82.75</ele>
      </trkpt>
      <trkpt lat="34.97025" lon="126.83088">
        <ele>80.25</ele>
      </trkpt>
      <trkpt lat="34.97232" lon="126.82977">
        <ele>71.0</ele>
      </trkpt>
      <trkpt lat="34.97311" lon="126.83035">
        <ele>65.75</ele>
      </trkpt>
      <trkpt lat="34.9732709" lon="126.83036">
        <ele>65.75</ele>
      </trkpt>
      <trkpt lat="34.97342" lon="126.83037">
        <ele>65.75</ele>
      </trkpt>
      <trkpt lat="34.97382" lon="126.83024">
        <ele>63.25</ele>
      </trkpt>
      <trkpt lat="34.974102" lon="126.830138">
        <ele>61.5</ele>
      </trkpt>
      <trkpt lat="34.974252" lon="126.830146">
        <ele>61.0</ele>
      </trkpt>
      <trkpt lat="34.974666" lon="126.830164">
        <ele>59.0</ele>
      </trkpt>
      <trkpt lat="34.975298" lon="126.830351">
        <ele>57.75</ele>
      </trkpt>
      <trkpt lat="34.976205" lon="126.830665">
        <ele>56.5</ele>
      </trkpt>
      <trkpt lat="34.977153" lon="126.830997">
        <ele>54.5</ele>
      </trkpt>
      <trkpt lat="34.977922" lon="126.830919">
        <ele>52.25</ele>
      </trkpt>
      <trkpt lat="34.978535" lon="126.830313">
        <ele>54.5</ele>
      </trkpt>
      <trkpt lat="34.979429" lon="126.828923">
        <ele>58.5</ele>
      </trkpt>
      <trkpt lat="34.9815029" lon="126.827094">
        <ele>63.75</ele>
      </trkpt>
      <trkpt lat="34.982995" lon="126.825518">
        <ele>62.25</ele>
      </trkpt>
      <trkpt lat="34.983573" lon="126.824752">
        <ele>58.5</ele>
      </trkpt>
      <trkpt lat="34.983636" lon="126.824683">
        <ele>58.0</ele>
      </trkpt>
      <trkpt lat="34.984868" lon="126.823778">
        <ele>55.25</ele>
      </trkpt>
      <trkpt lat="34.985846" lon="126.822496">
        <ele>51.0</ele>
      </trkpt>
      <trkpt lat="34.986545" lon="126.821881">
        <ele>51.0</ele>
      </trkpt>
      <trkpt lat="34.987898" lon="126.821417">
        <ele>53.0</ele>
      </trkpt>
      <trkpt lat="34.988569" lon="126.820974">
        <ele>51.25</ele>
      </trkpt>
      <trkpt lat="34.988762" lon="126.820886">
        <ele>50.0</ele>
      </trkpt>
      <trkpt lat="34.989402" lon="126.820817">
        <ele>49.25</ele>
      </trkpt>
      <trkpt lat="34.9909109" lon="126.821069">
        <ele>53.25</ele>
      </trkpt>
      <trkpt lat="34.9918059" lon="126.821526">
        <ele>48.5</ele>
      </trkpt>
      <trkpt lat="34.99284" lon="126.821929">
        <ele>46.5</ele>
      </trkpt>
      <trkpt lat="34.993169" lon="126.821881">
        <ele>46.0</ele>
      </trkpt>
      <trkpt lat="34.9933989" lon="126.8218">
        <ele>45.5</ele>
      </trkpt>
      <trkpt lat="34.994019" lon="126.821363">
        <ele>44.5</ele>
      </trkpt>
      <trkpt lat="34.994427" lon="126.821226">
        <ele>44.25</ele>
      </trkpt>
      <trkpt lat="34.996048" lon="126.820919">
        <ele>41.25</ele>
      </trkpt>
      <trkpt lat="34.996484" lon="126.820926">
        <ele>41.0</ele>
      </trkpt>
      <trkpt lat="34.997299" lon="126.820955">
        <ele>39.75</ele>
      </trkpt>
      <trkpt lat="34.99967" lon="126.820566">
        <ele>43.25</ele>
      </trkpt>
      <trkpt lat="35.000911" lon="126.821063">
        <ele>44.5</ele>
      </trkpt>
      <trkpt lat="35.001827" lon="126.821909">
        <ele>47.25</ele>
      </trkpt>
      <trkpt lat="35.002057" lon="126.822018">
        <ele>48.0</ele>
      </trkpt>
      <trkpt lat="35.002381" lon="126.822032">
        <ele>48.0</ele>
      </trkpt>
      <trkpt lat="35.00266" lon="126.82199">
        <ele>47.5</ele>
      </trkpt>
      <trkpt lat="35.003051" lon="126.821779">
        <ele>45.75</ele>
      </trkpt>
      <trkpt lat="35.003923" lon="126.821267">
        <ele>44.0</ele>
      </trkpt>
      <trkpt lat="35.004303" lon="126.821158">
        <ele>44.5</ele>
      </trkpt>
      <trkpt lat="35.004778" lon="126.820981">
        <ele>44.25</ele>
      </trkpt>
      <trkpt lat="35.006946" lon="126.819868">
        <ele>40.25</ele>
      </trkpt>
      <trkpt lat="35.007188" lon="126.819862">
        <ele>40.25</ele>
      </trkpt>
      <trkpt lat="35.00761" lon="126.819851">
        <ele>39.5</ele>
      </trkpt>
      <trkpt lat="35.010478" lon="126.822057">
        <ele>45.75</ele>
      </trkpt>
      <trkpt lat="35.011867" lon="126.822607">
        <ele>42.5</ele>
      </trkpt>
      <trkpt lat="35.013655" lon="126.823674">
        <ele>38.25</ele>
      </trkpt>
      <trkpt lat="35.014865" lon="126.824839">
        <ele>36.0</ele>
      </trkpt>
      <trkpt lat="35.01619" lon="126.82511">
        <ele>36.0</ele>
      </trkpt>
      <trkpt lat="35.017207" lon="126.826207">
        <ele>35.0</ele>
      </trkpt>
      <trkpt lat="35.017556" lon="126.827259">
        <ele>35.0</ele>
      </trkpt>
      <trkpt lat="35.017849" lon="126.827553">
        <ele>36.0</ele>
      </trkpt>
      <trkpt lat="35.01953" lon="126.82846">
        <ele>39.25</ele>
      </trkpt>
      <trkpt lat="35.020397" lon="126.82862">
        <ele>42.25</ele>
      </trkpt>
      <trkpt lat="35.0209819" lon="126.829024">
        <ele>44.25</ele>
      </trkpt>
      <trkpt lat="35.023389" lon="126.829864">
        <ele>39.25</ele>
      </trkpt>
      <trkpt lat="35.02499" lon="126.8315">
        <ele>41.5</ele>
      </trkpt>
      <trkpt lat="35.02766" lon="126.83296">
        <ele>37.25</ele>
      </trkpt>
      <trkpt lat="35.02835" lon="126.83318">
        <ele>36.75</ele>
      </trkpt>
      <trkpt lat="35.029925" lon="126.83296">
        <ele>31.75</ele>
      </trkpt>
      <trkpt lat="35.032236" lon="126.833727">
        <ele>27.25</ele>
      </trkpt>
      <trkpt lat="35.032743" lon="126.834">
        <ele>26.5</ele>
      </trkpt>
      <trkpt lat="35.033049" lon="126.834196">
        <ele>26.0</ele>
      </trkpt>
      <trkpt lat="35.0343019" lon="126.835609">
        <ele>24.5</ele>
      </trkpt>
      <trkpt lat="35.0354219" lon="126.837938">
        <ele>26.0</ele>
      </trkpt>
      <trkpt lat="35.036945" lon="126.839674">
        <ele>23.0</ele>
      </trkpt>
      <trkpt lat="35.0382729" lon="126.841949">
        <ele>23.5</ele>
      </trkpt>
      <trkpt lat="35.038362" lon="126.842018">
        <ele>23.25</ele>
      </trkpt>
      <trkpt lat="35.038418" lon="126.84205">
        <ele>23.0</ele>
      </trkpt>
      <trkpt lat="35.039721" lon="126.842802">
        <ele>20.75</ele>
      </trkpt>
      <trkpt lat="35.041341" lon="126.843146">
        <ele>19.75</ele>
      </trkpt>
      <trkpt lat="35.042297" lon="126.843191">
        <ele>19.0</ele>
      </trkpt>
      <trkpt lat="35.042525" lon="126.842217">
        <ele>18.5</ele>
      </trkpt>
      <trkpt lat="35.0425619" lon="126.842191">
        <ele>18.5</ele>
      </trkpt>
      <trkpt lat="35.043934" lon="126.841885">
        <ele>18.5</ele>
      </trkpt>
      <trkpt lat="35.044264" lon="126.841644">
        <ele>18.75</ele>
      </trkpt>
      <trkpt lat="35.046197" lon="126.837952">
        <ele>18.75</ele>
      </trkpt>
      <trkpt lat="35.046266" lon="126.837551">
        <ele>19.25</ele>
      </trkpt>
      <trkpt lat="35.045992" lon="126.836199">
        <ele>18.5</ele>
      </trkpt>
      <trkpt lat="35.044955" lon="126.82088">
        <ele>15.0</ele>
      </trkpt>
      <trkpt lat="35.044956" lon="126.81849">
        <ele>16.0</ele>
      </trkpt>
      <trkpt lat="35.045571" lon="126.818511">
        <ele>16.0</ele>
      </trkpt>
      <trkpt lat="35.047205" lon="126.818898">
        <ele>17.0</ele>
      </trkpt>
      <trkpt lat="35.047591" lon="126.818469">
        <ele>19.0</ele>
      </trkpt>
      <trkpt lat="35.047899" lon="126.818243">
        <ele>21.0</ele>
      </trkpt>
      <trkpt lat="35.04809" lon="126.817975">
        <ele>13.0</ele>
      </trkpt>
      <trkpt lat="35.048217" lon="126.817613">
        <ele>13.0</ele>
      </trkpt>
      <trkpt lat="35.049647" lon="126.815293">
        <ele>13.0</ele>
      </trkpt>
      <trkpt lat="35.050385" lon="126.814038">
        <ele>17.0</ele>
      </trkpt>
      <trkpt lat="35.049822" lon="126.81466">
        <ele>13.0</ele>
      </trkpt>
      <trkpt lat="35.049945" lon="126.813812">
        <ele>11.0</ele>
      </trkpt>
      <trkpt lat="35.049708" lon="126.812128">
        <ele>12.0</ele>
      </trkpt>
      <trkpt lat="35.0494709" lon="126.809574">
        <ele>13.0</ele>
      </trkpt>
      <trkpt lat="35.049462" lon="126.807042">
        <ele>11.0</ele>
      </trkpt>
      <trkpt lat="35.049708" lon="126.803877">
        <ele>12.0</ele>
      </trkpt>
      <trkpt lat="35.049998" lon="126.799747">
        <ele>10.0</ele>
      </trkpt>
      <trkpt lat="35.050437" lon="126.793449">
        <ele>11.0</ele>
      </trkpt>
      <trkpt lat="35.051043" lon="126.789458">
        <ele>11.0</ele>
      </trkpt>
      <trkpt lat="35.051843" lon="126.786196">
        <ele>11.0</ele>
      </trkpt>
      <trkpt lat="35.052844" lon="126.783171">
        <ele>9.0</ele>
      </trkpt>
      <trkpt lat="35.053671" lon="126.780766">
        <ele>10.25</ele>
      </trkpt>
      <trkpt lat="35.053908" lon="126.780878">
        <ele>10.5</ele>
      </trkpt>
      <trkpt lat="35.054106" lon="126.779914">
        <ele>11.75</ele>
      </trkpt>
      <trkpt lat="35.054045" lon="126.779349">
        <ele>11.0</ele>
      </trkpt>
      <trkpt lat="35.054088" lon="126.779135">
        <ele>11.5</ele>
      </trkpt>
      <trkpt lat="35.054784" lon="126.776224">
        <ele>9.0</ele>
      </trkpt>
      <trkpt lat="35.054952" lon="126.775312">
        <ele>10.5</ele>
      </trkpt>
      <trkpt lat="35.055361" lon="126.772414">
        <ele>10.25</ele>
      </trkpt>
      <trkpt lat="35.055741" lon="126.769456">
        <ele>8.75</ele>
      </trkpt>
      <trkpt lat="35.055932" lon="126.767974">
        <ele>8.25</ele>
      </trkpt>
      <trkpt lat="35.056233" lon="126.764443">
        <ele>9.75</ele>
      </trkpt>
      <trkpt lat="35.056261" lon="126.763214">
        <ele>9.2</ele>
      </trkpt>
      <trkpt lat="35.056287" lon="126.762067">
        <ele>7.0</ele>
      </trkpt>
      <trkpt lat="35.0562029" lon="126.76027">
        <ele>7.0</ele>
      </trkpt>
      <trkpt lat="35.056221" lon="126.759782">
        <ele>10.25</ele>
      </trkpt>
      <trkpt lat="35.056263" lon="126.759619">
        <ele>10.25</ele>
      </trkpt>
      <trkpt lat="35.056377" lon="126.759444">
        <ele>10.5</ele>
      </trkpt>
      <trkpt lat="35.056628" lon="126.759384">
        <ele>10.5</ele>
      </trkpt>
      <trkpt lat="35.056811" lon="126.759407">
        <ele>10.5</ele>
      </trkpt>
      <trkpt lat="35.057034" lon="126.759558">
        <ele>10.25</ele>
      </trkpt>
      <trkpt lat="35.059422" lon="126.762614">
        <ele>10.0</ele>
      </trkpt>
      <trkpt lat="35.062145" lon="126.766026">
        <ele>10.75</ele>
      </trkpt>
      <trkpt lat="35.065512" lon="126.773141">
        <ele>8.75</ele>
      </trkpt>
      <trkpt lat="35.0665539" lon="126.775461">
        <ele>10.25</ele>
      </trkpt>
      <trkpt lat="35.066777" lon="126.776286">
        <ele>10.0</ele>
      </trkpt>
      <trkpt lat="35.066934" lon="126.776584">
        <ele>10.5</ele>
      </trkpt>
      <trkpt lat="35.067172" lon="126.776961">
        <ele>10.75</ele>
      </trkpt>
      <trkpt lat="35.067472" lon="126.777333">
        <ele>10.25</ele>
      </trkpt>
      <trkpt lat="35.069328" lon="126.780879">
        <ele>10.0</ele>
      </trkpt>
      <trkpt lat="35.07076" lon="126.78328">
        <ele>11.75</ele>
      </trkpt>
      <trkpt lat="35.0739189" lon="126.787502">
        <ele>10.75</ele>
      </trkpt>
      <trkpt lat="35.076912" lon="126.790785">
        <ele>10.75</ele>
      </trkpt>
      <trkpt lat="35.08968" lon="126.801962">
        <ele>11.75</ele>
      </trkpt>
      <trkpt lat="35.0897999" lon="126.801852">
        <ele>9.0</ele>
      </trkpt>
      <trkpt lat="35.090021" lon="126.801807">
        <ele>10.75</ele>
      </trkpt>
      <trkpt lat="35.090341" lon="126.801802">
        <ele>10.75</ele>
      </trkpt>
      <trkpt lat="35.090442" lon="126.801833">
        <ele>11.0</ele>
      </trkpt>
      <trkpt lat="35.09131" lon="126.802652">
        <ele>14.0</ele>
      </trkpt>
      <trkpt lat="35.091782" lon="126.803134">
        <ele>9.0</ele>
      </trkpt>
      <trkpt lat="35.092096" lon="126.803359">
        <ele>12.0</ele>
      </trkpt>
      <trkpt lat="35.092759" lon="126.803515">
        <ele>12.0</ele>
      </trkpt>
      <trkpt lat="35.093428" lon="126.803834">
        <ele>13.0</ele>
      </trkpt>
      <trkpt lat="35.094781" lon="126.804311">
        <ele>12.75</ele>
      </trkpt>
      <trkpt lat="35.095762" lon="126.804569">
        <ele>12.0</ele>
      </trkpt>
      <trkpt lat="35.098827" lon="126.804948">
        <ele>12.25</ele>
      </trkpt>
      <trkpt lat="35.099396" lon="126.805097">
        <ele>12.25</ele>
      </trkpt>
      <trkpt lat="35.099969" lon="126.805298">
        <ele>12.75</ele>
      </trkpt>
      <trkpt lat="35.10102" lon="126.805856">
        <ele>11.5</ele>
      </trkpt>
      <trkpt lat="35.102241" lon="126.806739">
        <ele>11.0</ele>
      </trkpt>
      <trkpt lat="35.10255" lon="126.807009">
        <ele>10.75</ele>
      </trkpt>
      <trkpt lat="35.102715" lon="126.807211">
        <ele>11.25</ele>
      </trkpt>
      <trkpt lat="35.102857" lon="126.80744">
        <ele>12.25</ele>
      </trkpt>
      <trkpt lat="35.104622" lon="126.81098">
        <ele>12.75</ele>
      </trkpt>
      <trkpt lat="35.105524" lon="126.813002">
        <ele>12.5</ele>
      </trkpt>
      <trkpt lat="35.108509" lon="126.81925">
        <ele>14.75</ele>
      </trkpt>
      <trkpt lat="35.110156" lon="126.821599">
        <ele>12.0</ele>
      </trkpt>
      <trkpt lat="35.112831" lon="126.818203">
        <ele>20.0</ele>
      </trkpt>
      <trkpt lat="35.113594" lon="126.818989">
        <ele>22.0</ele>
      </trkpt>
      <trkpt lat="35.114794" lon="126.819928">
        <ele>16.0</ele>
      </trkpt>
      <trkpt lat="35.116264" lon="126.820842">
        <ele>12.0</ele>
      </trkpt>
      <trkpt lat="35.117443" lon="126.821389">
        <ele>15.0</ele>
      </trkpt>
      <trkpt lat="35.1180809" lon="126.821612">
        <ele>12.0</ele>
      </trkpt>
      <trkpt lat="35.118855" lon="126.821702">
        <ele>14.25</ele>
      </trkpt>
      <trkpt lat="35.1192319" lon="126.821708">
        <ele>13.75</ele>
      </trkpt>
      <trkpt lat="35.119708" lon="126.821675">
        <ele>13.75</ele>
      </trkpt>
      <trkpt lat="35.120298" lon="126.821623">
        <ele>14.25</ele>
      </trkpt>
      <trkpt lat="35.121608" lon="126.821235">
        <ele>15.0</ele>
      </trkpt>
      <trkpt lat="35.130315" lon="126.817286">
        <ele>14.5</ele>
      </trkpt>
      <trkpt lat="35.130998" lon="126.817057">
        <ele>14.5</ele>
      </trkpt>
      <trkpt lat="35.131458" lon="126.81702">
        <ele>14.75</ele>
      </trkpt>
      <trkpt lat="35.132039" lon="126.817059">
        <ele>15.0</ele>
      </trkpt>
      <trkpt lat="35.132456" lon="126.817176">
        <ele>14.75</ele>
      </trkpt>
      <trkpt lat="35.132886" lon="126.817366">
        <ele>14.5</ele>
      </trkpt>
      <trkpt lat="35.133344" lon="126.817638">
        <ele>15.0</ele>
      </trkpt>
      <trkpt lat="35.133774" lon="126.818003">
        <ele>15.25</ele>
      </trkpt>
      <trkpt lat="35.137316" lon="126.821985">
        <ele>13.75</ele>
      </trkpt>
      <trkpt lat="35.138649" lon="126.823501">
        <ele>13.75</ele>
      </trkpt>
      <trkpt lat="35.139461" lon="126.824471">
        <ele>20.0</ele>
      </trkpt>
      <trkpt lat="35.140366" lon="126.825249">
        <ele>15.0</ele>
      </trkpt>
      <trkpt lat="35.140478" lon="126.825606">
        <ele>14.0</ele>
      </trkpt>
      <trkpt lat="35.140505" lon="126.825863">
        <ele>16.0</ele>
      </trkpt>
      <trkpt lat="35.140596" lon="126.825918">
        <ele>14.5</ele>
      </trkpt>
      <trkpt lat="35.1419489" lon="126.826749">
        <ele>16.75</ele>
      </trkpt>
      <trkpt lat="35.142482" lon="126.826997">
        <ele>15.75</ele>
      </trkpt>
      <trkpt lat="35.142861" lon="126.82714">
        <ele>15.75</ele>
      </trkpt>
      <trkpt lat="35.143493" lon="126.827347">
        <ele>15.5</ele>
      </trkpt>
      <trkpt lat="35.1440849" lon="126.827464">
        <ele>15.0</ele>
      </trkpt>
      <trkpt lat="35.145125" lon="126.827487">
        <ele>15.0</ele>
      </trkpt>
      <trkpt lat="35.146582" lon="126.827009">
        <ele>14.0</ele>
      </trkpt>
      <trkpt lat="35.147661" lon="126.826419">
        <ele>14.0</ele>
      </trkpt>
      <trkpt lat="35.14872" lon="126.825981">
        <ele>13.25</ele>
      </trkpt>
      <trkpt lat="35.150995" lon="126.824981">
        <ele>15.0</ele>
      </trkpt>
      <trkpt lat="35.152918" lon="126.824308">
        <ele>15.25</ele>
      </trkpt>
      <trkpt lat="35.152973" lon="126.824304">
        <ele>15.0</ele>
      </trkpt>
      <trkpt lat="35.153388" lon="126.824374">
        <ele>12.75</ele>
      </trkpt>
      <trkpt lat="35.1540899" lon="126.824169">
        <ele>14.75</ele>
      </trkpt>
      <trkpt lat="35.154451" lon="126.823836">
        <ele>13.75</ele>
      </trkpt>
      <trkpt lat="35.160684" lon="126.822384">
        <ele>15.0</ele>
      </trkpt>
      <trkpt lat="35.160842" lon="126.822398">
        <ele>15.0</ele>
      </trkpt>
      <trkpt lat="35.161077" lon="126.822398">
        <ele>15.0</ele>
      </trkpt>
      <trkpt lat="35.161749" lon="126.821902">
        <ele>13.0</ele>
      </trkpt>
      <trkpt lat="35.16401" lon="126.820641">
        <ele>16.0</ele>
      </trkpt>
      <trkpt lat="35.164457" lon="126.821245">
        <ele>14.0</ele>
      </trkpt>
      <trkpt lat="35.164511" lon="126.821213">
        <ele>13.5</ele>
      </trkpt>
      <trkpt lat="35.165507" lon="126.820132">
        <ele>16.25</ele>
      </trkpt>
      <trkpt lat="35.165266" lon="126.820773">
        <ele>18.0</ele>
      </trkpt>
      <trkpt lat="35.165183" lon="126.821054">
        <ele>17.0</ele>
      </trkpt>
      <trkpt lat="35.165178" lon="126.821221">
        <ele>17.0</ele>
      </trkpt>
      <trkpt lat="35.165501" lon="126.82213">
        <ele>17.0</ele>
      </trkpt>
      <trkpt lat="35.165722" lon="126.822411">
        <ele>15.0</ele>
      </trkpt>
      <trkpt lat="35.166288" lon="126.822961">
        <ele>15.0</ele>
      </trkpt>
      <trkpt lat="35.168579" lon="126.825049">
        <ele>16.5</ele>
      </trkpt>
      <trkpt lat="35.170164" lon="126.82716">
        <ele>16.25</ele>
      </trkpt>
      <trkpt lat="35.172341" lon="126.831888">
        <ele>17.25</ele>
      </trkpt>
      <trkpt lat="35.172747" lon="126.83277">
        <ele>23.0</ele>
      </trkpt>
      <trkpt lat="35.17305" lon="126.833376">
        <ele>22.0</ele>
      </trkpt>
      <trkpt lat="35.173282" lon="126.833881">
        <ele>18.0</ele>
      </trkpt>
      <trkpt lat="35.174387" lon="126.835361">
        <ele>13.0</ele>
      </trkpt>
      <trkpt lat="35.17483" lon="126.835694">
        <ele>17.0</ele>
      </trkpt>
      <trkpt lat="35.175676" lon="126.8363">
        <ele>18.0</ele>
      </trkpt>
      <trkpt lat="35.176702" lon="126.836944">
        <ele>16.0</ele>
      </trkpt>
      <trkpt lat="35.177071" lon="126.837099">
        <ele>14.0</ele>
      </trkpt>
      <trkpt lat="35.177167" lon="126.837255">
        <ele>14.0</ele>
      </trkpt>
      <trkpt lat="35.177684" lon="126.837507">
        <ele>14.0</ele>
      </trkpt>
      <trkpt lat="35.178145" lon="126.837936">
        <ele>12.0</ele>
      </trkpt>
      <trkpt lat="35.178627" lon="126.838338">
        <ele>18.0</ele>
      </trkpt>
      <trkpt lat="35.179131" lon="126.838676">
        <ele>18.0</ele>
      </trkpt>
      <trkpt lat="35.179272" lon="126.838735">
        <ele>18.0</ele>
      </trkpt>
      <trkpt lat="35.179693" lon="126.838698">
        <ele>18.0</ele>
      </trkpt>
      <trkpt lat="35.180824" lon="126.839658">
        <ele>16.0</ele>
      </trkpt>
      <trkpt lat="35.181429" lon="126.840178">
        <ele>15.0</ele>
      </trkpt>
      <trkpt lat="35.18153" lon="126.840409">
        <ele>15.0</ele>
      </trkpt>
      <trkpt lat="35.181666" lon="126.841321">
        <ele>16.0</ele>
      </trkpt>
      <trkpt lat="35.181762" lon="126.842211">
        <ele>17.0</ele>
      </trkpt>
      <trkpt lat="35.181924" lon="126.843778">
        <ele>17.0</ele>
      </trkpt>
      <trkpt lat="35.182293" lon="126.847249">
        <ele>16.0</ele>
      </trkpt>
      <trkpt lat="35.182622" lon="126.850505">
        <ele>13.0</ele>
      </trkpt>
      <trkpt lat="35.182801" lon="126.85154">
        <ele>15.0</ele>
      </trkpt>
      <trkpt lat="35.182972" lon="126.852162">
        <ele>15.0</ele>
      </trkpt>
      <trkpt lat="35.18327" lon="126.852903">
        <ele>18.0</ele>
      </trkpt>
      <trkpt lat="35.1836119" lon="126.853552">
        <ele>16.0</ele>
      </trkpt>
      <trkpt lat="35.183862" lon="126.853933">
        <ele>17.0</ele>
      </trkpt>
      <trkpt lat="35.184213" lon="126.854399">
        <ele>21.0</ele>
      </trkpt>
      <trkpt lat="35.186076" lon="126.856341">
        <ele>25.0</ele>
      </trkpt>
      <trkpt lat="35.186589" lon="126.856819">
        <ele>18.0</ele>
      </trkpt>
      <trkpt lat="35.187155" lon="126.857243">
        <ele>21.0</ele>
      </trkpt>
      <trkpt lat="35.187571" lon="126.857516">
        <ele>17.0</ele>
      </trkpt>
      <trkpt lat="35.188716" lon="126.858063">
        <ele>20.0</ele>
      </trkpt>
      <trkpt lat="35.189058" lon="126.858289">
        <ele>15.0</ele>
      </trkpt>
      <trkpt lat="35.189531" lon="126.858482">
        <ele>16.0</ele>
      </trkpt>
      <trkpt lat="35.1899609" lon="126.858326">
        <ele>18.0</ele>
      </trkpt>
      <trkpt lat="35.1903379" lon="126.858332">
        <ele>17.0</ele>
      </trkpt>
      <trkpt lat="35.190728" lon="126.858348">
        <ele>16.0</ele>
      </trkpt>
      <trkpt lat="35.191666" lon="126.85844">
        <ele>21.25</ele>
      </trkpt>
      <trkpt lat="35.192903" lon="126.858303">
        <ele>18.5</ele>
      </trkpt>
      <trkpt lat="35.19308" lon="126.858142">
        <ele>18.5</ele>
      </trkpt>
      <trkpt lat="35.1932789" lon="126.857621">
        <ele>19.75</ele>
      </trkpt>
      <trkpt lat="35.193357" lon="126.857468">
        <ele>20.0</ele>
      </trkpt>
      <trkpt lat="35.194121" lon="126.856653">
        <ele>22.0</ele>
      </trkpt>
      <trkpt lat="35.194631" lon="126.855808">
        <ele>19.25</ele>
      </trkpt>
      <trkpt lat="35.195" lon="126.854848">
        <ele>20.75</ele>
      </trkpt>
      <trkpt lat="35.195304" lon="126.853419">
        <ele>22.75</ele>
      </trkpt>
      <trkpt lat="35.195925" lon="126.853014">
        <ele>28.25</ele>
      </trkpt>
      <trkpt lat="35.196237" lon="126.852961">
        <ele>26.25</ele>
      </trkpt>
      <trkpt lat="35.196411" lon="126.852861">
        <ele>25.75</ele>
      </trkpt>
      <trkpt lat="35.196672" lon="126.852629">
        <ele>13.0</ele>
      </trkpt>
      <trkpt lat="35.19719" lon="126.851733">
        <ele>22.0</ele>
      </trkpt>
      <trkpt lat="35.197449" lon="126.851607">
        <ele>26.25</ele>
      </trkpt>
      <trkpt lat="35.199043" lon="126.852018">
        <ele>20.0</ele>
      </trkpt>
      <trkpt lat="35.201109" lon="126.852497">
        <ele>19.5</ele>
      </trkpt>
      <trkpt lat="35.205675" lon="126.852358">
        <ele>20.25</ele>
      </trkpt>
      <trkpt lat="35.205733" lon="126.852238">
        <ele>15.0</ele>
      </trkpt>
      <trkpt lat="35.205733" lon="126.851712">
        <ele>13.0</ele>
      </trkpt>
      <trkpt lat="35.205777" lon="126.851567">
        <ele>20.0</ele>
      </trkpt>
      <trkpt lat="35.20593" lon="126.851433">
        <ele>20.75</ele>
      </trkpt>
      <trkpt lat="35.206402" lon="126.851402">
        <ele>24.25</ele>
      </trkpt>
      <trkpt lat="35.206544" lon="126.851444">
        <ele>18.0</ele>
      </trkpt>
      <trkpt lat="35.206185" lon="126.857071">
        <ele>15.0</ele>
      </trkpt>
      <trkpt lat="35.206123" lon="126.858938">
        <ele>14.0</ele>
      </trkpt>
      <trkpt lat="35.206377" lon="126.859007">
        <ele>16.0</ele>
      </trkpt>
      <trkpt lat="35.206377" lon="126.861341">
        <ele>12.0</ele>
      </trkpt>
    </trkseg>
  </trk>
</gpx>
