<?xml version="1.0" encoding="UTF-8"?>
<gpx xmlns:xsi="http://www.w3.org/2001/XMLSchema-instance" xmlns="http://www.topografix.com/GPX/1/1" xmlns:gpxdata="http://www.cluetrust.com/XML/GPXDATA/1/0" xsi:schemaLocation="http://www.topografix.com/GPX/1/1 http://www.topografix.com/GPX/1/1/gpx.xsd http://www.cluetrust.com/XML/GPXDATA/1/0 http://www.cluetrust.com/Schemas/gpxdata10.xsd" version="1.1" creator="http://ridewithgps.com/">
  <metadata>
    <name>C-100K-bp</name>
    <link href="https://ridewithgps.com/routes/42041967">
      <text>C-100K-bp</text>
    </link>
    <time>2023-02-19T08:05:07Z</time>
  </metadata>
  <wpt lon="127.0211599" lat="36.5574199">
    <name>Control</name>
    <cmt>CP1   마곡사</cmt>
    <desc>CP1   마곡사</desc>
    <sym>Dot</sym>
    <type>Dot</type>
  </wpt>
  <wpt lon="127.1210075" lat="36.6095152">
    <name>Control</name>
    <cmt>CP2     정안</cmt>
    <desc>CP2     정안</desc>
    <sym>Dot</sym>
    <type>Dot</type>
  </wpt>
  <wpt lon="127.2475911" lat="36.6126953">
    <name>Control</name>
    <cmt>CP3   고복리</cmt>
    <desc>CP3   고복리</desc>
    <sym>Dot</sym>
    <type>Dot</type>
  </wpt>
  <wpt lon="127.1077124" lat="36.7911833">
    <name>Control</name>
    <cmt>Finish   천안-아산</cmt>
    <desc>Finish   천안-아산</desc>
    <sym>Dot</sym>
    <type>Dot</type>
  </wpt>
  <wpt lon="127.107951" lat="36.790307">
    <name>finish</name>
    <sym>Dot</sym>
    <type>Dot</type>
  </wpt>
  <wpt lon="127.02116" lat="36.55742">
    <name>마곡사</name>
    <sym>Dot</sym>
    <type>Dot</type>
  </wpt>
  <wpt lon="127.121008" lat="36.609516">
    <name>정안</name>
    <sym>Dot</sym>
    <type>Dot</type>
  </wpt>
  <wpt lon="127.247552" lat="36.612683">
    <name>고복</name>
    <sym>Dot</sym>
    <type>Dot</type>
  </wpt>
  <trk>
    <name>C-100K-bp</name>
    <trkseg>
      <trkpt lat="36.790306" lon="127.107956">
        <ele>39.0</ele>
      </trkpt>
      <trkpt lat="36.790307" lon="127.107951">
        <ele>39.0</ele>
      </trkpt>
      <trkpt lat="36.790169" lon="127.107986">
        <ele>34.6</ele>
      </trkpt>
      <trkpt lat="36.789813" lon="127.108072">
        <ele>31.3</ele>
      </trkpt>
      <trkpt lat="36.783826" lon="127.109688">
        <ele>29.1</ele>
      </trkpt>
      <trkpt lat="36.782616" lon="127.11014">
        <ele>27.9</ele>
      </trkpt>
      <trkpt lat="36.782094" lon="127.112151">
        <ele>27.0</ele>
      </trkpt>
      <trkpt lat="36.782022" lon="127.113248">
        <ele>26.3</ele>
      </trkpt>
      <trkpt lat="36.781675" lon="127.113357">
        <ele>24.7</ele>
      </trkpt>
      <trkpt lat="36.781515" lon="127.113533">
        <ele>24.1</ele>
      </trkpt>
      <trkpt lat="36.78127" lon="127.115279">
        <ele>23.4</ele>
      </trkpt>
      <trkpt lat="36.7812709" lon="127.116991">
        <ele>22.7</ele>
      </trkpt>
      <trkpt lat="36.781525" lon="127.119477">
        <ele>23.1</ele>
      </trkpt>
      <trkpt lat="36.781882" lon="127.12224">
        <ele>23.6</ele>
      </trkpt>
      <trkpt lat="36.782337" lon="127.123638">
        <ele>23.9</ele>
      </trkpt>
      <trkpt lat="36.782294" lon="127.124197">
        <ele>24.9</ele>
      </trkpt>
      <trkpt lat="36.778746" lon="127.125049">
        <ele>26.7</ele>
      </trkpt>
      <trkpt lat="36.778653" lon="127.125504">
        <ele>28.4</ele>
      </trkpt>
      <trkpt lat="36.778664" lon="127.127915">
        <ele>29.9</ele>
      </trkpt>
      <trkpt lat="36.778483" lon="127.128087">
        <ele>32.0</ele>
      </trkpt>
      <trkpt lat="36.777174" lon="127.128002">
        <ele>35.3</ele>
      </trkpt>
      <trkpt lat="36.775954" lon="127.127592">
        <ele>37.1</ele>
      </trkpt>
      <trkpt lat="36.774795" lon="127.126593">
        <ele>38.7</ele>
      </trkpt>
      <trkpt lat="36.773791" lon="127.12521">
        <ele>40.6</ele>
      </trkpt>
      <trkpt lat="36.773401" lon="127.125197">
        <ele>41.2</ele>
      </trkpt>
      <trkpt lat="36.768097" lon="127.132052">
        <ele>41.1</ele>
      </trkpt>
      <trkpt lat="36.766605" lon="127.131188">
        <ele>41.0</ele>
      </trkpt>
      <trkpt lat="36.764867" lon="127.129579">
        <ele>41.1</ele>
      </trkpt>
      <trkpt lat="36.7618579" lon="127.128277">
        <ele>41.1</ele>
      </trkpt>
      <trkpt lat="36.759915" lon="127.128101">
        <ele>41.1</ele>
      </trkpt>
      <trkpt lat="36.758578" lon="127.127806">
        <ele>40.6</ele>
      </trkpt>
      <trkpt lat="36.75718" lon="127.127804">
        <ele>39.4</ele>
      </trkpt>
      <trkpt lat="36.753515" lon="127.127389">
        <ele>38.3</ele>
      </trkpt>
      <trkpt lat="36.7521259" lon="127.126813">
        <ele>37.3</ele>
      </trkpt>
      <trkpt lat="36.750405" lon="127.125859">
        <ele>35.7</ele>
      </trkpt>
      <trkpt lat="36.7493089" lon="127.126405">
        <ele>33.6</ele>
      </trkpt>
      <trkpt lat="36.747898" lon="127.126486">
        <ele>33.1</ele>
      </trkpt>
      <trkpt lat="36.745134" lon="127.126118">
        <ele>32.6</ele>
      </trkpt>
      <trkpt lat="36.742776" lon="127.126148">
        <ele>32.2</ele>
      </trkpt>
      <trkpt lat="36.74129" lon="127.125927">
        <ele>32.5</ele>
      </trkpt>
      <trkpt lat="36.737818" lon="127.124734">
        <ele>33.3</ele>
      </trkpt>
      <trkpt lat="36.735348" lon="127.123472">
        <ele>34.2</ele>
      </trkpt>
      <trkpt lat="36.729812" lon="127.121266">
        <ele>34.9</ele>
      </trkpt>
      <trkpt lat="36.7285169" lon="127.120484">
        <ele>35.6</ele>
      </trkpt>
      <trkpt lat="36.727391" lon="127.119526">
        <ele>36.4</ele>
      </trkpt>
      <trkpt lat="36.726636" lon="127.119216">
        <ele>37.5</ele>
      </trkpt>
      <trkpt lat="36.725176" lon="127.119157">
        <ele>39.6</ele>
      </trkpt>
      <trkpt lat="36.724862" lon="127.119236">
        <ele>42.5</ele>
      </trkpt>
      <trkpt lat="36.723871" lon="127.119854">
        <ele>45.4</ele>
      </trkpt>
      <trkpt lat="36.720322" lon="127.120318">
        <ele>48.9</ele>
      </trkpt>
      <trkpt lat="36.719887" lon="127.120259">
        <ele>50.8</ele>
      </trkpt>
      <trkpt lat="36.7181039" lon="127.119053">
        <ele>52.5</ele>
      </trkpt>
      <trkpt lat="36.714727" lon="127.117888">
        <ele>54.9</ele>
      </trkpt>
      <trkpt lat="36.70728" lon="127.111646">
        <ele>57.2</ele>
      </trkpt>
      <trkpt lat="36.701718" lon="127.10379">
        <ele>59.3</ele>
      </trkpt>
      <trkpt lat="36.6985249" lon="127.098283">
        <ele>61.9</ele>
      </trkpt>
      <trkpt lat="36.695514" lon="127.092313">
        <ele>64.5</ele>
      </trkpt>
      <trkpt lat="36.693532" lon="127.090431">
        <ele>67.5</ele>
      </trkpt>
      <trkpt lat="36.691648" lon="127.088224">
        <ele>71.5</ele>
      </trkpt>
      <trkpt lat="36.689136" lon="127.086132">
        <ele>75.6</ele>
      </trkpt>
      <trkpt lat="36.688463" lon="127.085306">
        <ele>78.6</ele>
      </trkpt>
      <trkpt lat="36.687937" lon="127.083959">
        <ele>80.9</ele>
      </trkpt>
      <trkpt lat="36.687501" lon="127.081007">
        <ele>83.3</ele>
      </trkpt>
      <trkpt lat="36.686988" lon="127.079582">
        <ele>85.3</ele>
      </trkpt>
      <trkpt lat="36.684598" lon="127.078149">
        <ele>87.7</ele>
      </trkpt>
      <trkpt lat="36.683363" lon="127.076957">
        <ele>91.8</ele>
      </trkpt>
      <trkpt lat="36.6796" lon="127.070762">
        <ele>95.4</ele>
      </trkpt>
      <trkpt lat="36.679248" lon="127.06957">
        <ele>98.6</ele>
      </trkpt>
      <trkpt lat="36.678408" lon="127.065553">
        <ele>102.5</ele>
      </trkpt>
      <trkpt lat="36.6786109" lon="127.062657">
        <ele>106.4</ele>
      </trkpt>
      <trkpt lat="36.678534" lon="127.061953">
        <ele>111.1</ele>
      </trkpt>
      <trkpt lat="36.67686" lon="127.055439">
        <ele>115.5</ele>
      </trkpt>
      <trkpt lat="36.674196" lon="127.052322">
        <ele>120.2</ele>
      </trkpt>
      <trkpt lat="36.67302" lon="127.051187">
        <ele>125.6</ele>
      </trkpt>
      <trkpt lat="36.672969" lon="127.051093">
        <ele>131.1</ele>
      </trkpt>
      <trkpt lat="36.671402" lon="127.049385">
        <ele>137.1</ele>
      </trkpt>
      <trkpt lat="36.670461" lon="127.047837">
        <ele>145.1</ele>
      </trkpt>
      <trkpt lat="36.669813" lon="127.047244">
        <ele>155.7</ele>
      </trkpt>
      <trkpt lat="36.668953" lon="127.046933">
        <ele>166.3</ele>
      </trkpt>
      <trkpt lat="36.665486" lon="127.046839">
        <ele>176.1</ele>
      </trkpt>
      <trkpt lat="36.664248" lon="127.046547">
        <ele>185.3</ele>
      </trkpt>
      <trkpt lat="36.663438" lon="127.046232">
        <ele>194.0</ele>
      </trkpt>
      <trkpt lat="36.662132" lon="127.045384">
        <ele>202.7</ele>
      </trkpt>
      <trkpt lat="36.659059" lon="127.04254">
        <ele>209.5</ele>
      </trkpt>
      <trkpt lat="36.657208" lon="127.041473">
        <ele>213.3</ele>
      </trkpt>
      <trkpt lat="36.657192" lon="127.04142">
        <ele>216.3</ele>
      </trkpt>
      <trkpt lat="36.657189" lon="127.04135">
        <ele>219.3</ele>
      </trkpt>
      <trkpt lat="36.657189" lon="127.04135">
        <ele>222.4</ele>
      </trkpt>
      <trkpt lat="36.6512249" lon="127.039864">
        <ele>224.3</ele>
      </trkpt>
      <trkpt lat="36.651321" lon="127.039948">
        <ele>227.3</ele>
      </trkpt>
      <trkpt lat="36.650536" lon="127.039822">
        <ele>229.6</ele>
      </trkpt>
      <trkpt lat="36.647387" lon="127.039871">
        <ele>232.5</ele>
      </trkpt>
      <trkpt lat="36.6466179" lon="127.039751">
        <ele>232.1</ele>
      </trkpt>
      <trkpt lat="36.6455849" lon="127.039378">
        <ele>232.2</ele>
      </trkpt>
      <trkpt lat="36.6438599" lon="127.038202">
        <ele>232.3</ele>
      </trkpt>
      <trkpt lat="36.6424" lon="127.036868">
        <ele>236.0</ele>
      </trkpt>
      <trkpt lat="36.6417069" lon="127.036645">
        <ele>243.0</ele>
      </trkpt>
      <trkpt lat="36.640188" lon="127.036444">
        <ele>251.8</ele>
      </trkpt>
      <trkpt lat="36.637112" lon="127.034075">
        <ele>260.7</ele>
      </trkpt>
      <trkpt lat="36.635246" lon="127.033579">
        <ele>272.5</ele>
      </trkpt>
      <trkpt lat="36.633881" lon="127.033533">
        <ele>283.6</ele>
      </trkpt>
      <trkpt lat="36.633334" lon="127.033375">
        <ele>294.4</ele>
      </trkpt>
      <trkpt lat="36.630308" lon="127.031124">
        <ele>302.7</ele>
      </trkpt>
      <trkpt lat="36.628354" lon="127.03034">
        <ele>310.1</ele>
      </trkpt>
      <trkpt lat="36.627178" lon="127.029575">
        <ele>315.3</ele>
      </trkpt>
      <trkpt lat="36.623205" lon="127.027756">
        <ele>321.2</ele>
      </trkpt>
      <trkpt lat="36.622244" lon="127.026886">
        <ele>324.3</ele>
      </trkpt>
      <trkpt lat="36.620833" lon="127.026576">
        <ele>329.1</ele>
      </trkpt>
      <trkpt lat="36.618879" lon="127.025726">
        <ele>333.3</ele>
      </trkpt>
      <trkpt lat="36.616648" lon="127.025091">
        <ele>339.0</ele>
      </trkpt>
      <trkpt lat="36.614682" lon="127.02328">
        <ele>340.3</ele>
      </trkpt>
      <trkpt lat="36.6137159" lon="127.021878">
        <ele>340.8</ele>
      </trkpt>
      <trkpt lat="36.6126099" lon="127.019673">
        <ele>339.7</ele>
      </trkpt>
      <trkpt lat="36.612373" lon="127.019775">
        <ele>341.0</ele>
      </trkpt>
      <trkpt lat="36.611576" lon="127.020658">
        <ele>342.3</ele>
      </trkpt>
      <trkpt lat="36.611181" lon="127.021883">
        <ele>343.2</ele>
      </trkpt>
      <trkpt lat="36.610726" lon="127.022431">
        <ele>342.6</ele>
      </trkpt>
      <trkpt lat="36.609504" lon="127.022629">
        <ele>345.7</ele>
      </trkpt>
      <trkpt lat="36.608482" lon="127.022196">
        <ele>347.9</ele>
      </trkpt>
      <trkpt lat="36.6074709" lon="127.02219">
        <ele>349.3</ele>
      </trkpt>
      <trkpt lat="36.606626" lon="127.022005">
        <ele>349.1</ele>
      </trkpt>
      <trkpt lat="36.604358" lon="127.022687">
        <ele>349.1</ele>
      </trkpt>
      <trkpt lat="36.603838" lon="127.022608">
        <ele>346.2</ele>
      </trkpt>
      <trkpt lat="36.601549" lon="127.021778">
        <ele>343.1</ele>
      </trkpt>
      <trkpt lat="36.599593" lon="127.020798">
        <ele>337.4</ele>
      </trkpt>
      <trkpt lat="36.5989" lon="127.020736">
        <ele>332.5</ele>
      </trkpt>
      <trkpt lat="36.598092" lon="127.020139">
        <ele>326.7</ele>
      </trkpt>
      <trkpt lat="36.596122" lon="127.02005">
        <ele>320.7</ele>
      </trkpt>
      <trkpt lat="36.595204" lon="127.01979">
        <ele>311.9</ele>
      </trkpt>
      <trkpt lat="36.594341" lon="127.020132">
        <ele>303.6</ele>
      </trkpt>
      <trkpt lat="36.592636" lon="127.020402">
        <ele>295.3</ele>
      </trkpt>
      <trkpt lat="36.590908" lon="127.020121">
        <ele>288.4</ele>
      </trkpt>
      <trkpt lat="36.589427" lon="127.019439">
        <ele>279.9</ele>
      </trkpt>
      <trkpt lat="36.5881789" lon="127.018711">
        <ele>272.4</ele>
      </trkpt>
      <trkpt lat="36.587215" lon="127.019091">
        <ele>267.8</ele>
      </trkpt>
      <trkpt lat="36.586457" lon="127.019563">
        <ele>264.1</ele>
      </trkpt>
      <trkpt lat="36.584048" lon="127.019945">
        <ele>259.3</ele>
      </trkpt>
      <trkpt lat="36.583531" lon="127.020218">
        <ele>255.9</ele>
      </trkpt>
      <trkpt lat="36.583196" lon="127.02025">
        <ele>253.1</ele>
      </trkpt>
      <trkpt lat="36.582741" lon="127.020078">
        <ele>251.3</ele>
      </trkpt>
      <trkpt lat="36.581279" lon="127.019171">
        <ele>250.6</ele>
      </trkpt>
      <trkpt lat="36.580194" lon="127.019052">
        <ele>247.3</ele>
      </trkpt>
      <trkpt lat="36.579182" lon="127.018631">
        <ele>244.2</ele>
      </trkpt>
      <trkpt lat="36.578704" lon="127.018344">
        <ele>240.1</ele>
      </trkpt>
      <trkpt lat="36.578467" lon="127.018015">
        <ele>237.7</ele>
      </trkpt>
      <trkpt lat="36.578095" lon="127.01847">
        <ele>233.9</ele>
      </trkpt>
      <trkpt lat="36.577905" lon="127.018496">
        <ele>230.0</ele>
      </trkpt>
      <trkpt lat="36.577277" lon="127.01809">
        <ele>225.8</ele>
      </trkpt>
      <trkpt lat="36.575775" lon="127.017827">
        <ele>220.7</ele>
      </trkpt>
      <trkpt lat="36.573407" lon="127.016953">
        <ele>213.4</ele>
      </trkpt>
      <trkpt lat="36.571126" lon="127.017519">
        <ele>205.1</ele>
      </trkpt>
      <trkpt lat="36.569296" lon="127.017498">
        <ele>196.7</ele>
      </trkpt>
      <trkpt lat="36.568688" lon="127.01793">
        <ele>187.7</ele>
      </trkpt>
      <trkpt lat="36.56786" lon="127.017742">
        <ele>178.7</ele>
      </trkpt>
      <trkpt lat="36.567166" lon="127.018098">
        <ele>169.7</ele>
      </trkpt>
      <trkpt lat="36.566001" lon="127.017896">
        <ele>159.5</ele>
      </trkpt>
      <trkpt lat="36.565076" lon="127.017913">
        <ele>151.0</ele>
      </trkpt>
      <trkpt lat="36.563414" lon="127.018748">
        <ele>142.1</ele>
      </trkpt>
      <trkpt lat="36.56213" lon="127.020526">
        <ele>135.6</ele>
      </trkpt>
      <trkpt lat="36.561039" lon="127.020828">
        <ele>126.9</ele>
      </trkpt>
      <trkpt lat="36.560363" lon="127.020603">
        <ele>120.6</ele>
      </trkpt>
      <trkpt lat="36.5593999" lon="127.02116">
        <ele>115.1</ele>
      </trkpt>
      <trkpt lat="36.55892" lon="127.02139">
        <ele>110.0</ele>
      </trkpt>
      <trkpt lat="36.55877" lon="127.02139">
        <ele>106.5</ele>
      </trkpt>
      <trkpt lat="36.55804" lon="127.0213">
        <ele>104.2</ele>
      </trkpt>
      <trkpt lat="36.55742" lon="127.02116">
        <ele>94.0</ele>
      </trkpt>
      <trkpt lat="36.55742" lon="127.02116">
        <ele>103.7</ele>
      </trkpt>
      <trkpt lat="36.55742" lon="127.02116">
        <ele>104.1</ele>
      </trkpt>
      <trkpt lat="36.55804" lon="127.0213">
        <ele>104.9</ele>
      </trkpt>
      <trkpt lat="36.55877" lon="127.02139">
        <ele>105.4</ele>
      </trkpt>
      <trkpt lat="36.55892" lon="127.02139">
        <ele>105.8</ele>
      </trkpt>
      <trkpt lat="36.55918" lon="127.02126">
        <ele>106.6</ele>
      </trkpt>
      <trkpt lat="36.559222" lon="127.021241">
        <ele>107.5</ele>
      </trkpt>
      <trkpt lat="36.559265" lon="127.021223">
        <ele>108.7</ele>
      </trkpt>
      <trkpt lat="36.559278" lon="127.021218">
        <ele>109.8</ele>
      </trkpt>
      <trkpt lat="36.559297" lon="127.021269">
        <ele>110.1</ele>
      </trkpt>
      <trkpt lat="36.559316" lon="127.021319">
        <ele>111.0</ele>
      </trkpt>
      <trkpt lat="36.559331" lon="127.021361">
        <ele>113.1</ele>
      </trkpt>
      <trkpt lat="36.559349" lon="127.021412">
        <ele>113.9</ele>
      </trkpt>
      <trkpt lat="36.559367" lon="127.021464">
        <ele>113.5</ele>
      </trkpt>
      <trkpt lat="36.559377" lon="127.021495">
        <ele>113.1</ele>
      </trkpt>
      <trkpt lat="36.559433" lon="127.02155">
        <ele>112.2</ele>
      </trkpt>
      <trkpt lat="36.559643" lon="127.022026">
        <ele>111.2</ele>
      </trkpt>
      <trkpt lat="36.5580489" lon="127.023483">
        <ele>110.5</ele>
      </trkpt>
      <trkpt lat="36.556519" lon="127.024633">
        <ele>109.9</ele>
      </trkpt>
      <trkpt lat="36.556038" lon="127.025537">
        <ele>109.3</ele>
      </trkpt>
      <trkpt lat="36.556082" lon="127.026603">
        <ele>108.7</ele>
      </trkpt>
      <trkpt lat="36.555937" lon="127.027261">
        <ele>108.1</ele>
      </trkpt>
      <trkpt lat="36.555668" lon="127.027509">
        <ele>107.6</ele>
      </trkpt>
      <trkpt lat="36.554931" lon="127.027742">
        <ele>109.2</ele>
      </trkpt>
      <trkpt lat="36.553981" lon="127.028469">
        <ele>110.1</ele>
      </trkpt>
      <trkpt lat="36.553677" lon="127.028796">
        <ele>110.5</ele>
      </trkpt>
      <trkpt lat="36.55343" lon="127.029323">
        <ele>109.1</ele>
      </trkpt>
      <trkpt lat="36.55336" lon="127.029976">
        <ele>108.9</ele>
      </trkpt>
      <trkpt lat="36.5535039" lon="127.030466">
        <ele>109.7</ele>
      </trkpt>
      <trkpt lat="36.553862" lon="127.030831">
        <ele>112.1</ele>
      </trkpt>
      <trkpt lat="36.555033" lon="127.031474">
        <ele>113.9</ele>
      </trkpt>
      <trkpt lat="36.555409" lon="127.031888">
        <ele>115.1</ele>
      </trkpt>
      <trkpt lat="36.555724" lon="127.03253">
        <ele>115.9</ele>
      </trkpt>
      <trkpt lat="36.556117" lon="127.033918">
        <ele>117.6</ele>
      </trkpt>
      <trkpt lat="36.556402" lon="127.034245">
        <ele>119.3</ele>
      </trkpt>
      <trkpt lat="36.556906" lon="127.034409">
        <ele>120.9</ele>
      </trkpt>
      <trkpt lat="36.558337" lon="127.033853">
        <ele>123.7</ele>
      </trkpt>
      <trkpt lat="36.559169" lon="127.03396">
        <ele>128.1</ele>
      </trkpt>
      <trkpt lat="36.5595659" lon="127.034209">
        <ele>130.4</ele>
      </trkpt>
      <trkpt lat="36.559939" lon="127.034634">
        <ele>133.2</ele>
      </trkpt>
      <trkpt lat="36.561094" lon="127.037073">
        <ele>135.0</ele>
      </trkpt>
      <trkpt lat="36.561381" lon="127.037431">
        <ele>137.0</ele>
      </trkpt>
      <trkpt lat="36.561689" lon="127.037551">
        <ele>139.7</ele>
      </trkpt>
      <trkpt lat="36.562145" lon="127.037426">
        <ele>141.1</ele>
      </trkpt>
      <trkpt lat="36.56284" lon="127.036463">
        <ele>141.1</ele>
      </trkpt>
      <trkpt lat="36.563132" lon="127.036346">
        <ele>142.3</ele>
      </trkpt>
      <trkpt lat="36.56346" lon="127.036369">
        <ele>144.5</ele>
      </trkpt>
      <trkpt lat="36.565412" lon="127.03812">
        <ele>146.6</ele>
      </trkpt>
      <trkpt lat="36.567911" lon="127.039434">
        <ele>148.0</ele>
      </trkpt>
      <trkpt lat="36.570258" lon="127.039935">
        <ele>149.9</ele>
      </trkpt>
      <trkpt lat="36.573797" lon="127.039959">
        <ele>151.7</ele>
      </trkpt>
      <trkpt lat="36.575051" lon="127.039668">
        <ele>152.2</ele>
      </trkpt>
      <trkpt lat="36.575612" lon="127.039733">
        <ele>151.1</ele>
      </trkpt>
      <trkpt lat="36.576322" lon="127.040253">
        <ele>150.3</ele>
      </trkpt>
      <trkpt lat="36.576639" lon="127.04064">
        <ele>150.7</ele>
      </trkpt>
      <trkpt lat="36.577897" lon="127.043502">
        <ele>152.7</ele>
      </trkpt>
      <trkpt lat="36.579503" lon="127.044982">
        <ele>154.0</ele>
      </trkpt>
      <trkpt lat="36.580103" lon="127.045863">
        <ele>154.9</ele>
      </trkpt>
      <trkpt lat="36.580504" lon="127.04611">
        <ele>157.5</ele>
      </trkpt>
      <trkpt lat="36.580826" lon="127.046169">
        <ele>160.5</ele>
      </trkpt>
      <trkpt lat="36.5818889" lon="127.045837">
        <ele>162.7</ele>
      </trkpt>
      <trkpt lat="36.582299" lon="127.045884">
        <ele>165.3</ele>
      </trkpt>
      <trkpt lat="36.582612" lon="127.046171">
        <ele>167.0</ele>
      </trkpt>
      <trkpt lat="36.583249" lon="127.047334">
        <ele>170.2</ele>
      </trkpt>
      <trkpt lat="36.583789" lon="127.047734">
        <ele>171.7</ele>
      </trkpt>
      <trkpt lat="36.584271" lon="127.047716">
        <ele>173.9</ele>
      </trkpt>
      <trkpt lat="36.586489" lon="127.046933">
        <ele>177.7</ele>
      </trkpt>
      <trkpt lat="36.587123" lon="127.046963">
        <ele>181.7</ele>
      </trkpt>
      <trkpt lat="36.587831" lon="127.047293">
        <ele>184.6</ele>
      </trkpt>
      <trkpt lat="36.588223" lon="127.04765">
        <ele>187.5</ele>
      </trkpt>
      <trkpt lat="36.589235" lon="127.049135">
        <ele>189.2</ele>
      </trkpt>
      <trkpt lat="36.589657" lon="127.049337">
        <ele>191.9</ele>
      </trkpt>
      <trkpt lat="36.590342" lon="127.049345">
        <ele>195.1</ele>
      </trkpt>
      <trkpt lat="36.591588" lon="127.049152">
        <ele>197.5</ele>
      </trkpt>
      <trkpt lat="36.5924679" lon="127.048847">
        <ele>200.5</ele>
      </trkpt>
      <trkpt lat="36.593289" lon="127.048367">
        <ele>203.5</ele>
      </trkpt>
      <trkpt lat="36.595051" lon="127.048103">
        <ele>206.5</ele>
      </trkpt>
      <trkpt lat="36.59657" lon="127.047519">
        <ele>211.9</ele>
      </trkpt>
      <trkpt lat="36.597104" lon="127.04723">
        <ele>215.6</ele>
      </trkpt>
      <trkpt lat="36.598116" lon="127.046082">
        <ele>220.9</ele>
      </trkpt>
      <trkpt lat="36.5983949" lon="127.045886">
        <ele>225.9</ele>
      </trkpt>
      <trkpt lat="36.59874" lon="127.045818">
        <ele>228.5</ele>
      </trkpt>
      <trkpt lat="36.600356" lon="127.046251">
        <ele>229.8</ele>
      </trkpt>
      <trkpt lat="36.601636" lon="127.047519">
        <ele>231.9</ele>
      </trkpt>
      <trkpt lat="36.6033789" lon="127.048157">
        <ele>232.6</ele>
      </trkpt>
      <trkpt lat="36.603523" lon="127.048393">
        <ele>233.3</ele>
      </trkpt>
      <trkpt lat="36.60366" lon="127.049414">
        <ele>233.7</ele>
      </trkpt>
      <trkpt lat="36.603975" lon="127.049759">
        <ele>232.1</ele>
      </trkpt>
      <trkpt lat="36.605644" lon="127.049513">
        <ele>230.4</ele>
      </trkpt>
      <trkpt lat="36.60761" lon="127.048636">
        <ele>225.6</ele>
      </trkpt>
      <trkpt lat="36.608225" lon="127.048608">
        <ele>221.4</ele>
      </trkpt>
      <trkpt lat="36.608603" lon="127.048782">
        <ele>216.7</ele>
      </trkpt>
      <trkpt lat="36.609019" lon="127.049236">
        <ele>210.7</ele>
      </trkpt>
      <trkpt lat="36.609924" lon="127.049848">
        <ele>203.9</ele>
      </trkpt>
      <trkpt lat="36.612254" lon="127.051073">
        <ele>196.2</ele>
      </trkpt>
      <trkpt lat="36.613781" lon="127.051612">
        <ele>189.5</ele>
      </trkpt>
      <trkpt lat="36.615605" lon="127.05285">
        <ele>181.8</ele>
      </trkpt>
      <trkpt lat="36.617483" lon="127.05386">
        <ele>174.7</ele>
      </trkpt>
      <trkpt lat="36.617879" lon="127.053957">
        <ele>167.7</ele>
      </trkpt>
      <trkpt lat="36.618858" lon="127.053935">
        <ele>161.8</ele>
      </trkpt>
      <trkpt lat="36.620395" lon="127.054412">
        <ele>156.6</ele>
      </trkpt>
      <trkpt lat="36.62198" lon="127.055304">
        <ele>151.2</ele>
      </trkpt>
      <trkpt lat="36.6233519" lon="127.055811">
        <ele>146.6</ele>
      </trkpt>
      <trkpt lat="36.623739" lon="127.056113">
        <ele>141.6</ele>
      </trkpt>
      <trkpt lat="36.624244" lon="127.056775">
        <ele>138.3</ele>
      </trkpt>
      <trkpt lat="36.624758" lon="127.058302">
        <ele>135.5</ele>
      </trkpt>
      <trkpt lat="36.62583" lon="127.059877">
        <ele>132.7</ele>
      </trkpt>
      <trkpt lat="36.626285" lon="127.060341">
        <ele>129.1</ele>
      </trkpt>
      <trkpt lat="36.627482" lon="127.061159">
        <ele>126.3</ele>
      </trkpt>
      <trkpt lat="36.628305" lon="127.062849">
        <ele>124.1</ele>
      </trkpt>
      <trkpt lat="36.629596" lon="127.064428">
        <ele>121.0</ele>
      </trkpt>
      <trkpt lat="36.630169" lon="127.065307">
        <ele>119.5</ele>
      </trkpt>
      <trkpt lat="36.630218" lon="127.065732">
        <ele>117.9</ele>
      </trkpt>
      <trkpt lat="36.630104" lon="127.066169">
        <ele>116.0</ele>
      </trkpt>
      <trkpt lat="36.628982" lon="127.068059">
        <ele>114.1</ele>
      </trkpt>
      <trkpt lat="36.6285669" lon="127.069367">
        <ele>112.2</ele>
      </trkpt>
      <trkpt lat="36.628571" lon="127.069836">
        <ele>110.3</ele>
      </trkpt>
      <trkpt lat="36.629183" lon="127.071709">
        <ele>108.8</ele>
      </trkpt>
      <trkpt lat="36.6295209" lon="127.072056">
        <ele>107.7</ele>
      </trkpt>
      <trkpt lat="36.630763" lon="127.072532">
        <ele>106.5</ele>
      </trkpt>
      <trkpt lat="36.632088" lon="127.072655">
        <ele>105.1</ele>
      </trkpt>
      <trkpt lat="36.632762" lon="127.072856">
        <ele>103.5</ele>
      </trkpt>
      <trkpt lat="36.633075" lon="127.073037">
        <ele>102.1</ele>
      </trkpt>
      <trkpt lat="36.633266" lon="127.073413">
        <ele>99.9</ele>
      </trkpt>
      <trkpt lat="36.633289" lon="127.073951">
        <ele>97.7</ele>
      </trkpt>
      <trkpt lat="36.633104" lon="127.07444">
        <ele>95.1</ele>
      </trkpt>
      <trkpt lat="36.631934" lon="127.075496">
        <ele>92.3</ele>
      </trkpt>
      <trkpt lat="36.630548" lon="127.07815">
        <ele>89.9</ele>
      </trkpt>
      <trkpt lat="36.629419" lon="127.079089">
        <ele>87.7</ele>
      </trkpt>
      <trkpt lat="36.6281109" lon="127.081286">
        <ele>85.7</ele>
      </trkpt>
      <trkpt lat="36.622298" lon="127.090103">
        <ele>84.4</ele>
      </trkpt>
      <trkpt lat="36.620999" lon="127.093752">
        <ele>84.3</ele>
      </trkpt>
      <trkpt lat="36.620824" lon="127.095497">
        <ele>82.1</ele>
      </trkpt>
      <trkpt lat="36.620366" lon="127.097694">
        <ele>80.1</ele>
      </trkpt>
      <trkpt lat="36.620201" lon="127.100563">
        <ele>78.0</ele>
      </trkpt>
      <trkpt lat="36.620449" lon="127.101608">
        <ele>75.9</ele>
      </trkpt>
      <trkpt lat="36.620416" lon="127.102089">
        <ele>74.2</ele>
      </trkpt>
      <trkpt lat="36.619328" lon="127.104249">
        <ele>72.5</ele>
      </trkpt>
      <trkpt lat="36.618854" lon="127.105519">
        <ele>72.0</ele>
      </trkpt>
      <trkpt lat="36.617911" lon="127.106876">
        <ele>71.4</ele>
      </trkpt>
      <trkpt lat="36.616588" lon="127.109321">
        <ele>70.3</ele>
      </trkpt>
      <trkpt lat="36.615423" lon="127.111774">
        <ele>69.4</ele>
      </trkpt>
      <trkpt lat="36.614222" lon="127.114732">
        <ele>68.7</ele>
      </trkpt>
      <trkpt lat="36.613853" lon="127.116496">
        <ele>68.1</ele>
      </trkpt>
      <trkpt lat="36.612772" lon="127.118619">
        <ele>67.5</ele>
      </trkpt>
      <trkpt lat="36.612335" lon="127.120863">
        <ele>66.1</ele>
      </trkpt>
      <trkpt lat="36.612077" lon="127.12156">
        <ele>63.6</ele>
      </trkpt>
      <trkpt lat="36.611928" lon="127.121716">
        <ele>62.5</ele>
      </trkpt>
      <trkpt lat="36.609814" lon="127.121203">
        <ele>61.0</ele>
      </trkpt>
      <trkpt lat="36.609516" lon="127.121008">
        <ele>60.1</ele>
      </trkpt>
      <trkpt lat="36.609515" lon="127.121008">
        <ele>61.0</ele>
      </trkpt>
      <trkpt lat="36.607784" lon="127.12001">
        <ele>59.9</ele>
      </trkpt>
      <trkpt lat="36.606989" lon="127.119687">
        <ele>59.1</ele>
      </trkpt>
      <trkpt lat="36.606816" lon="127.119707">
        <ele>59.2</ele>
      </trkpt>
      <trkpt lat="36.606665" lon="127.119942">
        <ele>58.8</ele>
      </trkpt>
      <trkpt lat="36.606369" lon="127.122146">
        <ele>58.4</ele>
      </trkpt>
      <trkpt lat="36.605956" lon="127.123235">
        <ele>59.8</ele>
      </trkpt>
      <trkpt lat="36.604741" lon="127.12528">
        <ele>60.7</ele>
      </trkpt>
      <trkpt lat="36.602142" lon="127.12884">
        <ele>61.6</ele>
      </trkpt>
      <trkpt lat="36.601907" lon="127.129547">
        <ele>62.8</ele>
      </trkpt>
      <trkpt lat="36.601649" lon="127.13154">
        <ele>64.4</ele>
      </trkpt>
      <trkpt lat="36.601154" lon="127.133722">
        <ele>66.3</ele>
      </trkpt>
      <trkpt lat="36.601233" lon="127.134335">
        <ele>68.7</ele>
      </trkpt>
      <trkpt lat="36.601756" lon="127.136158">
        <ele>71.5</ele>
      </trkpt>
      <trkpt lat="36.601763" lon="127.138012">
        <ele>74.7</ele>
      </trkpt>
      <trkpt lat="36.602008" lon="127.13932">
        <ele>78.2</ele>
      </trkpt>
      <trkpt lat="36.602201" lon="127.142106">
        <ele>81.9</ele>
      </trkpt>
      <trkpt lat="36.602057" lon="127.14301">
        <ele>86.3</ele>
      </trkpt>
      <trkpt lat="36.601182" lon="127.145632">
        <ele>90.5</ele>
      </trkpt>
      <trkpt lat="36.600622" lon="127.146118">
        <ele>94.7</ele>
      </trkpt>
      <trkpt lat="36.597911" lon="127.146926">
        <ele>99.0</ele>
      </trkpt>
      <trkpt lat="36.596061" lon="127.147013">
        <ele>103.6</ele>
      </trkpt>
      <trkpt lat="36.594069" lon="127.146905">
        <ele>108.7</ele>
      </trkpt>
      <trkpt lat="36.592126" lon="127.147222">
        <ele>113.8</ele>
      </trkpt>
      <trkpt lat="36.590187" lon="127.147094">
        <ele>120.1</ele>
      </trkpt>
      <trkpt lat="36.588143" lon="127.147682">
        <ele>127.2</ele>
      </trkpt>
      <trkpt lat="36.586194" lon="127.14877">
        <ele>134.0</ele>
      </trkpt>
      <trkpt lat="36.585247" lon="127.148899">
        <ele>141.3</ele>
      </trkpt>
      <trkpt lat="36.584015" lon="127.148662">
        <ele>150.1</ele>
      </trkpt>
      <trkpt lat="36.583747" lon="127.148724">
        <ele>157.5</ele>
      </trkpt>
      <trkpt lat="36.583464" lon="127.148898">
        <ele>164.9</ele>
      </trkpt>
      <trkpt lat="36.583194" lon="127.149315">
        <ele>170.4</ele>
      </trkpt>
      <trkpt lat="36.583004" lon="127.150475">
        <ele>174.2</ele>
      </trkpt>
      <trkpt lat="36.582768" lon="127.150931">
        <ele>177.6</ele>
      </trkpt>
      <trkpt lat="36.581549" lon="127.152307">
        <ele>180.5</ele>
      </trkpt>
      <trkpt lat="36.580165" lon="127.154794">
        <ele>182.3</ele>
      </trkpt>
      <trkpt lat="36.579696" lon="127.155051">
        <ele>181.4</ele>
      </trkpt>
      <trkpt lat="36.578862" lon="127.154988">
        <ele>179.9</ele>
      </trkpt>
      <trkpt lat="36.578355" lon="127.155206">
        <ele>178.1</ele>
      </trkpt>
      <trkpt lat="36.577703" lon="127.15594">
        <ele>174.3</ele>
      </trkpt>
      <trkpt lat="36.577428" lon="127.156818">
        <ele>169.0</ele>
      </trkpt>
      <trkpt lat="36.577483" lon="127.15769">
        <ele>163.7</ele>
      </trkpt>
      <trkpt lat="36.577756" lon="127.15839">
        <ele>158.1</ele>
      </trkpt>
      <trkpt lat="36.580512" lon="127.16209">
        <ele>150.5</ele>
      </trkpt>
      <trkpt lat="36.58115" lon="127.162395">
        <ele>143.1</ele>
      </trkpt>
      <trkpt lat="36.585507" lon="127.163393">
        <ele>135.1</ele>
      </trkpt>
      <trkpt lat="36.586354" lon="127.164006">
        <ele>128.2</ele>
      </trkpt>
      <trkpt lat="36.587217" lon="127.165277">
        <ele>122.5</ele>
      </trkpt>
      <trkpt lat="36.587171" lon="127.165698">
        <ele>117.1</ele>
      </trkpt>
      <trkpt lat="36.585685" lon="127.167099">
        <ele>112.3</ele>
      </trkpt>
      <trkpt lat="36.584525" lon="127.167924">
        <ele>108.6</ele>
      </trkpt>
      <trkpt lat="36.582354" lon="127.168942">
        <ele>106.5</ele>
      </trkpt>
      <trkpt lat="36.580687" lon="127.170448">
        <ele>105.0</ele>
      </trkpt>
      <trkpt lat="36.580563" lon="127.170692">
        <ele>104.1</ele>
      </trkpt>
      <trkpt lat="36.5808" lon="127.171759">
        <ele>103.7</ele>
      </trkpt>
      <trkpt lat="36.581278" lon="127.173115">
        <ele>104.0</ele>
      </trkpt>
      <trkpt lat="36.581594" lon="127.17371">
        <ele>104.5</ele>
      </trkpt>
      <trkpt lat="36.582473" lon="127.174663">
        <ele>104.9</ele>
      </trkpt>
      <trkpt lat="36.582972" lon="127.175484">
        <ele>107.7</ele>
      </trkpt>
      <trkpt lat="36.583286" lon="127.176824">
        <ele>110.0</ele>
      </trkpt>
      <trkpt lat="36.583832" lon="127.178203">
        <ele>112.3</ele>
      </trkpt>
      <trkpt lat="36.5839659" lon="127.179658">
        <ele>113.5</ele>
      </trkpt>
      <trkpt lat="36.58459" lon="127.181359">
        <ele>113.9</ele>
      </trkpt>
      <trkpt lat="36.584876" lon="127.183369">
        <ele>113.6</ele>
      </trkpt>
      <trkpt lat="36.585681" lon="127.186773">
        <ele>113.0</ele>
      </trkpt>
      <trkpt lat="36.585952" lon="127.189609">
        <ele>111.8</ele>
      </trkpt>
      <trkpt lat="36.587234" lon="127.192894">
        <ele>109.9</ele>
      </trkpt>
      <trkpt lat="36.5873739" lon="127.193629">
        <ele>107.7</ele>
      </trkpt>
      <trkpt lat="36.5874809" lon="127.195701">
        <ele>105.4</ele>
      </trkpt>
      <trkpt lat="36.588693" lon="127.199762">
        <ele>102.9</ele>
      </trkpt>
      <trkpt lat="36.589685" lon="127.201844">
        <ele>99.9</ele>
      </trkpt>
      <trkpt lat="36.590317" lon="127.20399">
        <ele>96.8</ele>
      </trkpt>
      <trkpt lat="36.591643" lon="127.20603">
        <ele>93.0</ele>
      </trkpt>
      <trkpt lat="36.592798" lon="127.209493">
        <ele>87.2</ele>
      </trkpt>
      <trkpt lat="36.594493" lon="127.212868">
        <ele>82.7</ele>
      </trkpt>
      <trkpt lat="36.59463" lon="127.213381">
        <ele>78.5</ele>
      </trkpt>
      <trkpt lat="36.594991" lon="127.216979">
        <ele>75.8</ele>
      </trkpt>
      <trkpt lat="36.59517" lon="127.217472">
        <ele>73.1</ele>
      </trkpt>
      <trkpt lat="36.5957099" lon="127.218078">
        <ele>70.9</ele>
      </trkpt>
      <trkpt lat="36.597822" lon="127.218895">
        <ele>69.7</ele>
      </trkpt>
      <trkpt lat="36.598199" lon="127.219361">
        <ele>68.3</ele>
      </trkpt>
      <trkpt lat="36.598914" lon="127.220684">
        <ele>67.6</ele>
      </trkpt>
      <trkpt lat="36.599018" lon="127.221693">
        <ele>67.2</ele>
      </trkpt>
      <trkpt lat="36.598284" lon="127.225574">
        <ele>66.6</ele>
      </trkpt>
      <trkpt lat="36.59834" lon="127.226145">
        <ele>65.9</ele>
      </trkpt>
      <trkpt lat="36.59869" lon="127.227133">
        <ele>66.5</ele>
      </trkpt>
      <trkpt lat="36.600557" lon="127.227367">
        <ele>67.1</ele>
      </trkpt>
      <trkpt lat="36.601757" lon="127.227878">
        <ele>67.9</ele>
      </trkpt>
      <trkpt lat="36.602449" lon="127.228316">
        <ele>69.1</ele>
      </trkpt>
      <trkpt lat="36.603942" lon="127.229642">
        <ele>70.2</ele>
      </trkpt>
      <trkpt lat="36.604519" lon="127.230324">
        <ele>71.5</ele>
      </trkpt>
      <trkpt lat="36.604765" lon="127.231958">
        <ele>71.4</ele>
      </trkpt>
      <trkpt lat="36.605372" lon="127.232733">
        <ele>72.5</ele>
      </trkpt>
      <trkpt lat="36.605837" lon="127.233747">
        <ele>73.6</ele>
      </trkpt>
      <trkpt lat="36.606127" lon="127.233961">
        <ele>73.5</ele>
      </trkpt>
      <trkpt lat="36.606383" lon="127.234021">
        <ele>74.9</ele>
      </trkpt>
      <trkpt lat="36.606597" lon="127.233935">
        <ele>75.9</ele>
      </trkpt>
      <trkpt lat="36.6071389" lon="127.232788">
        <ele>76.1</ele>
      </trkpt>
      <trkpt lat="36.607587" lon="127.23254">
        <ele>75.7</ele>
      </trkpt>
      <trkpt lat="36.609331" lon="127.232532">
        <ele>76.2</ele>
      </trkpt>
      <trkpt lat="36.609864" lon="127.232991">
        <ele>75.6</ele>
      </trkpt>
      <trkpt lat="36.610911" lon="127.235751">
        <ele>75.7</ele>
      </trkpt>
      <trkpt lat="36.611556" lon="127.236507">
        <ele>74.9</ele>
      </trkpt>
      <trkpt lat="36.611759" lon="127.237204">
        <ele>74.2</ele>
      </trkpt>
      <trkpt lat="36.611571" lon="127.238614">
        <ele>74.4</ele>
      </trkpt>
      <trkpt lat="36.610354" lon="127.239883">
        <ele>74.4</ele>
      </trkpt>
      <trkpt lat="36.610254" lon="127.240427">
        <ele>74.9</ele>
      </trkpt>
      <trkpt lat="36.6104709" lon="127.240779">
        <ele>74.4</ele>
      </trkpt>
      <trkpt lat="36.611013" lon="127.241252">
        <ele>73.9</ele>
      </trkpt>
      <trkpt lat="36.611275" lon="127.242116">
        <ele>73.5</ele>
      </trkpt>
      <trkpt lat="36.611519" lon="127.242245">
        <ele>72.1</ele>
      </trkpt>
      <trkpt lat="36.612038" lon="127.242178">
        <ele>71.0</ele>
      </trkpt>
      <trkpt lat="36.612318" lon="127.242289">
        <ele>71.0</ele>
      </trkpt>
      <trkpt lat="36.613355" lon="127.243252">
        <ele>71.7</ele>
      </trkpt>
      <trkpt lat="36.613711" lon="127.243739">
        <ele>71.6</ele>
      </trkpt>
      <trkpt lat="36.613721" lon="127.244124">
        <ele>71.5</ele>
      </trkpt>
      <trkpt lat="36.613583" lon="127.244432">
        <ele>70.3</ele>
      </trkpt>
      <trkpt lat="36.613392" lon="127.24462">
        <ele>69.9</ele>
      </trkpt>
      <trkpt lat="36.6128039" lon="127.244848">
        <ele>69.5</ele>
      </trkpt>
      <trkpt lat="36.612571" lon="127.245219">
        <ele>68.2</ele>
      </trkpt>
      <trkpt lat="36.612545" lon="127.24631">
        <ele>66.9</ele>
      </trkpt>
      <trkpt lat="36.612926" lon="127.247243">
        <ele>65.9</ele>
      </trkpt>
      <trkpt lat="36.612913" lon="127.24748">
        <ele>65.7</ele>
      </trkpt>
      <trkpt lat="36.612741" lon="127.247734">
        <ele>65.5</ele>
      </trkpt>
      <trkpt lat="36.612695" lon="127.247591">
        <ele>67.2</ele>
      </trkpt>
      <trkpt lat="36.6126829" lon="127.247552">
        <ele>65.8</ele>
      </trkpt>
      <trkpt lat="36.612679" lon="127.24756">
        <ele>66.1</ele>
      </trkpt>
      <trkpt lat="36.61271" lon="127.247759">
        <ele>66.1</ele>
      </trkpt>
      <trkpt lat="36.612796" lon="127.24779">
        <ele>65.8</ele>
      </trkpt>
      <trkpt lat="36.612842" lon="127.247756">
        <ele>65.5</ele>
      </trkpt>
      <trkpt lat="36.6129729" lon="127.247291">
        <ele>65.7</ele>
      </trkpt>
      <trkpt lat="36.612905" lon="127.246934">
        <ele>66.5</ele>
      </trkpt>
      <trkpt lat="36.612588" lon="127.246339">
        <ele>67.8</ele>
      </trkpt>
      <trkpt lat="36.612621" lon="127.245271">
        <ele>68.2</ele>
      </trkpt>
      <trkpt lat="36.612801" lon="127.244949">
        <ele>69.4</ele>
      </trkpt>
      <trkpt lat="36.613632" lon="127.244493">
        <ele>69.7</ele>
      </trkpt>
      <trkpt lat="36.613763" lon="127.244176">
        <ele>69.9</ele>
      </trkpt>
      <trkpt lat="36.61376" lon="127.243767">
        <ele>69.7</ele>
      </trkpt>
      <trkpt lat="36.613442" lon="127.243302">
        <ele>69.8</ele>
      </trkpt>
      <trkpt lat="36.612311" lon="127.242234">
        <ele>70.5</ele>
      </trkpt>
      <trkpt lat="36.611319" lon="127.242089">
        <ele>71.5</ele>
      </trkpt>
      <trkpt lat="36.611042" lon="127.241258">
        <ele>72.6</ele>
      </trkpt>
      <trkpt lat="36.610311" lon="127.240474">
        <ele>73.3</ele>
      </trkpt>
      <trkpt lat="36.610311" lon="127.24013">
        <ele>74.1</ele>
      </trkpt>
      <trkpt lat="36.610482" lon="127.239849">
        <ele>75.0</ele>
      </trkpt>
      <trkpt lat="36.611652" lon="127.23863">
        <ele>75.7</ele>
      </trkpt>
      <trkpt lat="36.611827" lon="127.237123">
        <ele>76.1</ele>
      </trkpt>
      <trkpt lat="36.611607" lon="127.236434">
        <ele>76.1</ele>
      </trkpt>
      <trkpt lat="36.611133" lon="127.236047">
        <ele>76.8</ele>
      </trkpt>
      <trkpt lat="36.610915" lon="127.235708">
        <ele>76.7</ele>
      </trkpt>
      <trkpt lat="36.609847" lon="127.232879">
        <ele>76.3</ele>
      </trkpt>
      <trkpt lat="36.609626" lon="127.232628">
        <ele>76.9</ele>
      </trkpt>
      <trkpt lat="36.6091399" lon="127.232447">
        <ele>76.9</ele>
      </trkpt>
      <trkpt lat="36.607463" lon="127.232513">
        <ele>76.7</ele>
      </trkpt>
      <trkpt lat="36.607" lon="127.232895">
        <ele>75.9</ele>
      </trkpt>
      <trkpt lat="36.606569" lon="127.23388">
        <ele>74.5</ele>
      </trkpt>
      <trkpt lat="36.606165" lon="127.233908">
        <ele>73.7</ele>
      </trkpt>
      <trkpt lat="36.605832" lon="127.233648">
        <ele>73.0</ele>
      </trkpt>
      <trkpt lat="36.605444" lon="127.232729">
        <ele>71.9</ele>
      </trkpt>
      <trkpt lat="36.604781" lon="127.231946">
        <ele>70.8</ele>
      </trkpt>
      <trkpt lat="36.604559" lon="127.230338">
        <ele>69.8</ele>
      </trkpt>
      <trkpt lat="36.604137" lon="127.229755">
        <ele>68.5</ele>
      </trkpt>
      <trkpt lat="36.601917" lon="127.227937">
        <ele>67.3</ele>
      </trkpt>
      <trkpt lat="36.600655" lon="127.227352">
        <ele>66.5</ele>
      </trkpt>
      <trkpt lat="36.5990899" lon="127.227084">
        <ele>65.9</ele>
      </trkpt>
      <trkpt lat="36.5986509" lon="127.226706">
        <ele>67.0</ele>
      </trkpt>
      <trkpt lat="36.598477" lon="127.226397">
        <ele>67.0</ele>
      </trkpt>
      <trkpt lat="36.59834" lon="127.225369">
        <ele>69.3</ele>
      </trkpt>
      <trkpt lat="36.599084" lon="127.221578">
        <ele>71.3</ele>
      </trkpt>
      <trkpt lat="36.6010149" lon="127.219945">
        <ele>74.3</ele>
      </trkpt>
      <trkpt lat="36.602013" lon="127.218926">
        <ele>78.4</ele>
      </trkpt>
      <trkpt lat="36.603231" lon="127.218504">
        <ele>82.8</ele>
      </trkpt>
      <trkpt lat="36.60472" lon="127.217603">
        <ele>88.8</ele>
      </trkpt>
      <trkpt lat="36.607222" lon="127.216649">
        <ele>97.3</ele>
      </trkpt>
      <trkpt lat="36.611211" lon="127.21766">
        <ele>106.2</ele>
      </trkpt>
      <trkpt lat="36.6121539" lon="127.218129">
        <ele>114.8</ele>
      </trkpt>
      <trkpt lat="36.612969" lon="127.218782">
        <ele>122.7</ele>
      </trkpt>
      <trkpt lat="36.614534" lon="127.219297">
        <ele>129.1</ele>
      </trkpt>
      <trkpt lat="36.617115" lon="127.219677">
        <ele>135.3</ele>
      </trkpt>
      <trkpt lat="36.618061" lon="127.219548">
        <ele>139.1</ele>
      </trkpt>
      <trkpt lat="36.619583" lon="127.219685">
        <ele>141.8</ele>
      </trkpt>
      <trkpt lat="36.620014" lon="127.219598">
        <ele>143.9</ele>
      </trkpt>
      <trkpt lat="36.620538" lon="127.219175">
        <ele>144.4</ele>
      </trkpt>
      <trkpt lat="36.621328" lon="127.218036">
        <ele>144.6</ele>
      </trkpt>
      <trkpt lat="36.621783" lon="127.217765">
        <ele>141.1</ele>
      </trkpt>
      <trkpt lat="36.622158" lon="127.217706">
        <ele>136.7</ele>
      </trkpt>
      <trkpt lat="36.625793" lon="127.217838">
        <ele>131.2</ele>
      </trkpt>
      <trkpt lat="36.627646" lon="127.218108">
        <ele>125.0</ele>
      </trkpt>
      <trkpt lat="36.629414" lon="127.217882">
        <ele>116.9</ele>
      </trkpt>
      <trkpt lat="36.6314629" lon="127.218509">
        <ele>107.9</ele>
      </trkpt>
      <trkpt lat="36.632281" lon="127.218601">
        <ele>99.1</ele>
      </trkpt>
      <trkpt lat="36.646303" lon="127.217378">
        <ele>91.0</ele>
      </trkpt>
      <trkpt lat="36.646735" lon="127.217231">
        <ele>84.3</ele>
      </trkpt>
      <trkpt lat="36.647827" lon="127.216484">
        <ele>77.3</ele>
      </trkpt>
      <trkpt lat="36.649113" lon="127.214319">
        <ele>72.5</ele>
      </trkpt>
      <trkpt lat="36.649898" lon="127.213268">
        <ele>70.0</ele>
      </trkpt>
      <trkpt lat="36.650765" lon="127.212693">
        <ele>68.1</ele>
      </trkpt>
      <trkpt lat="36.651242" lon="127.212552">
        <ele>66.6</ele>
      </trkpt>
      <trkpt lat="36.651882" lon="127.212617">
        <ele>64.3</ele>
      </trkpt>
      <trkpt lat="36.652082" lon="127.212775">
        <ele>64.5</ele>
      </trkpt>
      <trkpt lat="36.652456" lon="127.213853">
        <ele>64.7</ele>
      </trkpt>
      <trkpt lat="36.653429" lon="127.215083">
        <ele>65.1</ele>
      </trkpt>
      <trkpt lat="36.6543009" lon="127.217535">
        <ele>65.4</ele>
      </trkpt>
      <trkpt lat="36.65451" lon="127.217881">
        <ele>66.2</ele>
      </trkpt>
      <trkpt lat="36.654836" lon="127.218147">
        <ele>67.7</ele>
      </trkpt>
      <trkpt lat="36.655738" lon="127.218377">
        <ele>69.4</ele>
      </trkpt>
      <trkpt lat="36.655816" lon="127.218247">
        <ele>69.5</ele>
      </trkpt>
      <trkpt lat="36.655667" lon="127.217916">
        <ele>69.3</ele>
      </trkpt>
      <trkpt lat="36.655668" lon="127.217828">
        <ele>69.7</ele>
      </trkpt>
      <trkpt lat="36.65573" lon="127.217763">
        <ele>70.7</ele>
      </trkpt>
      <trkpt lat="36.657998" lon="127.217353">
        <ele>69.5</ele>
      </trkpt>
      <trkpt lat="36.659044" lon="127.21699">
        <ele>68.5</ele>
      </trkpt>
      <trkpt lat="36.659492" lon="127.216506">
        <ele>67.6</ele>
      </trkpt>
      <trkpt lat="36.660316" lon="127.215216">
        <ele>67.9</ele>
      </trkpt>
      <trkpt lat="36.661295" lon="127.214669">
        <ele>67.9</ele>
      </trkpt>
      <trkpt lat="36.663579" lon="127.21415">
        <ele>68.0</ele>
      </trkpt>
      <trkpt lat="36.665261" lon="127.214119">
        <ele>68.0</ele>
      </trkpt>
      <trkpt lat="36.666884" lon="127.213951">
        <ele>68.0</ele>
      </trkpt>
      <trkpt lat="36.668124" lon="127.213504">
        <ele>66.9</ele>
      </trkpt>
      <trkpt lat="36.675367" lon="127.208591">
        <ele>65.6</ele>
      </trkpt>
      <trkpt lat="36.675755" lon="127.207898">
        <ele>63.9</ele>
      </trkpt>
      <trkpt lat="36.675996" lon="127.207135">
        <ele>63.9</ele>
      </trkpt>
      <trkpt lat="36.675953" lon="127.207075">
        <ele>64.3</ele>
      </trkpt>
      <trkpt lat="36.676156" lon="127.205153">
        <ele>64.4</ele>
      </trkpt>
      <trkpt lat="36.676157" lon="127.205147">
        <ele>63.7</ele>
      </trkpt>
      <trkpt lat="36.676976" lon="127.205208">
        <ele>63.9</ele>
      </trkpt>
      <trkpt lat="36.676955" lon="127.20596">
        <ele>64.0</ele>
      </trkpt>
      <trkpt lat="36.676971" lon="127.20617">
        <ele>63.9</ele>
      </trkpt>
      <trkpt lat="36.677075" lon="127.206295">
        <ele>63.6</ele>
      </trkpt>
      <trkpt lat="36.677349" lon="127.206327">
        <ele>63.7</ele>
      </trkpt>
      <trkpt lat="36.679035" lon="127.205923">
        <ele>64.1</ele>
      </trkpt>
      <trkpt lat="36.679252" lon="127.205773">
        <ele>65.1</ele>
      </trkpt>
      <trkpt lat="36.6793369" lon="127.205714">
        <ele>66.1</ele>
      </trkpt>
      <trkpt lat="36.679269" lon="127.205128">
        <ele>66.8</ele>
      </trkpt>
      <trkpt lat="36.679539" lon="127.203236">
        <ele>67.1</ele>
      </trkpt>
      <trkpt lat="36.679801" lon="127.199906">
        <ele>67.3</ele>
      </trkpt>
      <trkpt lat="36.6797929" lon="127.199964">
        <ele>67.1</ele>
      </trkpt>
      <trkpt lat="36.680444" lon="127.19663">
        <ele>66.9</ele>
      </trkpt>
      <trkpt lat="36.680548" lon="127.194503">
        <ele>66.4</ele>
      </trkpt>
      <trkpt lat="36.680034" lon="127.184812">
        <ele>65.9</ele>
      </trkpt>
      <trkpt lat="36.680483" lon="127.183011">
        <ele>65.3</ele>
      </trkpt>
      <trkpt lat="36.682251" lon="127.178829">
        <ele>64.7</ele>
      </trkpt>
      <trkpt lat="36.682484" lon="127.178297">
        <ele>64.2</ele>
      </trkpt>
      <trkpt lat="36.686438" lon="127.168761">
        <ele>63.9</ele>
      </trkpt>
      <trkpt lat="36.687859" lon="127.166398">
        <ele>63.7</ele>
      </trkpt>
      <trkpt lat="36.688517" lon="127.163595">
        <ele>63.2</ele>
      </trkpt>
      <trkpt lat="36.688342" lon="127.16074">
        <ele>62.1</ele>
      </trkpt>
      <trkpt lat="36.688691" lon="127.159967">
        <ele>62.3</ele>
      </trkpt>
      <trkpt lat="36.689119" lon="127.159202">
        <ele>62.7</ele>
      </trkpt>
      <trkpt lat="36.688901" lon="127.158894">
        <ele>65.0</ele>
      </trkpt>
      <trkpt lat="36.688624" lon="127.157153">
        <ele>67.3</ele>
      </trkpt>
      <trkpt lat="36.687889" lon="127.157512">
        <ele>70.1</ele>
      </trkpt>
      <trkpt lat="36.687822" lon="127.157545">
        <ele>72.9</ele>
      </trkpt>
      <trkpt lat="36.686482" lon="127.155801">
        <ele>76.7</ele>
      </trkpt>
      <trkpt lat="36.684601" lon="127.150663">
        <ele>78.8</ele>
      </trkpt>
      <trkpt lat="36.6846" lon="127.15066">
        <ele>81.3</ele>
      </trkpt>
      <trkpt lat="36.68313" lon="127.1455">
        <ele>83.3</ele>
      </trkpt>
      <trkpt lat="36.68297" lon="127.14479">
        <ele>86.0</ele>
      </trkpt>
      <trkpt lat="36.68297" lon="127.14461">
        <ele>86.9</ele>
      </trkpt>
      <trkpt lat="36.68301" lon="127.14431">
        <ele>88.3</ele>
      </trkpt>
      <trkpt lat="36.68483" lon="127.14172">
        <ele>89.0</ele>
      </trkpt>
      <trkpt lat="36.68544" lon="127.13946">
        <ele>88.6</ele>
      </trkpt>
      <trkpt lat="36.68577" lon="127.13871">
        <ele>86.7</ele>
      </trkpt>
      <trkpt lat="36.6879599" lon="127.13538">
        <ele>84.7</ele>
      </trkpt>
      <trkpt lat="36.68999" lon="127.1317">
        <ele>81.6</ele>
      </trkpt>
      <trkpt lat="36.691018" lon="127.130392">
        <ele>78.7</ele>
      </trkpt>
      <trkpt lat="36.6914" lon="127.12995">
        <ele>75.9</ele>
      </trkpt>
      <trkpt lat="36.6925" lon="127.12848">
        <ele>72.9</ele>
      </trkpt>
      <trkpt lat="36.69476" lon="127.12364">
        <ele>68.2</ele>
      </trkpt>
      <trkpt lat="36.698424" lon="127.118543">
        <ele>65.5</ele>
      </trkpt>
      <trkpt lat="36.700986" lon="127.115763">
        <ele>61.9</ele>
      </trkpt>
      <trkpt lat="36.7058" lon="127.110861">
        <ele>58.9</ele>
      </trkpt>
      <trkpt lat="36.706043" lon="127.110617">
        <ele>54.9</ele>
      </trkpt>
      <trkpt lat="36.706487" lon="127.110684">
        <ele>52.3</ele>
      </trkpt>
      <trkpt lat="36.707279" lon="127.111697">
        <ele>49.3</ele>
      </trkpt>
      <trkpt lat="36.715508" lon="127.11864">
        <ele>47.1</ele>
      </trkpt>
      <trkpt lat="36.7158" lon="127.118306">
        <ele>45.9</ele>
      </trkpt>
      <trkpt lat="36.718158" lon="127.119081">
        <ele>45.1</ele>
      </trkpt>
      <trkpt lat="36.719947" lon="127.120313">
        <ele>44.3</ele>
      </trkpt>
      <trkpt lat="36.723792" lon="127.119895">
        <ele>43.0</ele>
      </trkpt>
      <trkpt lat="36.7250159" lon="127.119202">
        <ele>41.3</ele>
      </trkpt>
      <trkpt lat="36.726469" lon="127.11922">
        <ele>39.4</ele>
      </trkpt>
      <trkpt lat="36.727445" lon="127.11967">
        <ele>37.6</ele>
      </trkpt>
      <trkpt lat="36.72921" lon="127.12102">
        <ele>36.8</ele>
      </trkpt>
      <trkpt lat="36.72934" lon="127.1211">
        <ele>35.5</ele>
      </trkpt>
      <trkpt lat="36.729784" lon="127.121329">
        <ele>34.7</ele>
      </trkpt>
      <trkpt lat="36.73422" lon="127.123014">
        <ele>34.0</ele>
      </trkpt>
      <trkpt lat="36.73772" lon="127.124716">
        <ele>33.3</ele>
      </trkpt>
      <trkpt lat="36.741335" lon="127.125984">
        <ele>32.7</ele>
      </trkpt>
      <trkpt lat="36.741755" lon="127.126074">
        <ele>31.9</ele>
      </trkpt>
      <trkpt lat="36.742427" lon="127.126161">
        <ele>31.1</ele>
      </trkpt>
      <trkpt lat="36.744983" lon="127.12614">
        <ele>31.1</ele>
      </trkpt>
      <trkpt lat="36.747722" lon="127.126512">
        <ele>31.5</ele>
      </trkpt>
      <trkpt lat="36.749402" lon="127.126377">
        <ele>32.1</ele>
      </trkpt>
      <trkpt lat="36.750419" lon="127.125836">
        <ele>33.1</ele>
      </trkpt>
      <trkpt lat="36.750588" lon="127.125983">
        <ele>34.6</ele>
      </trkpt>
      <trkpt lat="36.752344" lon="127.126958">
        <ele>37.3</ele>
      </trkpt>
      <trkpt lat="36.753486" lon="127.127403">
        <ele>39.5</ele>
      </trkpt>
      <trkpt lat="36.7573719" lon="127.127817">
        <ele>41.1</ele>
      </trkpt>
      <trkpt lat="36.758634" lon="127.127807">
        <ele>42.5</ele>
      </trkpt>
      <trkpt lat="36.760129" lon="127.128141">
        <ele>43.9</ele>
      </trkpt>
      <trkpt lat="36.761812" lon="127.12827">
        <ele>45.1</ele>
      </trkpt>
      <trkpt lat="36.762348" lon="127.128447">
        <ele>46.3</ele>
      </trkpt>
      <trkpt lat="36.764779" lon="127.129572">
        <ele>47.5</ele>
      </trkpt>
      <trkpt lat="36.765289" lon="127.129952">
        <ele>48.7</ele>
      </trkpt>
      <trkpt lat="36.766589" lon="127.131252">
        <ele>49.6</ele>
      </trkpt>
      <trkpt lat="36.766909" lon="127.131452">
        <ele>49.6</ele>
      </trkpt>
      <trkpt lat="36.767269" lon="127.131622">
        <ele>49.7</ele>
      </trkpt>
      <trkpt lat="36.76781" lon="127.132014">
        <ele>48.9</ele>
      </trkpt>
      <trkpt lat="36.7679959" lon="127.132248">
        <ele>47.7</ele>
      </trkpt>
      <trkpt lat="36.768113" lon="127.132114">
        <ele>46.0</ele>
      </trkpt>
      <trkpt lat="36.768987" lon="127.13097">
        <ele>43.3</ele>
      </trkpt>
      <trkpt lat="36.769471" lon="127.130339">
        <ele>40.9</ele>
      </trkpt>
      <trkpt lat="36.772109" lon="127.126889">
        <ele>39.1</ele>
      </trkpt>
      <trkpt lat="36.773576" lon="127.125291">
        <ele>37.6</ele>
      </trkpt>
      <trkpt lat="36.774901" lon="127.126943">
        <ele>36.3</ele>
      </trkpt>
      <trkpt lat="36.775434" lon="127.127409">
        <ele>35.2</ele>
      </trkpt>
      <trkpt lat="36.775765" lon="127.12764">
        <ele>33.2</ele>
      </trkpt>
      <trkpt lat="36.7764499" lon="127.128039">
        <ele>31.5</ele>
      </trkpt>
      <trkpt lat="36.778653" lon="127.128292">
        <ele>29.9</ele>
      </trkpt>
      <trkpt lat="36.778672" lon="127.126358">
        <ele>28.5</ele>
      </trkpt>
      <trkpt lat="36.778672" lon="127.125098">
        <ele>27.6</ele>
      </trkpt>
      <trkpt lat="36.778652" lon="127.125014">
        <ele>26.1</ele>
      </trkpt>
      <trkpt lat="36.778729" lon="127.124986">
        <ele>25.5</ele>
      </trkpt>
      <trkpt lat="36.782372" lon="127.124194">
        <ele>24.9</ele>
      </trkpt>
      <trkpt lat="36.782369" lon="127.124051">
        <ele>24.7</ele>
      </trkpt>
      <trkpt lat="36.782375" lon="127.123655">
        <ele>24.0</ele>
      </trkpt>
      <trkpt lat="36.7822109" lon="127.123342">
        <ele>23.8</ele>
      </trkpt>
      <trkpt lat="36.781881" lon="127.122235">
        <ele>23.6</ele>
      </trkpt>
      <trkpt lat="36.781283" lon="127.117281">
        <ele>23.1</ele>
      </trkpt>
      <trkpt lat="36.781238" lon="127.116812">
        <ele>22.6</ele>
      </trkpt>
      <trkpt lat="36.781232" lon="127.115072">
        <ele>22.0</ele>
      </trkpt>
      <trkpt lat="36.781546" lon="127.11333">
        <ele>22.3</ele>
      </trkpt>
      <trkpt lat="36.782081" lon="127.113346">
        <ele>22.3</ele>
      </trkpt>
      <trkpt lat="36.782085" lon="127.11292">
        <ele>22.5</ele>
      </trkpt>
      <trkpt lat="36.782133" lon="127.112293">
        <ele>22.7</ele>
      </trkpt>
      <trkpt lat="36.782309" lon="127.111556">
        <ele>22.7</ele>
      </trkpt>
      <trkpt lat="36.782526" lon="127.110692">
        <ele>22.6</ele>
      </trkpt>
      <trkpt lat="36.782632" lon="127.110341">
        <ele>22.7</ele>
      </trkpt>
      <trkpt lat="36.783467" lon="127.110107">
        <ele>22.8</ele>
      </trkpt>
      <trkpt lat="36.7840149" lon="127.109965">
        <ele>23.1</ele>
      </trkpt>
      <trkpt lat="36.784494" lon="127.109901">
        <ele>24.1</ele>
      </trkpt>
      <trkpt lat="36.784705" lon="127.109853">
        <ele>24.9</ele>
      </trkpt>
      <trkpt lat="36.784851" lon="127.109912">
        <ele>25.7</ele>
      </trkpt>
      <trkpt lat="36.784973" lon="127.109818">
        <ele>26.9</ele>
      </trkpt>
      <trkpt lat="36.7851489" lon="127.109748">
        <ele>28.5</ele>
      </trkpt>
      <trkpt lat="36.785613" lon="127.109622">
        <ele>30.0</ele>
      </trkpt>
      <trkpt lat="36.786189" lon="127.10949">
        <ele>31.3</ele>
      </trkpt>
      <trkpt lat="36.786988" lon="127.109276">
        <ele>33.1</ele>
      </trkpt>
      <trkpt lat="36.787476" lon="127.109136">
        <ele>34.8</ele>
      </trkpt>
      <trkpt lat="36.788058" lon="127.109008">
        <ele>36.1</ele>
      </trkpt>
      <trkpt lat="36.788694" lon="127.108857">
        <ele>37.1</ele>
      </trkpt>
      <trkpt lat="36.789175" lon="127.108678">
        <ele>39.1</ele>
      </trkpt>
      <trkpt lat="36.78994" lon="127.108487">
        <ele>41.1</ele>
      </trkpt>
      <trkpt lat="36.790631" lon="127.108305">
        <ele>42.4</ele>
      </trkpt>
      <trkpt lat="36.7920919" lon="127.107932">
        <ele>43.4</ele>
      </trkpt>
      <trkpt lat="36.79201" lon="127.107516">
        <ele>43.2</ele>
      </trkpt>
      <trkpt lat="36.7911829" lon="127.107712">
        <ele>47.0</ele>
      </trkpt>
      <trkpt lat="36.791059" lon="127.107742">
        <ele>43.0</ele>
      </trkpt>
      <trkpt lat="36.790352" lon="127.107945">
        <ele>39.0</ele>
      </trkpt>
    </trkseg>
  </trk>
</gpx>
